<?xml version="1.0" encoding="utf-8" ?>
<kml xmlns="http://www.opengis.net/kml/2.2">
<Document id="root_doc">
<Schema name="shape" id="shape">
	<SimpleField name="District" type="string"></SimpleField>
	<SimpleField name="Code" type="string"></SimpleField>
</Schema>
<Folder><name>shape</name>
  <Placemark>
	<Style><LineStyle><color>ff0000ff</color></LineStyle><PolyStyle><fill>0</fill></PolyStyle></Style>
	<ExtendedData><SchemaData schemaUrl="#shape">
		<SimpleData name="District">Georgia 6</SimpleData>
		<SimpleData name="Code">GA-6</SimpleData>
	</SchemaData></ExtendedData>
      <Polygon><outerBoundaryIs><LinearRing><coordinates>-84.767494,33.786895 -84.767817,33.786555 -84.768662,33.786006 -84.769526,33.785219 -84.769856,33.784844 -84.769998,33.784593 -84.770193,33.78423 -84.770255,33.783781 -84.770149,33.783194 -84.770499,33.783223 -84.771108,33.783178 -84.771421,33.783071 -84.771696,33.782861 -84.771878,33.782699 -84.771946,33.782292 -84.771944,33.78207 -84.771967,33.781739 -84.771965,33.781334 -84.771989,33.780939 -84.772007,33.780809 -84.772037,33.779393 -84.772054,33.778692 -84.772086,33.777923 -84.772049,33.775364 -84.772005,33.774395 -84.771996,33.773873 -84.772003,33.773603 -84.772058,33.773267 -84.772151,33.77299 -84.772256,33.772732 -84.772404,33.772342 -84.772588,33.771917 -84.772716,33.771655 -84.772839,33.771344 -84.77312,33.770762 -84.773288,33.770255 -84.773453,33.769712 -84.773571,33.768905 -84.773718,33.767305 -84.773785,33.76669 -84.773866,33.766168 -84.773991,33.765832 -84.774098,33.765613 -84.774431,33.765111 -84.774946,33.764386 -84.775327,33.763926 -84.775746,33.763532 -84.775977,33.76329 -84.776158,33.762976 -84.776304,33.762675 -84.776444,33.762283 -84.776645,33.761772 -84.776748,33.761414 -84.777046,33.761304 -84.777479,33.761123 -84.778247,33.760704 -84.779581,33.759989 -84.780375,33.759657 -84.780821,33.759512 -84.780853,33.757779 -84.780836,33.757331 -84.780759,33.756843 -84.780568,33.755887 -84.780485,33.755627 -84.780457,33.755426 -84.780509,33.754329 -84.780589,33.753682 -84.78123,33.751109 -84.781188,33.750628 -84.780982,33.750047 -84.780363,33.748789 -84.780106,33.748359 -84.779864,33.748003 -84.7797,33.747799 -84.779557,33.747672 -84.779449,33.747548 -84.779133,33.747305 -84.777864,33.746473 -84.777509,33.746224 -84.777354,33.74608 -84.777254,33.745905 -84.777149,33.745551 -84.777082,33.745362 -84.777061,33.74512 -84.777122,33.744655 -84.777231,33.744058 -84.777326,33.743745 -84.777355,33.743606 -84.777384,33.74353 -84.777412,33.743333 -84.777395,33.743147 -84.777355,33.743076 -84.777238,33.742986 -84.777406,33.742817 -84.777723,33.742541 -84.778426,33.73955 -84.778629,33.738728 -84.77867,33.738416 -84.77865,33.7379 -84.778411,33.737057 -84.778093,33.735841 -84.777799,33.734783 -84.777121,33.731696 -84.777013,33.730925 -84.776987,33.730319 -84.776956,33.729126 -84.776902,33.726953 -84.776889,33.726396 -84.776867,33.725003 -84.776838,33.723555 -84.776828,33.723231 -84.775646,33.723641 -84.775044,33.723846 -84.766087,33.727007 -84.76511,33.727335 -84.764426,33.727525 -84.762259,33.727907 -84.762133,33.727935 -84.762125,33.727374 -84.762129,33.725976 -84.762079,33.725359 -84.762108,33.724823 -84.76232,33.723663 -84.76252,33.72271 -84.762702,33.722144 -84.763131,33.721565 -84.76336,33.721225 -84.763605,33.72089 -84.763747,33.720678 -84.76418,33.720172 -84.764346,33.719813 -84.764739,33.718422 -84.764877,33.71787 -84.764979,33.717622 -84.765116,33.717387 -84.765267,33.717189 -84.765484,33.716979 -84.765979,33.716595 -84.765364,33.716246 -84.765199,33.716176 -84.764995,33.716079 -84.764111,33.716053 -84.762785,33.716049 -84.761877,33.716043 -84.761148,33.715587 -84.760911,33.715431 -84.76046,33.715172 -84.760084,33.715024 -84.759686,33.714755 -84.758844,33.714088 -84.758567,33.713813 -84.758324,33.71365 -84.758159,33.713608 -84.757924,33.713522 -84.757707,33.71347 -84.75716,33.713266 -84.756689,33.713175 -84.756126,33.712993 -84.755576,33.712681 -84.755078,33.712445 -84.754774,33.712232 -84.754497,33.712026 -84.754029,33.71161 -84.753565,33.711313 -84.753107,33.711089 -84.752597,33.710893 -84.752032,33.710634 -84.751493,33.710414 -84.750967,33.710179 -84.750694,33.710116 -84.750301,33.710052 -84.749014,33.709975 -84.748576,33.709887 -84.748208,33.709688 -84.747881,33.70937 -84.747716,33.709063 -84.747488,33.708454 -84.747786,33.708404 -84.748055,33.708376 -84.748303,33.708374 -84.748672,33.70841 -84.74974,33.708479 -84.752859,33.708757 -84.75308,33.708774 -84.753355,33.708786 -84.753824,33.70875 -84.754194,33.708692 -84.754511,33.708603 -84.75504,33.708396 -84.755397,33.708193 -84.75572,33.708017 -84.756257,33.707676 -84.757309,33.707076 -84.75751,33.706971 -84.758785,33.70622 -84.760453,33.705164 -84.761668,33.704447 -84.762645,33.703894 -84.7631,33.703682 -84.763461,33.703546 -84.764253,33.703291 -84.764579,33.703179 -84.765316,33.702964 -84.765064,33.70288 -84.764768,33.702796 -84.764502,33.702669 -84.76397,33.702429 -84.763209,33.702063 -84.762549,33.701723 -84.761685,33.701305 -84.760723,33.700855 -84.760248,33.700608 -84.760348,33.699159 -84.757783,33.699086 -84.757781,33.697794 -84.757897,33.697384 -84.75807,33.697056 -84.758359,33.696731 -84.759113,33.695981 -84.759522,33.695677 -84.759698,33.695554 -84.75428,33.693632 -84.753671,33.693122 -84.75224,33.691311 -84.74925,33.688314 -84.749152,33.687615 -84.749153,33.687215 -84.749456,33.685916 -84.749959,33.685117 -84.751566,33.682319 -84.749973,33.680021 -84.748977,33.678723 -84.74869,33.673627 -84.747701,33.67187 -84.747368,33.671234 -84.747809,33.670958 -84.748019,33.6709 -84.748086,33.6709 -84.748237,33.670931 -84.748371,33.670989 -84.748645,33.671188 -84.749457,33.672078 -84.749716,33.672728 -84.750087,33.674789 -84.750544,33.675383 -84.751015,33.675926 -84.751203,33.676256 -84.751314,33.676461 -84.751479,33.676902 -84.751509,33.676993 -84.751596,33.677312 -84.751741,33.677701 -84.751858,33.67787 -84.751956,33.677959 -84.752148,33.678048 -84.75254,33.678182 -84.753173,33.678332 -84.7533,33.678383 -84.753807,33.67869 -84.754003,33.678815 -84.754222,33.679007 -84.754391,33.679167 -84.754712,33.679542 -84.755032,33.68005 -84.755215,33.680297 -84.755412,33.680465 -84.755506,33.680514 -84.755582,33.680603 -84.756062,33.680975 -84.756417,33.68115 -84.757215,33.68162 -84.758029,33.681973 -84.758805,33.682197 -84.758594,33.681179 -84.758571,33.680586 -84.758602,33.679484 -84.758641,33.679268 -84.758652,33.678864 -84.758702,33.678667 -84.758817,33.678434 -84.759082,33.678273 -84.759413,33.678014 -84.759986,33.677503 -84.760207,33.677185 -84.760271,33.676926 -84.760308,33.676448 -84.760322,33.675902 -84.76051,33.675234 -84.762534,33.673528 -84.76303,33.673017 -84.763273,33.672782 -84.763494,33.672492 -84.76359,33.672234 -84.763612,33.672022 -84.763602,33.671796 -84.763403,33.671097 -84.763105,33.670125 -84.762152,33.667769 -84.761358,33.665561 -84.761061,33.664623 -84.760985,33.664247 -84.760841,33.663821 -84.760758,33.663662 -84.760674,33.663548 -84.760581,33.663449 -84.760393,33.663319 -84.760234,33.663225 -84.760066,33.663142 -84.759868,33.663065 -84.759536,33.662978 -84.759105,33.662852 -84.758464,33.662689 -84.757758,33.662458 -84.756811,33.662085 -84.756026,33.661756 -84.755558,33.661501 -84.755351,33.661371 -84.755397,33.661138 -84.75236,33.658583 -84.757249,33.65371 -84.757837,33.653258 -84.762489,33.649829 -84.766337,33.646646 -84.767411,33.645421 -84.767417,33.64523 -84.767472,33.645211 -84.767602,33.645074 -84.767622,33.644998 -84.767594,33.644943 -84.767602,33.644876 -84.767744,33.644698 -84.767776,33.6446 -84.767762,33.644444 -84.767802,33.644087 -84.767838,33.643833 -84.767789,33.643601 -84.767521,33.643476 -84.767303,33.643356 -84.767179,33.643325 -84.767154,33.643262 -84.766799,33.642821 -84.766603,33.642196 -84.76671,33.641224 -84.766915,33.63998 -84.766235,33.63711 -84.765677,33.636431 -84.765213,33.635818 -84.764801,33.635485 -84.764727,33.635312 -84.764878,33.635036 -84.764944,33.634888 -84.764934,33.634582 -84.764842,33.634444 -84.764819,33.634272 -84.764016,33.633206 -84.763918,33.632961 -84.763713,33.632827 -84.763606,33.632783 -84.763419,33.632685 -84.763125,33.63248 -84.762759,33.632319 -84.762254,33.631882 -84.761806,33.63154 -84.761471,33.631364 -84.761143,33.63114 -84.760881,33.630905 -84.760599,33.630641 -84.760607,33.630331 -84.760554,33.630279 -84.760529,33.630054 -84.760761,33.629768 -84.760689,33.629703 -84.760092,33.629461 -84.75904,33.628961 -84.757677,33.628171 -84.75739,33.627973 -84.757278,33.627907 -84.756837,33.62779 -84.756725,33.627742 -84.756604,33.627767 -84.756507,33.627835 -84.756449,33.627951 -84.756447,33.628265 -84.75636,33.628442 -84.756225,33.628665 -84.755962,33.628917 -84.755713,33.629062 -84.755593,33.629204 -84.755425,33.629303 -84.755196,33.629476 -84.754731,33.629782 -84.754407,33.630011 -84.753921,33.63031 -84.753808,33.630395 -84.753699,33.630439 -84.75351,33.630462 -84.753426,33.630415 -84.752735,33.63021 -84.752935,33.62791 -84.755035,33.62511 -84.755004,33.62511 -84.757214,33.62235 -84.758448,33.621007 -84.759308,33.618877 -84.760559,33.61709 -84.762404,33.614841 -84.763097,33.614211 -84.764977,33.61348 -84.769194,33.612282 -84.770949,33.611542 -84.773776,33.610555 -84.775591,33.609662 -84.7778,33.608224 -84.78042,33.606249 -84.782557,33.604367 -84.78297,33.603919 -84.783928,33.602887 -84.785849,33.601261 -84.788498,33.599302 -84.795069,33.596441 -84.796536,33.595592 -84.79731,33.594672 -84.799105,33.592536 -84.801231,33.590007 -84.802428,33.589107 -84.804265,33.587979 -84.804987,33.587309 -84.805655,33.58642 -84.806436,33.585039 -84.807398,33.583087 -84.808284,33.578896 -84.80838,33.578447 -84.808554,33.576414 -84.808934,33.574085 -84.80927,33.572845 -84.810192,33.571627 -84.811797,33.570489 -84.814314,33.569554 -84.815488,33.568937 -84.817699,33.567918 -84.818712,33.567105 -84.820953,33.56586 -84.822294,33.565042 -84.823606,33.564192 -84.824445,33.563377 -84.825184,33.562198 -84.826122,33.56056 -84.826801,33.558185 -84.82705,33.556954 -84.827256,33.555929 -84.827345,33.55442 -84.827686,33.553471 -84.828266,33.552605 -84.829436,33.5516 -84.830648,33.550933 -84.831159,33.550261 -84.832134,33.548672 -84.8326,33.547061 -84.832336,33.545267 -84.831641,33.544049 -84.830613,33.543222 -84.829209,33.54249 -84.827554,33.541804 -84.826499,33.540833 -84.824876,33.538572 -84.8235,33.535183 -84.822117,33.532156 -84.821003,33.530636 -84.816698,33.526854 -84.815161,33.52465 -84.814722,33.522426 -84.815057,33.521194 -84.815869,33.520249 -84.818079,33.518447 -84.81999,33.517353 -84.823015,33.515785 -84.826157,33.514032 -84.827611,33.513329 -84.831072,33.512895 -84.834695,33.513215 -84.838336,33.514252 -84.841042,33.51482 -84.844286,33.514691 -84.845695,33.514375 -84.847279,33.513996 -84.849311,33.513184 -84.849715,33.512486 -84.850593,33.511647 -84.850713,33.511457 -84.848373,33.51144 -84.841463,33.511394 -84.837142,33.511398 -84.833763,33.511374 -84.829106,33.511343 -84.828868,33.511341 -84.813457,33.511266 -84.813401,33.511266 -84.804387,33.511199 -84.800363,33.511169 -84.795754,33.511135 -84.794054,33.511122 -84.782832,33.511038 -84.774747,33.510977 -84.769759,33.510941 -84.764114,33.510899 -84.758889,33.510865 -84.757791,33.510855 -84.749934,33.510795 -84.747924,33.510638 -84.745584,33.510658 -84.744537,33.510668 -84.73674,33.510735 -84.730537,33.51079 -84.729764,33.510798 -84.72907,33.510803 -84.727424,33.510851 -84.721003,33.510895 -84.710859,33.510967 -84.710823,33.511317 -84.706789,33.511336 -84.699835,33.511369 -84.699178,33.511373 -84.694916,33.511395 -84.692893,33.511406 -84.681172,33.511463 -84.680029,33.51147 -84.680016,33.510893 -84.676541,33.510984 -84.674888,33.511029 -84.672314,33.511097 -84.672239,33.50995 -84.671136,33.510019 -84.670774,33.510013 -84.670774,33.510545 -84.670726,33.511148 -84.67011,33.511111 -84.670103,33.51155 -84.670105,33.511758 -84.668327,33.511727 -84.66776,33.511713 -84.665756,33.511659 -84.663416,33.511604 -84.661147,33.511535 -84.658516,33.51145 -84.657144,33.51143 -84.654957,33.511401 -84.654284,33.511393 -84.64973,33.511332 -84.64286,33.511241 -84.640163,33.511203 -84.637095,33.511163 -84.633857,33.51112 -84.632846,33.511105 -84.631833,33.511094 -84.627734,33.511038 -84.624931,33.510907 -84.621031,33.510713 -84.620931,33.504112 -84.620879,33.503291 -84.620761,33.503287 -84.620027,33.503281 -84.616371,33.503257 -84.616345,33.502581 -84.616339,33.502515 -84.60954,33.502511 -84.609435,33.502561 -84.609238,33.502633 -84.609049,33.502719 -84.608875,33.502825 -84.608634,33.503005 -84.608403,33.503194 -84.608333,33.503262 -84.608209,33.503408 -84.608109,33.503569 -84.608035,33.503738 -84.60798,33.503815 -84.607833,33.503946 -84.607648,33.504036 -84.607567,33.504095 -84.607437,33.504239 -84.607344,33.504402 -84.607264,33.504568 -84.607249,33.504748 -84.607295,33.504924 -84.607333,33.505007 -84.607438,33.505166 -84.607524,33.505331 -84.60762,33.505589 -84.607701,33.505851 -84.607715,33.50594 -84.607714,33.50612 -84.607694,33.506299 -84.60771,33.506479 -84.607732,33.506566 -84.607798,33.506739 -84.60789,33.506901 -84.607915,33.506988 -84.607909,33.507168 -84.607847,33.50734 -84.607749,33.507479 -84.607576,33.507644 -84.607455,33.507793 -84.607362,33.507956 -84.607266,33.508214 -84.607227,33.508392 -84.607212,33.508662 -84.60723,33.50884 -84.607227,33.50893 -84.607177,33.509106 -84.607131,33.509186 -84.607016,33.50934 -84.606919,33.509487 -84.606768,33.509739 -84.606643,33.509886 -84.606424,33.510084 -84.606292,33.510227 -84.60567,33.511071 -84.605463,33.511277 -84.605319,33.51135 -84.605238,33.511375 -84.605091,33.511482 -84.605032,33.511557 -84.604841,33.511879 -84.604732,33.512036 -84.604604,33.51218 -84.604531,33.512245 -84.604369,33.512365 -84.604181,33.512452 -84.603974,33.512499 -84.603666,33.51251 -84.603335,33.512428 -84.602931,33.512349 -84.602718,33.512323 -84.602503,33.512324 -84.601756,33.512408 -84.601542,33.512423 -84.601435,33.51241 -84.601335,33.512379 -84.601244,33.512331 -84.601167,33.512268 -84.600972,33.512193 -84.600759,33.512169 -84.600548,33.512197 -84.600454,33.512241 -84.600376,33.512303 -84.60019,33.512392 -84.599984,33.512442 -84.599873,33.512445 -84.59977,33.512472 -84.59968,33.512521 -84.59961,33.512588 -84.599564,33.51267 -84.599329,33.512971 -84.599221,33.513126 -84.599145,33.513191 -84.599055,33.513241 -84.598849,33.513289 -84.598652,33.513359 -84.598379,33.513503 -84.598118,33.513663 -84.598039,33.513724 -84.597898,33.51386 -84.597837,33.513934 -84.597735,33.514093 -84.597662,33.514263 -84.597576,33.514539 -84.597481,33.514798 -84.59741,33.514968 -84.597197,33.515369 -84.597101,33.515593 -84.597015,33.515758 -84.596918,33.515918 -84.596809,33.516074 -84.596627,33.516297 -84.596228,33.516838 -84.596156,33.516931 -84.596006,33.51717 -84.595899,33.517425 -84.595628,33.517724 -84.59556,33.517842 -84.595163,33.518192 -84.595017,33.518309 -84.594892,33.518455 -84.594798,33.518617 -84.594726,33.518707 -84.58853,33.520311 -84.58793,33.520511 -84.586826,33.52077 -84.585281,33.521129 -84.582709,33.521749 -84.576433,33.523266 -84.576109,33.523344 -84.574697,33.523719 -84.573438,33.524062 -84.570289,33.524918 -84.568564,33.525386 -84.566294,33.526003 -84.56436,33.52653 -84.561595,33.527247 -84.560855,33.527427 -84.55744,33.528261 -84.556857,33.528405 -84.556838,33.528295 -84.556831,33.528115 -84.556851,33.527935 -84.556898,33.527759 -84.556973,33.527591 -84.557027,33.527513 -84.557033,33.527424 -84.556991,33.527341 -84.556908,33.527285 -84.556791,33.527135 -84.556755,33.52705 -84.556707,33.526862 -84.556674,33.526777 -84.556586,33.526612 -84.556445,33.526428 -84.556351,33.526266 -84.556277,33.526097 -84.556226,33.525942 -84.555902,33.525219 -84.555833,33.525048 -84.555747,33.524788 -84.555681,33.524523 -84.555654,33.524379 -84.555592,33.524206 -84.55555,33.52403 -84.555529,33.523851 -84.555527,33.523491 -84.555446,33.523229 -84.555448,33.523139 -84.555481,33.523054 -84.555542,33.522979 -84.555665,33.522908 -84.555894,33.5225 -84.556011,33.522349 -84.55646,33.52196 -84.556602,33.521825 -84.556861,33.521547 -84.55708,33.52135 -84.557611,33.521019 -84.55777,33.520898 -84.557907,33.520759 -84.558136,33.520446 -84.558253,33.520269 -84.558383,33.520047 -84.558504,33.519796 -84.558573,33.519624 -84.558659,33.519365 -84.558705,33.519188 -84.558734,33.51901 -84.558743,33.51883 -84.558732,33.518665 -84.55873,33.518394 -84.558765,33.518216 -84.558765,33.518126 -84.558732,33.517949 -84.558609,33.517673 -84.558447,33.517448 -84.558088,33.517226 -84.55802,33.517073 -84.557951,33.516551 -84.558279,33.515822 -84.558264,33.5156 -84.55818,33.515479 -84.557692,33.515189 -84.557264,33.514792 -84.556967,33.514693 -84.556509,33.514654 -84.556387,33.514601 -84.556311,33.514583 -84.5557,33.51464 -84.554998,33.51464 -84.554555,33.5146 -84.554394,33.514556 -84.55358,33.514169 -84.553306,33.514015 -84.55318,33.513962 -84.552849,33.513722 -84.552601,33.513631 -84.552462,33.513491 -84.552473,33.513325 -84.552247,33.513062 -84.552242,33.512959 -84.552209,33.512814 -84.552075,33.512723 -84.551979,33.512621 -84.551941,33.512503 -84.551887,33.512277 -84.551774,33.512025 -84.551769,33.511896 -84.551672,33.511778 -84.551554,33.511778 -84.551382,33.511805 -84.551135,33.511832 -84.550969,33.511859 -84.550684,33.511794 -84.550507,33.511719 -84.550378,33.511697 -84.550255,33.511622 -84.550083,33.51159 -84.549956,33.51151 -84.549911,33.511501 -84.549687,33.511501 -84.549475,33.511459 -84.549367,33.511381 -84.549301,33.511277 -84.549283,33.511197 -84.549138,33.511044 -84.548773,33.51077 -84.548521,33.510523 -84.548438,33.51046 -84.54833,33.510412 -84.548068,33.510351 -84.547975,33.510317 -84.547848,33.510239 -84.547475,33.510064 -84.546982,33.509893 -84.546275,33.509574 -84.545984,33.509482 -84.545624,33.509379 -84.545315,33.509309 -84.545135,33.509236 -84.544796,33.509155 -84.544607,33.509064 -84.544262,33.508859 -84.544064,33.508768 -84.543875,33.508625 -84.543712,33.508511 -84.543384,33.50835 -84.543135,33.508184 -84.542747,33.507979 -84.542264,33.507742 -84.542006,33.50759 -84.541333,33.507247 -84.540635,33.506724 -84.540559,33.506619 -84.54013,33.506197 -84.53999,33.506022 -84.539827,33.505902 -84.539698,33.505833 -84.539518,33.505698 -84.53926,33.505524 -84.538894,33.505158 -84.538698,33.504978 -84.538647,33.504918 -84.538107,33.504391 -84.53804,33.504286 -84.537921,33.50416 -84.537862,33.504078 -84.537737,33.503841 -84.53768,33.503715 -84.537607,33.503515 -84.537531,33.503419 -84.537367,33.503328 -84.537255,33.503252 -84.537201,33.503182 -84.537001,33.503134 -84.536793,33.503034 -84.536594,33.502957 -84.536404,33.502902 -84.536265,33.50284 -84.536094,33.502727 -84.535974,33.502622 -84.535829,33.502509 -84.535698,33.502478 -84.535558,33.502474 -84.5354,33.502516 -84.535224,33.502541 -84.535118,33.502569 -84.534996,33.502573 -84.534883,33.502542 -84.534692,33.502637 -84.534593,33.502738 -84.534388,33.502879 -84.534237,33.502951 -84.534034,33.503005 -84.53343,33.503014 -84.533073,33.502971 -84.532829,33.502921 -84.53276,33.502876 -84.532598,33.502727 -84.532335,33.502443 -84.532184,33.502235 -84.531867,33.501972 -84.531336,33.50143 -84.531155,33.501345 -84.530799,33.501237 -84.530678,33.50119 -84.530451,33.501156 -84.530136,33.501171 -84.530082,33.501222 -84.529883,33.501444 -84.52981,33.501554 -84.529773,33.501634 -84.5297,33.501742 -84.529511,33.501922 -84.529413,33.501978 -84.529131,33.50206 -84.52899,33.502094 -84.52878,33.502083 -84.528245,33.502302 -84.52813,33.502345 -84.527945,33.502378 -84.527779,33.502375 -84.527544,33.502341 -84.527449,33.502273 -84.527391,33.502191 -84.527366,33.502117 -84.52725,33.501965 -84.527235,33.501542 -84.527176,33.501182 -84.527038,33.500706 -84.52686,33.500147 -84.526572,33.499586 -84.526257,33.499012 -84.526061,33.498626 -84.525847,33.498379 -84.525527,33.498075 -84.52519,33.498039 -84.524927,33.498041 -84.524564,33.498072 -84.524176,33.498097 -84.523928,33.498101 -84.523491,33.498095 -84.52306,33.498071 -84.522851,33.498095 -84.522557,33.498148 -84.522285,33.498272 -84.521786,33.498711 -84.521619,33.498845 -84.521336,33.498993 -84.521086,33.499071 -84.520847,33.499104 -84.520564,33.499105 -84.520134,33.498877 -84.519848,33.498817 -84.519561,33.498766 -84.519281,33.498827 -84.51904,33.498951 -84.518827,33.499113 -84.518407,33.499375 -84.518206,33.499462 -84.517976,33.499541 -84.517796,33.499558 -84.517509,33.49954 -84.517297,33.499511 -84.517084,33.499465 -84.516864,33.499352 -84.516685,33.499191 -84.516547,33.499001 -84.516429,33.498773 -84.516375,33.498573 -84.516369,33.498257 -84.51639,33.49805 -84.516529,33.497869 -84.516662,33.497739 -84.517114,33.497369 -84.517344,33.497166 -84.517533,33.496979 -84.517643,33.496769 -84.517777,33.496422 -84.517867,33.496054 -84.517918,33.495818 -84.517903,33.495638 -84.517761,33.495395 -84.517462,33.495115 -84.517039,33.494811 -84.516563,33.494594 -84.516274,33.494475 -84.516112,33.494425 -84.515838,33.494434 -84.515695,33.494425 -84.515557,33.494341 -84.515464,33.494221 -84.515378,33.49413 -84.515287,33.494058 -84.515205,33.494011 -84.515104,33.493976 -84.514925,33.493941 -84.514556,33.493929 -84.514385,33.493886 -84.514263,33.49381 -84.514047,33.493712 -84.513957,33.493679 -84.513617,33.493643 -84.513402,33.493678 -84.513173,33.493678 -84.512705,33.49367 -84.512595,33.493682 -84.51237,33.493733 -84.51202,33.493845 -84.511661,33.494007 -84.511481,33.494132 -84.511314,33.494231 -84.511137,33.494315 -84.511035,33.494342 -84.51051,33.494377 -84.51038,33.494377 -84.510191,33.494349 -84.509833,33.494263 -84.509793,33.494223 -84.509767,33.494128 -84.509645,33.494086 -84.509554,33.49409 -84.509484,33.49412 -84.509473,33.493992 -84.509473,33.493779 -84.50945,33.493691 -84.509404,33.493609 -84.509315,33.493521 -84.509129,33.49337 -84.509067,33.493297 -84.509009,33.49317 -84.508997,33.493029 -84.509048,33.492694 -84.509126,33.492384 -84.509246,33.492072 -84.509303,33.491947 -84.509379,33.491684 -84.509364,33.491551 -84.509193,33.491273 -84.509111,33.491107 -84.509087,33.49102 -84.509081,33.49093 -84.509136,33.490589 -84.509198,33.490418 -84.509207,33.490237 -84.509186,33.49015 -84.508913,33.489694 -84.508753,33.489517 -84.50866,33.489365 -84.508543,33.489108 -84.508457,33.488947 -84.508331,33.488815 -84.508111,33.488774 -84.508138,33.488645 -84.508108,33.488442 -84.508155,33.488214 -84.508209,33.488098 -84.508285,33.487732 -84.508177,33.487537 -84.508125,33.487363 -84.508119,33.487273 -84.508139,33.487119 -84.508134,33.486939 -84.508107,33.486761 -84.508058,33.486586 -84.507196,33.483773 -84.507104,33.483611 -84.506986,33.483486 -84.50638,33.483032 -84.506194,33.48287 -84.506024,33.482695 -84.505932,33.482584 -84.505816,33.482397 -84.50577,33.482084 -84.50578,33.481713 -84.505777,33.481095 -84.505755,33.480825 -84.50574,33.480718 -84.505641,33.480441 -84.505001,33.47964 -84.502941,33.47787 -84.502775,33.477534 -84.502656,33.477347 -84.502609,33.477172 -84.502609,33.476988 -84.502597,33.476899 -84.502529,33.476728 -84.502442,33.476613 -84.5022,33.476388 -84.501869,33.475918 -84.501649,33.475726 -84.501439,33.475464 -84.501158,33.475169 -84.500888,33.474933 -84.500637,33.474556 -84.500331,33.474158 -84.500081,33.473712 -84.499788,33.473095 -84.499728,33.472876 -84.499718,33.472741 -84.499726,33.472606 -84.499691,33.472397 -84.499414,33.471916 -84.499255,33.471682 -84.498867,33.471269 -84.498559,33.470928 -84.498466,33.470787 -84.498376,33.470565 -84.497819,33.469281 -84.497718,33.469068 -84.497635,33.468953 -84.497501,33.468812 -84.497359,33.468719 -84.497129,33.46853 -84.497028,33.468425 -84.496655,33.467984 -84.49631,33.467503 -84.496223,33.467342 -84.496194,33.467163 -84.49622,33.466845 -84.496165,33.466769 -84.496082,33.466713 -84.496022,33.466638 -84.495968,33.46651 -84.495928,33.466334 -84.495944,33.466155 -84.495994,33.466026 -84.496012,33.465874 -84.496014,33.465739 -84.496004,33.465604 -84.495982,33.465471 -84.495954,33.465379 -84.49586,33.465218 -84.495794,33.465147 -84.495501,33.464906 -84.495385,33.464864 -84.495227,33.464841 -84.495168,33.464891 -84.495065,33.464886 -84.494901,33.464661 -84.494771,33.464382 -84.494684,33.464021 -84.494653,33.463983 -84.494625,33.463852 -84.494663,33.463769 -84.494867,33.463558 -84.494977,33.463459 -84.495138,33.463351 -84.495264,33.463206 -84.495339,33.463037 -84.495396,33.462797 -84.495388,33.462612 -84.495349,33.46253 -84.495277,33.462621 -84.495246,33.462725 -84.49512,33.462792 -84.495168,33.462573 -84.495171,33.462469 -84.495201,33.462392 -84.495174,33.462305 -84.495052,33.462195 -84.495079,33.462111 -84.495125,33.462089 -84.495284,33.461903 -84.495343,33.46182 -84.495406,33.461696 -84.495401,33.461563 -84.495349,33.461485 -84.495248,33.461427 -84.495193,33.461351 -84.495208,33.461264 -84.495306,33.461247 -84.495343,33.46128 -84.495552,33.461297 -84.495646,33.461256 -84.495692,33.461177 -84.495676,33.461087 -84.495627,33.461008 -84.495628,33.46092 -84.495767,33.460729 -84.495852,33.460531 -84.495542,33.460369 -84.494929,33.460017 -84.496006,33.459247 -84.496294,33.459036 -84.496493,33.458904 -84.497258,33.458342 -84.497393,33.457712 -84.497442,33.457465 -84.497503,33.457087 -84.497587,33.455082 -84.49746,33.454718 -84.496873,33.453705 -84.49581,33.453163 -84.495451,33.453207 -84.494088,33.453403 -84.494157,33.453094 -84.494512,33.452213 -84.49462,33.451952 -84.494647,33.45136 -84.494469,33.450921 -84.49419,33.450265 -84.49415,33.450074 -84.494129,33.449917 -84.494148,33.449695 -84.494217,33.44943 -84.494338,33.44927 -84.494444,33.449191 -84.494581,33.44916 -84.494761,33.449191 -84.494877,33.449199 -84.495394,33.448901 -84.495565,33.448774 -84.495738,33.448614 -84.495806,33.448503 -84.495846,33.44838 -84.495463,33.448414 -84.495033,33.448461 -84.494745,33.448507 -84.493306,33.448763 -84.492913,33.44885 -84.491874,33.448993 -84.491272,33.449041 -84.490223,33.44903 -84.489647,33.448988 -84.4872,33.448821 -84.485567,33.448692 -84.48477,33.448608 -84.48461,33.4486 -84.484738,33.448949 -84.484789,33.449157 -84.485174,33.44966 -84.485006,33.449928 -84.485015,33.450521 -84.485234,33.452278 -84.48545,33.453635 -84.485625,33.45432 -84.48566,33.454963 -84.485616,33.455559 -84.485346,33.456891 -84.485492,33.459164 -84.485487,33.459949 -84.485383,33.46247 -84.485271,33.463723 -84.48516,33.464815 -84.484993,33.465956 -84.484923,33.466495 -84.484853,33.467993 -84.484851,33.468522 -84.484939,33.4692 -84.485103,33.470038 -84.485652,33.47339 -84.485813,33.474328 -84.484309,33.474038 -84.483031,33.474035 -84.4826,33.474061 -84.481728,33.474043 -84.480922,33.473954 -84.480602,33.473923 -84.480387,33.473927 -84.480173,33.473948 -84.479993,33.473979 -84.479286,33.474052 -84.47887,33.474023 -84.478426,33.473944 -84.477237,33.473737 -84.477032,33.473685 -84.476926,33.473666 -84.476713,33.473644 -84.476605,33.473643 -84.476391,33.473656 -84.476285,33.47367 -84.475767,33.473721 -84.475458,33.473795 -84.475046,33.473861 -84.473491,33.473999 -84.473652,33.474471 -84.473756,33.474811 -84.473832,33.475443 -84.473899,33.475929 -84.473953,33.478212 -84.472591,33.479976 -84.470815,33.482498 -84.470519,33.483026 -84.470275,33.483528 -84.470104,33.484099 -84.46991,33.484992 -84.469402,33.488137 -84.468796,33.487674 -84.467255,33.48657 -84.466457,33.485712 -84.465683,33.484901 -84.465257,33.484505 -84.464857,33.484216 -84.464457,33.483952 -84.464079,33.483749 -84.463491,33.483491 -84.461226,33.482827 -84.46016,33.482529 -84.459767,33.482387 -84.459528,33.482288 -84.459387,33.482219 -84.458707,33.481863 -84.458043,33.481427 -84.45747,33.480996 -84.457198,33.480803 -84.456756,33.48052 -84.456627,33.480453 -84.45633,33.480317 -84.455837,33.480127 -84.455718,33.480085 -84.455184,33.479968 -84.454912,33.479918 -84.45467,33.479893 -84.453837,33.479824 -84.453648,33.479793 -84.453207,33.47973 -84.452909,33.479671 -84.452548,33.47958 -84.452318,33.479502 -84.452015,33.479385 -84.451863,33.47929 -84.451549,33.47917 -84.451158,33.478956 -84.451069,33.478888 -84.45084,33.478732 -84.450653,33.478581 -84.450429,33.478414 -84.450231,33.478253 -84.449819,33.477987 -84.449693,33.477912 -84.449564,33.477806 -84.449433,33.47768 -84.447785,33.476622 -84.447095,33.476304 -84.446295,33.476063 -84.445856,33.475918 -84.443928,33.475377 -84.443409,33.475208 -84.44303,33.47506 -84.441474,33.474393 -84.441686,33.474192 -84.442081,33.473877 -84.442971,33.473118 -84.443824,33.47238 -84.444336,33.471899 -84.444448,33.471787 -84.444919,33.471268 -84.44542,33.470598 -84.445819,33.469993 -84.4469,33.468317 -84.44297,33.468273 -84.442734,33.468286 -84.442342,33.468367 -84.441866,33.468538 -84.441573,33.468684 -84.44134,33.468835 -84.440982,33.469015 -84.440694,33.468851 -84.440057,33.468432 -84.439411,33.467864 -84.438986,33.467277 -84.438493,33.466699 -84.437965,33.466318 -84.437367,33.465992 -84.436652,33.465435 -84.435895,33.464863 -84.434824,33.464216 -84.434106,33.463749 -84.433636,33.463289 -84.433068,33.462421 -84.432998,33.462352 -84.432888,33.462198 -84.432823,33.462026 -84.432809,33.461937 -84.43281,33.461802 -84.432726,33.46136 -84.432688,33.461267 -84.431932,33.461245 -84.431508,33.46123 -84.43097,33.461229 -84.431008,33.459383 -84.431007,33.459343 -84.428444,33.45928 -84.428453,33.458828 -84.428196,33.458638 -84.427945,33.458469 -84.427784,33.458368 -84.427349,33.458162 -84.427007,33.458027 -84.42637,33.457824 -84.426166,33.457768 -84.425957,33.457725 -84.425745,33.457693 -84.425472,33.45767 -84.42526,33.457639 -84.425051,33.457597 -84.424845,33.457545 -84.424608,33.457468 -84.424241,33.457276 -84.423753,33.456964 -84.423305,33.456712 -84.422602,33.4562 -84.422414,33.456 -84.422227,33.456162 -84.422084,33.456302 -84.421996,33.456406 -84.421706,33.45687 -84.421588,33.457122 -84.421485,33.457378 -84.42138,33.457693 -84.421308,33.458056 -84.421265,33.460017 -84.421226,33.460243 -84.421189,33.460549 -84.420898,33.461264 -84.42082,33.461432 -84.420686,33.461677 -84.420599,33.461813 -84.420466,33.462058 -84.4201,33.462712 -84.41972,33.463358 -84.419325,33.463999 -84.418863,33.464712 -84.418437,33.465339 -84.417997,33.465958 -84.417715,33.466341 -84.417584,33.466507 -84.415645,33.468631 -84.415225,33.469186 -84.414972,33.469575 -84.414916,33.469994 -84.414702,33.470834 -84.414451,33.471595 -84.414107,33.47231 -84.413634,33.473072 -84.412767,33.474198 -84.412407,33.47477 -84.412137,33.475237 -84.411919,33.475679 -84.411757,33.476076 -84.411595,33.476404 -84.411474,33.476687 -84.411339,33.476903 -84.411184,33.477124 -84.411016,33.477391 -84.410706,33.477801 -84.410475,33.47802 -84.409371,33.478966 -84.40864,33.479502 -84.407944,33.480118 -84.406576,33.481157 -84.406001,33.481564 -84.40512,33.48211 -84.403704,33.482791 -84.400735,33.484319 -84.400496,33.484443 -84.397479,33.485738 -84.397839,33.485965 -84.398348,33.486358 -84.3987,33.486538 -84.399661,33.487057 -84.401063,33.487859 -84.40263,33.488905 -84.40375,33.489646 -84.404083,33.489868 -84.404577,33.490206 -84.405292,33.490602 -84.406144,33.491129 -84.406601,33.491448 -84.407423,33.492074 -84.40789,33.49241 -84.408293,33.492719 -84.408781,33.493111 -84.409163,33.493383 -84.409555,33.493699 -84.409739,33.49391 -84.417692,33.494013 -84.418999,33.493985 -84.420428,33.493992 -84.420525,33.497712 -84.420522,33.497839 -84.420432,33.499564 -84.420425,33.499813 -84.420425,33.504298 -84.420427,33.507422 -84.420425,33.509614 -84.421673,33.510818 -84.421982,33.511179 -84.422247,33.511481 -84.422414,33.511637 -84.42262,33.511795 -84.422942,33.512127 -84.42334,33.512565 -84.423694,33.512936 -84.424151,33.513328 -84.424634,33.513798 -84.425053,33.514274 -84.425628,33.514909 -84.42597,33.515318 -84.426539,33.51597 -84.427158,33.516652 -84.427621,33.517235 -84.428453,33.518228 -84.428859,33.518802 -84.429257,33.519241 -84.429656,33.519669 -84.430053,33.520147 -84.430345,33.520474 -84.43049,33.520625 -84.43071,33.520888 -84.43112,33.521317 -84.431489,33.521793 -84.432031,33.522359 -84.43245,33.522885 -84.432781,33.523283 -84.432956,33.523527 -84.433193,33.523818 -84.433303,33.523918 -84.433446,33.524108 -84.433531,33.524274 -84.433599,33.524445 -84.433667,33.524662 -84.43372,33.524884 -84.433765,33.525151 -84.433792,33.525421 -84.4338,33.525691 -84.433778,33.52646 -84.433613,33.52758 -84.43353,33.528056 -84.433421,33.528638 -84.433237,33.529859 -84.43318,33.530571 -84.433174,33.530771 -84.433185,33.530951 -84.433218,33.531174 -84.433281,33.531485 -84.43335,33.53175 -84.433358,33.53181 -84.433438,33.532196 -84.433499,33.532656 -84.433624,33.533462 -84.433796,33.534211 -84.433921,33.535007 -84.433936,33.535247 -84.433963,33.535362 -84.434042,33.535635 -84.434137,33.536231 -84.434184,33.536732 -84.434383,33.538193 -84.434525,33.539509 -84.434588,33.539895 -84.434712,33.540872 -84.434765,33.54114 -84.434836,33.541404 -84.43491,33.54162 -84.435045,33.541904 -84.43541,33.542599 -84.435834,33.543388 -84.436242,33.544095 -84.436534,33.544747 -84.436901,33.545369 -84.43696,33.54555 -84.437074,33.54594 -84.437137,33.546112 -84.437216,33.54628 -84.437309,33.546442 -84.437609,33.546872 -84.4377,33.547069 -84.437761,33.547241 -84.437832,33.547531 -84.437891,33.547705 -84.437967,33.547874 -84.438151,33.548174 -84.438267,33.548326 -84.43853,33.548614 -84.43866,33.548811 -84.438717,33.548937 -84.438836,33.549137 -84.438957,33.549294 -84.439119,33.549582 -84.439249,33.549863 -84.439447,33.55048 -84.439448,33.55072 -84.440028,33.550739 -84.440508,33.550738 -84.442013,33.550769 -84.443223,33.550807 -84.444754,33.550846 -84.44533,33.550852 -84.446596,33.550885 -84.447341,33.550901 -84.448349,33.550894 -84.448769,33.550885 -84.450346,33.55089 -84.451162,33.550902 -84.452123,33.550899 -84.45233,33.550894 -84.45246,33.550901 -84.453977,33.550857 -84.455006,33.550865 -84.456756,33.550899 -84.457439,33.550908 -84.458665,33.550933 -84.458626,33.552134 -84.458604,33.553227 -84.458576,33.555842 -84.458579,33.556242 -84.458924,33.559759 -84.458925,33.564211 -84.458927,33.565911 -84.458784,33.568938 -84.458706,33.570516 -84.45863,33.572107 -84.458512,33.57237 -84.458399,33.572743 -84.458346,33.574543 -84.458332,33.5756 -84.458351,33.576093 -84.458335,33.576642 -84.458322,33.577273 -84.458327,33.577395 -84.458643,33.584527 -84.458627,33.586421 -84.458627,33.588192 -84.458623,33.588918 -84.458566,33.591925 -84.458526,33.593812 -84.458627,33.59591 -84.458614,33.596423 -84.45854,33.599128 -84.458528,33.599938 -84.458527,33.60801 -84.458426,33.612811 -84.458528,33.61301 -84.458508,33.613486 -84.458487,33.61428 -84.458456,33.615334 -84.458451,33.615606 -84.458438,33.61583 -84.458426,33.616183 -84.458427,33.61931 -84.458381,33.619935 -84.458327,33.62061 -84.458428,33.62101 -84.458328,33.62321 -84.458327,33.624501 -84.458296,33.624981 -84.458206,33.625133 -84.458134,33.625284 -84.45805,33.625602 -84.458017,33.628033 -84.458052,33.629153 -84.458053,33.629241 -84.459185,33.629054 -84.460226,33.628941 -84.46067,33.628912 -84.460947,33.628913 -84.461218,33.628936 -84.461784,33.629028 -84.462133,33.629153 -84.462372,33.62925 -84.462606,33.629356 -84.463057,33.629597 -84.463412,33.629861 -84.46375,33.630176 -84.463944,33.630412 -84.464094,33.63063 -84.464964,33.632215 -84.46509,33.63239 -84.465362,33.632741 -84.465528,33.63293 -84.465669,33.633076 -84.465909,33.633312 -84.466135,33.633515 -84.466534,33.633835 -84.466944,33.634096 -84.467366,33.634315 -84.467768,33.634505 -84.467983,33.634572 -84.468271,33.634679 -84.472391,33.635854 -84.472521,33.634501 -84.472546,33.634405 -84.472637,33.633562 -84.472665,33.633079 -84.472695,33.631043 -84.47268,33.629329 -84.472661,33.628701 -84.472602,33.628593 -84.472435,33.628447 -84.473576,33.627529 -84.474391,33.626876 -84.475947,33.625627 -84.476349,33.625328 -84.476758,33.625063 -84.477212,33.624811 -84.477667,33.624596 -84.478154,33.624402 -84.478658,33.624237 -84.479031,33.624141 -84.479018,33.624253 -84.478923,33.628432 -84.47892,33.628837 -84.478866,33.629884 -84.478857,33.630713 -84.478157,33.630723 -84.477366,33.630729 -84.477345,33.633245 -84.480199,33.633285 -84.480248,33.633248 -84.479918,33.632877 -84.480426,33.632837 -84.480566,33.633165 -84.480945,33.633186 -84.480916,33.633294 -84.484083,33.633337 -84.486513,33.633331 -84.486633,33.633179 -84.486976,33.632854 -84.487099,33.632719 -84.487236,33.632523 -84.487338,33.632316 -84.487408,33.632094 -84.487438,33.631857 -84.487525,33.631884 -84.488959,33.631868 -84.48894,33.632228 -84.489304,33.632227 -84.489433,33.632583 -84.489544,33.632867 -84.489734,33.633323 -84.490082,33.63332 -84.490345,33.633324 -84.490489,33.633635 -84.490675,33.634011 -84.491043,33.634644 -84.491306,33.635111 -84.491517,33.635434 -84.491949,33.635996 -84.492103,33.636251 -84.492148,33.636298 -84.494226,33.63902 -84.494792,33.639865 -84.49487,33.639992 -84.495096,33.640388 -84.495433,33.640934 -84.495601,33.641238 -84.496575,33.643443 -84.497211,33.645363 -84.497248,33.645505 -84.497407,33.646581 -84.497652,33.648181 -84.49768,33.648386 -84.497704,33.648755 -84.49771,33.649016 -84.497731,33.651309 -84.497726,33.65245 -84.497733,33.652778 -84.49776,33.656606 -84.498603,33.656631 -84.49899,33.656603 -84.499345,33.656559 -84.499819,33.656449 -84.499889,33.656441 -84.500103,33.656393 -84.500512,33.656275 -84.500793,33.656178 -84.501337,33.655957 -84.503632,33.654947 -84.503721,33.6549 -84.503832,33.654876 -84.504193,33.654733 -84.504641,33.654541 -84.504927,33.654441 -84.505229,33.654343 -84.505494,33.654273 -84.505835,33.654215 -84.506231,33.65417 -84.506655,33.654157 -84.506901,33.654163 -84.507194,33.654179 -84.507535,33.654221 -84.50798,33.654303 -84.509308,33.654636 -84.509993,33.654794 -84.512913,33.655472 -84.514393,33.655835 -84.515591,33.656124 -84.515603,33.65594 -84.51562,33.655062 -84.51923,33.655809 -84.519899,33.655697 -84.520361,33.65574 -84.520592,33.655802 -84.520781,33.65579 -84.520914,33.65574 -84.521071,33.655787 -84.521198,33.655791 -84.521363,33.655848 -84.521425,33.655852 -84.521616,33.655835 -84.521669,33.656304 -84.521726,33.656704 -84.521916,33.656698 -84.522085,33.657999 -84.522174,33.658745 -84.522276,33.659475 -84.52241,33.660567 -84.522437,33.660915 -84.522492,33.661243 -84.522612,33.662056 -84.522643,33.662404 -84.522722,33.663012 -84.522822,33.664124 -84.522819,33.664402 -84.522783,33.664703 -84.522754,33.664897 -84.522652,33.665288 -84.522544,33.665545 -84.522466,33.665707 -84.522178,33.666213 -84.522036,33.666412 -84.521729,33.66676 -84.521491,33.666965 -84.52136,33.667066 -84.52116,33.667203 -84.520714,33.66748 -84.519046,33.668404 -84.518493,33.668744 -84.517956,33.66916 -84.517572,33.669534 -84.517232,33.669916 -84.516757,33.670593 -84.516583,33.670917 -84.516456,33.671201 -84.516291,33.671731 -84.516224,33.671993 -84.516035,33.67284 -84.516003,33.673022 -84.515939,33.673326 -84.515792,33.673983 -84.515679,33.674606 -84.51559,33.675138 -84.515495,33.675617 -84.515326,33.676228 -84.515263,33.676513 -84.51501,33.677404 -84.514956,33.67754 -84.514834,33.677812 -84.514473,33.678457 -84.514189,33.678829 -84.513728,33.679464 -84.513581,33.679659 -84.513363,33.679918 -84.512528,33.68103 -84.512082,33.681643 -84.511873,33.681913 -84.51172,33.682185 -84.511592,33.682484 -84.511497,33.682783 -84.511472,33.683008 -84.511427,33.683308 -84.511434,33.683552 -84.511494,33.683996 -84.511535,33.684176 -84.511699,33.684626 -84.511808,33.684834 -84.511964,33.685096 -84.512023,33.685179 -84.511859,33.686368 -84.51158,33.688455 -84.511484,33.690311 -84.511435,33.690611 -84.511304,33.69156 -84.510914,33.693266 -84.510839,33.693646 -84.510364,33.696952 -84.510332,33.697037 -84.510266,33.697111 -84.509439,33.697788 -84.50903,33.698091 -84.508839,33.698214 -84.507446,33.699053 -84.507223,33.699232 -84.507037,33.699444 -84.506842,33.699741 -84.506685,33.7001 -84.506531,33.70048 -84.506355,33.701005 -84.506283,33.701303 -84.506243,33.701604 -84.506221,33.702017 -84.50613,33.702804 -84.506126,33.703329 -84.506138,33.703586 -84.506193,33.703968 -84.506451,33.705138 -84.50656,33.705673 -84.506754,33.706227 -84.50685,33.706589 -84.507055,33.707574 -84.507147,33.708167 -84.507149,33.708462 -84.507116,33.708646 -84.507034,33.708826 -84.506828,33.7091 -84.506286,33.70974 -84.506194,33.709901 -84.506084,33.710182 -84.506056,33.710311 -84.506044,33.710457 -84.50604,33.71252 -84.506038,33.71283 -84.506059,33.713014 -84.506013,33.713013 -84.505979,33.71514 -84.505946,33.715408 -84.501532,33.715411 -84.501342,33.715441 -84.499927,33.715709 -84.50113,33.717808 -84.50113,33.719108 -84.500457,33.719109 -84.49643,33.719112 -84.496437,33.721599 -84.496376,33.723514 -84.496341,33.724992 -84.496431,33.724885 -84.496486,33.724853 -84.496624,33.724911 -84.496764,33.724878 -84.496809,33.724954 -84.49688,33.724881 -84.496936,33.724933 -84.496996,33.724953 -84.497064,33.724884 -84.49716,33.724932 -84.497272,33.724964 -84.497319,33.724953 -84.497419,33.724866 -84.497525,33.724906 -84.497568,33.724893 -84.497699,33.724939 -84.497853,33.724912 -84.497949,33.724939 -84.49804,33.725009 -84.498167,33.725067 -84.498388,33.725 -84.500339,33.724996 -84.500594,33.724994 -84.500715,33.724733 -84.500799,33.724489 -84.500827,33.72432 -84.500827,33.724226 -84.500809,33.724011 -84.500809,33.723889 -84.500922,33.7239 -84.501204,33.723903 -84.500995,33.724043 -84.501212,33.724267 -84.5017,33.723907 -84.501906,33.723909 -84.502099,33.725181 -84.502052,33.727135 -84.502109,33.727134 -84.502031,33.72828 -84.501858,33.729591 -84.501934,33.730023 -84.50182,33.731555 -84.505793,33.731577 -84.505707,33.736707 -84.505662,33.73936 -84.50702,33.739318 -84.507244,33.73933 -84.507498,33.739361 -84.507943,33.73946 -84.508155,33.739528 -84.50841,33.739631 -84.507796,33.740608 -84.506371,33.742685 -84.505795,33.743501 -84.505137,33.744479 -84.504453,33.745529 -84.503814,33.746489 -84.503081,33.747523 -84.502586,33.748274 -84.50231,33.748731 -84.502029,33.749145 -84.501782,33.749491 -84.501663,33.749637 -84.501195,33.750091 -84.500744,33.750378 -84.500495,33.750492 -84.499697,33.750742 -84.499528,33.75079 -84.499234,33.750842 -84.499004,33.750873 -84.498469,33.750928 -84.497634,33.751005 -84.496604,33.751079 -84.495733,33.751139 -84.494428,33.751218 -84.493019,33.751345 -84.490987,33.75148 -84.489662,33.751597 -84.489272,33.751652 -84.488795,33.751756 -84.487978,33.752013 -84.487642,33.752158 -84.487264,33.752354 -84.48684,33.752626 -84.4864,33.752946 -84.486119,33.753141 -84.485589,33.753562 -84.485378,33.753737 -84.485144,33.753912 -84.484654,33.754199 -84.484449,33.754309 -84.48416,33.754424 -84.483905,33.754512 -84.48363,33.7546 -84.483228,33.754706 -84.482827,33.754768 -84.482231,33.75481 -84.481894,33.754819 -84.481925,33.754975 -84.482163,33.75593 -84.482303,33.756481 -84.482376,33.756676 -84.482531,33.756979 -84.482762,33.757371 -84.482869,33.757592 -84.482926,33.757849 -84.482937,33.758099 -84.482932,33.758456 -84.482912,33.758725 -84.482785,33.759315 -84.482636,33.75996 -84.482569,33.760147 -84.482537,33.760325 -84.482522,33.760564 -84.482536,33.76078 -84.482572,33.760949 -84.482726,33.761486 -84.482869,33.761832 -84.483032,33.762039 -84.483186,33.762176 -84.484436,33.763017 -84.484082,33.763248 -84.482953,33.764046 -84.482795,33.76414 -84.482584,33.764231 -84.482354,33.764294 -84.481926,33.764316 -84.481278,33.764326 -84.481314,33.764688 -84.48132,33.764894 -84.481346,33.765037 -84.48142,33.765261 -84.481543,33.765493 -84.481665,33.765661 -84.481767,33.765764 -84.482679,33.766452 -84.480597,33.767433 -84.479617,33.76789 -84.479318,33.768012 -84.479016,33.768108 -84.478701,33.768164 -84.478438,33.768179 -84.477924,33.768168 -84.476623,33.768169 -84.475653,33.768256 -84.475466,33.76832 -84.47531,33.768431 -84.475231,33.768528 -84.475177,33.768636 -84.474791,33.769924 -84.474704,33.770057 -84.474573,33.770161 -84.474409,33.770227 -84.474206,33.770252 -84.473012,33.770259 -84.4732,33.770479 -84.473372,33.770717 -84.473428,33.770929 -84.473468,33.771167 -84.473505,33.77175 -84.473601,33.773677 -84.47366,33.774767 -84.473739,33.776318 -84.473065,33.775948 -84.472844,33.775834 -84.472402,33.775634 -84.472037,33.775504 -84.471665,33.77539 -84.471449,33.77603 -84.471026,33.776136 -84.469627,33.776503 -84.468718,33.776746 -84.46777,33.777094 -84.467523,33.777161 -84.466724,33.777392 -84.466709,33.778226 -84.46677,33.778391 -84.467115,33.779022 -84.46658,33.779038 -84.465909,33.779076 -84.465882,33.779925 -84.465801,33.781187 -84.4658,33.781261 -84.465852,33.78131 -84.465922,33.781471 -84.46609,33.781754 -84.466151,33.781937 -84.466165,33.782062 -84.466139,33.78244 -84.466141,33.782613 -84.466129,33.782675 -84.466076,33.782769 -84.465992,33.782842 -84.465866,33.782983 -84.465606,33.783307 -84.465563,33.783422 -84.465561,33.783574 -84.465542,33.783685 -84.465263,33.784353 -84.465167,33.78483 -84.465192,33.785487 -84.464007,33.785909 -84.464031,33.786184 -84.464115,33.786511 -84.464411,33.787333 -84.464463,33.787511 -84.464046,33.787742 -84.46275,33.786806 -84.462419,33.786537 -84.462073,33.786207 -84.461741,33.785831 -84.461249,33.785198 -84.46054,33.784369 -84.460288,33.784101 -84.459911,33.783783 -84.458926,33.783047 -84.458684,33.782874 -84.458456,33.782727 -84.458144,33.782565 -84.457384,33.782906 -84.457008,33.78318 -84.457009,33.783427 -84.45686,33.784462 -84.456553,33.785716 -84.456459,33.78599 -84.45641,33.786168 -84.457003,33.786391 -84.457114,33.786458 -84.457203,33.786546 -84.457743,33.787416 -84.4578,33.787607 -84.457834,33.78797 -84.457881,33.78812 -84.457963,33.788263 -84.458076,33.788391 -84.458202,33.78849 -84.458694,33.788732 -84.459715,33.789155 -84.457857,33.789404 -84.456307,33.789903 -84.455103,33.790166 -84.452732,33.790302 -84.452797,33.790549 -84.452844,33.79076 -84.452844,33.790914 -84.452774,33.791032 -84.452676,33.79127 -84.45261,33.791383 -84.452507,33.791462 -84.452327,33.791679 -84.452249,33.791818 -84.452184,33.791893 -84.452132,33.792038 -84.452095,33.792263 -84.452125,33.792365 -84.451928,33.792602 -84.451886,33.792766 -84.451976,33.793062 -84.451971,33.793242 -84.45186,33.793379 -84.451717,33.793591 -84.450266,33.792828 -84.449639,33.793706 -84.449075,33.794501 -84.448336,33.794144 -84.447118,33.793558 -84.443295,33.791683 -84.43659,33.788397 -84.43581,33.788039 -84.43509,33.787751 -84.434473,33.787469 -84.433974,33.787195 -84.433602,33.786916 -84.433136,33.78654 -84.432905,33.786403 -84.432764,33.786344 -84.432603,33.786295 -84.432337,33.786253 -84.432372,33.786942 -84.432383,33.787223 -84.432373,33.787426 -84.432104,33.787347 -84.431531,33.787195 -84.431001,33.787101 -84.428701,33.786928 -84.427904,33.786879 -84.427991,33.787314 -84.427549,33.787237 -84.42711,33.787228 -84.426926,33.787239 -84.426393,33.787299 -84.426119,33.787323 -84.42573,33.787331 -84.425544,33.787322 -84.425408,33.787303 -84.425084,33.78723 -84.424701,33.787127 -84.423901,33.786861 -84.422999,33.786534 -84.42227,33.786437 -84.422079,33.786423 -84.421853,33.786418 -84.421562,33.786436 -84.421346,33.786466 -84.421124,33.786505 -84.42082,33.786591 -84.420579,33.786682 -84.420107,33.786944 -84.419893,33.787104 -84.419574,33.78738 -84.419408,33.787608 -84.41922,33.787856 -84.418948,33.788243 -84.418649,33.788702 -84.418532,33.788923 -84.418476,33.789047 -84.418319,33.789446 -84.418241,33.789745 -84.418156,33.790039 -84.417741,33.791291 -84.417408,33.792539 -84.417301,33.792993 -84.417254,33.793229 -84.41723,33.793443 -84.417224,33.793638 -84.417261,33.793804 -84.417326,33.794051 -84.41748,33.794315 -84.417676,33.794569 -84.417896,33.794814 -84.420326,33.796893 -84.423788,33.800769 -84.424066,33.801105 -84.423043,33.801231 -84.422799,33.801242 -84.42279,33.801322 -84.422706,33.8016 -84.422665,33.801672 -84.422604,33.801735 -84.42079,33.802877 -84.420431,33.802381 -84.420343,33.802273 -84.420182,33.802119 -84.419974,33.801966 -84.41917,33.801407 -84.418229,33.80075 -84.417924,33.800577 -84.417771,33.800517 -84.417609,33.800479 -84.417474,33.800467 -84.417231,33.800467 -84.417229,33.801412 -84.415755,33.801372 -84.41559,33.801378 -84.415282,33.801832 -84.413916,33.803858 -84.413752,33.804131 -84.413612,33.804452 -84.41344,33.804873 -84.413311,33.805179 -84.413211,33.805397 -84.41251,33.804979 -84.410418,33.804068 -84.40934,33.803672 -84.408286,33.803276 -84.407806,33.8031 -84.407803,33.803632 -84.407798,33.805806 -84.407791,33.808318 -84.407782,33.810189 -84.407749,33.812169 -84.407704,33.814672 -84.407664,33.816976 -84.407629,33.819227 -84.407614,33.820308 -84.406671,33.820306 -84.405431,33.820248 -84.405307,33.820254 -84.405091,33.820249 -84.404877,33.820223 -84.404772,33.820202 -84.404567,33.820145 -84.404372,33.820068 -84.404188,33.819974 -84.404019,33.819862 -84.403428,33.819309 -84.403291,33.819193 -84.403169,33.819044 -84.403082,33.81888 -84.403052,33.818793 -84.402981,33.818529 -84.402922,33.818356 -84.402815,33.818101 -84.402732,33.817934 -84.402195,33.817102 -84.401982,33.816744 -84.401823,33.816509 -84.401652,33.816279 -84.401514,33.816141 -84.401436,33.816079 -84.401263,33.81597 -84.401075,33.815883 -84.400877,33.815811 -84.400671,33.815756 -84.400353,33.815707 -84.400137,33.815697 -84.399922,33.815705 -84.399706,33.81569 -84.399491,33.815707 -84.399283,33.815755 -84.399184,33.81579 -84.398976,33.81584 -84.398764,33.815872 -84.398441,33.815887 -84.398119,33.815861 -84.397556,33.815871 -84.397252,33.815873 -84.397038,33.815898 -84.396828,33.81594 -84.396626,33.816003 -84.396438,33.81609 -84.396266,33.8162 -84.396188,33.816262 -84.396049,33.8164 -84.395936,33.816553 -84.39589,33.816635 -84.395146,33.817699 -84.394675,33.818293 -84.394574,33.818382 -84.394416,33.818504 -84.394247,33.818616 -84.394068,33.818718 -84.39397,33.818755 -84.393761,33.818797 -84.393653,33.818801 -84.393438,33.818786 -84.393224,33.818758 -84.393014,33.818717 -84.392808,33.818664 -84.392023,33.818518 -84.391353,33.818417 -84.390996,33.818377 -84.390786,33.818337 -84.390579,33.818286 -84.390376,33.818224 -84.390082,33.81811 -84.389055,33.817659 -84.389196,33.817442 -84.389417,33.81718 -84.389742,33.81683 -84.390126,33.816403 -84.390496,33.816001 -84.390796,33.815756 -84.391135,33.815559 -84.391316,33.815389 -84.391453,33.815235 -84.391597,33.815023 -84.39175,33.814753 -84.391958,33.814302 -84.392212,33.81372 -84.392393,33.81323 -84.392417,33.813058 -84.392397,33.812884 -84.392358,33.812726 -84.392301,33.812557 -84.392193,33.812314 -84.392165,33.812161 -84.392166,33.811914 -84.392186,33.811658 -84.392205,33.811553 -84.390863,33.811604 -84.389291,33.81168 -84.386817,33.811772 -84.386439,33.81179 -84.385986,33.811824 -84.385586,33.811869 -84.385228,33.811922 -84.384679,33.812033 -84.384382,33.812123 -84.382785,33.81269 -84.382117,33.812935 -84.382251,33.81303 -84.382336,33.813129 -84.382503,33.813412 -84.382078,33.813567 -84.381594,33.813719 -84.38089,33.813909 -84.38021,33.814154 -84.379375,33.814406 -84.377864,33.814957 -84.376828,33.815421 -84.376651,33.815519 -84.376461,33.815604 -84.376159,33.815701 -84.375949,33.815744 -84.375736,33.81577 -84.375197,33.815795 -84.374765,33.815799 -84.374333,33.815789 -84.373902,33.815765 -84.37358,33.815737 -84.373152,33.815688 -84.372629,33.815691 -84.372197,33.815707 -84.371767,33.815734 -84.371494,33.81577 -84.371278,33.815784 -84.371062,33.815784 -84.370739,33.815765 -84.370418,33.815734 -84.37031,33.815743 -84.370109,33.815806 -84.370021,33.815858 -84.369945,33.815922 -84.369883,33.815996 -84.369765,33.81611 -84.369616,33.81624 -84.36938,33.816425 -84.369212,33.816538 -84.369032,33.816638 -84.368843,33.816725 -84.368646,33.816798 -84.368442,33.816857 -84.367477,33.817057 -84.367325,33.817073 -84.367113,33.817108 -84.366805,33.817191 -84.366608,33.817264 -84.365939,33.817558 -84.365743,33.817634 -84.365541,33.817698 -84.365334,33.817749 -84.365123,33.817788 -84.36491,33.817813 -84.364694,33.817825 -84.364336,33.817826 -84.364022,33.817848 -84.363243,33.818015 -84.362687,33.818175 -84.362111,33.818324 -84.361573,33.818483 -84.360165,33.820657 -84.360114,33.820713 -84.359968,33.820929 -84.359743,33.82123 -84.359548,33.821442 -84.35935,33.821604 -84.358982,33.82188 -84.358844,33.821962 -84.358546,33.822157 -84.358319,33.82229 -84.358084,33.822412 -84.35781,33.822538 -84.357433,33.822686 -84.35699,33.822819 -84.356455,33.822942 -84.355895,33.823013 -84.35464,33.823148 -84.352658,33.823466 -84.351663,33.823772 -84.351194,33.823933 -84.350745,33.824111 -84.350442,33.824224 -84.350166,33.824337 -84.349709,33.824555 -84.349231,33.824751 -84.348823,33.824972 -84.348506,33.825117 -84.348469,33.825572 -84.348466,33.825922 -84.348468,33.826353 -84.348462,33.82695 -84.348478,33.827537 -84.348487,33.827751 -84.348501,33.828548 -84.348523,33.829246 -84.348524,33.830075 -84.348501,33.830706 -84.348449,33.83144 -84.348446,33.8322 -84.348428,33.835086 -84.34844,33.836177 -84.34847,33.836823 -84.348465,33.837001 -84.34849,33.83772 -84.348483,33.838169 -84.348453,33.839068 -84.348463,33.839602 -84.348418,33.841078 -84.348415,33.841428 -84.348339,33.841967 -84.348319,33.84216 -84.348165,33.8435 -84.34808,33.844333 -84.348005,33.84502 -84.348091,33.845293 -84.348325,33.846003 -84.348325,33.850285 -84.348386,33.85263 -84.348304,33.854034 -84.348268,33.854337 -84.348298,33.857486 -84.348311,33.859375 -84.34832,33.859888 -84.348379,33.861052 -84.348363,33.862089 -84.34823,33.862224 -84.348235,33.864077 -84.348242,33.865209 -84.348244,33.86634 -84.348324,33.866696 -84.348325,33.867903 -84.348318,33.868329 -84.348285,33.870003 -84.348213,33.873596 -84.348187,33.874734 -84.348125,33.877803 -84.348125,33.879203 -84.348138,33.879316 -84.348114,33.880129 -84.348089,33.88209 -84.348139,33.884303 -84.348168,33.88718 -84.34822,33.888832 -84.348315,33.890903 -84.348321,33.891012 -84.348331,33.891523 -84.348333,33.892376 -84.348331,33.892858 -84.348325,33.8933 -84.348311,33.893604 -84.348243,33.895996 -84.348225,33.89649 -84.348225,33.903424 -84.348221,33.904905 -84.348161,33.906414 -84.347982,33.910881 -84.347926,33.912302 -84.347924,33.912529 -84.347926,33.914702 -84.347913,33.915004 -84.347913,33.915158 -84.347902,33.915555 -84.347801,33.918707 -84.347825,33.918902 -84.347852,33.921165 -84.347883,33.923599 -84.347925,33.927001 -84.347825,33.929601 -84.347819,33.92986 -84.348388,33.930083 -84.348825,33.930266 -84.349724,33.930621 -84.350299,33.93097 -84.350951,33.931358 -84.351313,33.931648 -84.35152,33.931896 -84.352052,33.932557 -84.352093,33.932599 -84.352348,33.932391 -84.35261,33.932215 -84.353284,33.931809 -84.354243,33.931334 -84.356177,33.930456 -84.357055,33.930103 -84.35765,33.929888 -84.357718,33.929873 -84.358314,33.929674 -84.359859,33.929206 -84.361797,33.928616 -84.363757,33.928064 -84.364256,33.927911 -84.364675,33.92777 -84.365064,33.927626 -84.366038,33.927216 -84.366748,33.926909 -84.366951,33.926798 -84.367428,33.926571 -84.367935,33.92631 -84.368355,33.92611 -84.368626,33.92599 -84.37061,33.925219 -84.372291,33.924628 -84.372544,33.924553 -84.372803,33.924494 -84.373105,33.924448 -84.37341,33.924423 -84.37536,33.92439 -84.37562,33.924395 -84.375888,33.924412 -84.376462,33.924469 -84.376859,33.924474 -84.377072,33.924531 -84.377312,33.924563 -84.37792,33.924636 -84.378168,33.924688 -84.378399,33.924752 -84.378534,33.924801 -84.378662,33.924861 -84.379073,33.925137 -84.381343,33.925652 -84.381627,33.925728 -84.381891,33.925823 -84.382143,33.925939 -84.382312,33.926033 -84.38284,33.926354 -84.383948,33.927031 -84.384207,33.92721 -84.384445,33.927399 -84.384655,33.927592 -84.384911,33.927859 -84.385275,33.927609 -84.385399,33.92751 -84.385541,33.927365 -84.385664,33.927197 -84.385965,33.926698 -84.386086,33.926427 -84.38618,33.926085 -84.386187,33.925945 -84.386173,33.925794 -84.387119,33.925645 -84.387262,33.925612 -84.387379,33.92557 -84.388214,33.925213 -84.38835,33.925143 -84.388497,33.925036 -84.388626,33.924895 -84.389221,33.92395 -84.389627,33.924132 -84.389706,33.924201 -84.38976,33.924298 -84.389772,33.924372 -84.389769,33.925268 -84.389755,33.925398 -84.38972,33.925525 -84.389655,33.925662 -84.389565,33.925788 -84.389453,33.925901 -84.389336,33.925989 -84.389172,33.926077 -84.389064,33.926123 -84.390015,33.926559 -84.390346,33.926791 -84.390609,33.926949 -84.390884,33.927092 -84.391073,33.927179 -84.391365,33.927297 -84.391565,33.927366 -84.39187,33.927457 -84.392183,33.927528 -84.392397,33.927551 -84.392693,33.92755 -84.393406,33.927455 -84.393621,33.927439 -84.393837,33.927432 -84.394053,33.927435 -84.394269,33.927447 -84.394591,33.927483 -84.395279,33.927596 -84.395698,33.927682 -84.396112,33.927787 -84.396476,33.927896 -84.396708,33.927926 -84.396804,33.927968 -84.396909,33.927989 -84.397017,33.92799 -84.397122,33.927969 -84.397217,33.927928 -84.397292,33.927863 -84.397403,33.92761 -84.397475,33.927544 -84.397581,33.927527 -84.397779,33.927456 -84.397865,33.927402 -84.397931,33.927332 -84.398029,33.927296 -84.398137,33.927306 -84.398353,33.927304 -84.398513,33.927284 -84.399259,33.927308 -84.399366,33.927296 -84.399509,33.927254 -84.39951,33.927523 -84.39955,33.928027 -84.401105,33.927885 -84.402109,33.927799 -84.402285,33.927796 -84.402482,33.927808 -84.402688,33.927839 -84.402966,33.927914 -84.403208,33.928005 -84.403437,33.928117 -84.403485,33.927979 -84.403553,33.927845 -84.403641,33.92772 -84.403746,33.927604 -84.405972,33.925809 -84.406793,33.925168 -84.407224,33.924872 -84.408002,33.924363 -84.407082,33.922981 -84.40687,33.922668 -84.406803,33.922554 -84.406722,33.922375 -84.406664,33.922191 -84.406636,33.922047 -84.406621,33.921894 -84.406623,33.921051 -84.40662,33.919866 -84.406635,33.919282 -84.406654,33.917409 -84.40666,33.916027 -84.406675,33.915836 -84.406897,33.915824 -84.407419,33.915816 -84.40883,33.915846 -84.410417,33.915829 -84.411095,33.915869 -84.412769,33.915843 -84.414167,33.915865 -84.41427,33.915881 -84.415379,33.915842 -84.416695,33.915775 -84.41712,33.915715 -84.417751,33.915586 -84.418419,33.915481 -84.41889,33.915377 -84.419286,33.915266 -84.420117,33.91501 -84.420445,33.914903 -84.421134,33.914628 -84.421768,33.914364 -84.422612,33.913938 -84.423012,33.913707 -84.423841,33.913252 -84.424381,33.912873 -84.424892,33.912455 -84.425621,33.911847 -84.426157,33.911356 -84.426282,33.911233 -84.42683,33.910817 -84.427475,33.910226 -84.428336,33.909476 -84.429244,33.908664 -84.429733,33.908188 -84.431935,33.906298 -84.432052,33.906191 -84.432485,33.90586 -84.433262,33.905385 -84.433838,33.905063 -84.434206,33.904869 -84.434947,33.904549 -84.435115,33.904463 -84.43523,33.904429 -84.436599,33.903908 -84.439059,33.902961 -84.440855,33.902256 -84.442225,33.901726 -84.442708,33.901543 -84.442823,33.9017 -84.445112,33.900832 -84.445774,33.900543 -84.446267,33.900273 -84.447031,33.899825 -84.447439,33.899943 -84.447841,33.900086 -84.447961,33.900134 -84.448188,33.900239 -84.448458,33.900379 -84.448736,33.900563 -84.449271,33.900979 -84.449757,33.901336 -84.450204,33.90165 -84.450632,33.901912 -84.450921,33.90207 -84.451292,33.90223 -84.451613,33.90233 -84.452036,33.902423 -84.45242,33.902456 -84.452795,33.902464 -84.453151,33.902429 -84.453447,33.902368 -84.453721,33.902339 -84.454117,33.902324 -84.454297,33.90233 -84.454537,33.902365 -84.454825,33.902428 -84.455162,33.902518 -84.455501,33.902583 -84.455701,33.902589 -84.455818,33.902584 -84.455983,33.902505 -84.456878,33.9025 -84.457659,33.902522 -84.458157,33.902674 -84.458795,33.902888 -84.459487,33.903322 -84.459571,33.903349 -84.45965,33.903396 -84.460708,33.903974 -84.461421,33.904279 -84.461603,33.904352 -84.462266,33.904598 -84.462381,33.904636 -84.463205,33.904936 -84.463554,33.905103 -84.463726,33.905225 -84.463897,33.905375 -84.464217,33.90568 -84.464371,33.905874 -84.464522,33.906187 -84.464624,33.906506 -84.464659,33.906704 -84.464714,33.906883 -84.464768,33.90728 -84.464855,33.90799 -84.465,33.908655 -84.465069,33.908769 -84.465169,33.909327 -84.46525,33.909736 -84.465256,33.909889 -84.465247,33.910184 -84.465215,33.910581 -84.465192,33.911028 -84.465201,33.911465 -84.465195,33.911586 -84.465255,33.913667 -84.465297,33.913858 -84.465442,33.914448 -84.465693,33.915119 -84.466192,33.916343 -84.466512,33.917161 -84.46665,33.917593 -84.466771,33.918032 -84.468417,33.917069 -84.46896,33.916758 -84.469269,33.916555 -84.469541,33.916329 -84.469864,33.916035 -84.470133,33.915681 -84.470216,33.915588 -84.47065,33.91494 -84.471165,33.914205 -84.471325,33.914004 -84.47152,33.913808 -84.471816,33.913552 -84.472024,33.913398 -84.472118,33.913318 -84.47258,33.912992 -84.473373,33.912471 -84.47355,33.912364 -84.474228,33.912074 -84.474461,33.91202 -84.474705,33.912 -84.475032,33.912006 -84.475343,33.912048 -84.475923,33.912165 -84.476099,33.912197 -84.476478,33.91224 -84.476807,33.912229 -84.477448,33.912149 -84.477949,33.912064 -84.478054,33.91223 -84.478589,33.912137 -84.479488,33.913844 -84.480041,33.914888 -84.480095,33.914978 -84.480487,33.915662 -84.480962,33.915663 -84.482173,33.915658 -84.482565,33.915677 -84.483307,33.915719 -84.483277,33.916596 -84.483278,33.916978 -84.483274,33.917169 -84.483542,33.917168 -84.484537,33.917187 -84.485171,33.917197 -84.485495,33.917206 -84.485931,33.91721 -84.486066,33.917225 -84.486199,33.917213 -84.487322,33.917226 -84.487349,33.916801 -84.487344,33.916574 -84.487319,33.915764 -84.487294,33.915038 -84.487248,33.913864 -84.487404,33.913677 -84.487562,33.913437 -84.487745,33.91321 -84.487944,33.912994 -84.488032,33.912878 -84.488104,33.912755 -84.488134,33.912668 -84.488223,33.912504 -84.488397,33.912276 -84.488737,33.911816 -84.488976,33.911515 -84.489091,33.911362 -84.48946,33.910918 -84.4896,33.910781 -84.489759,33.910659 -84.489893,33.910517 -84.490011,33.910367 -84.490151,33.91023 -84.490299,33.910098 -84.490466,33.909983 -84.490736,33.909834 -84.490912,33.90973 -84.491475,33.909461 -84.491667,33.909378 -84.491864,33.909304 -84.492068,33.909246 -84.492429,33.909047 -84.492598,33.908934 -84.492688,33.908886 -84.492815,33.908848 -84.493741,33.909878 -84.49408,33.910235 -84.495956,33.912282 -84.496154,33.912485 -84.496261,33.912435 -84.496314,33.912391 -84.496388,33.912363 -84.496445,33.910864 -84.496445,33.910524 -84.496479,33.909639 -84.496473,33.909111 -84.49649,33.908987 -84.496502,33.908569 -84.500835,33.908595 -84.5009,33.904713 -84.500913,33.904003 -84.500919,33.901577 -84.500922,33.901526 -84.500845,33.90145 -84.500933,33.901329 -84.500994,33.901156 -84.501092,33.900996 -84.501219,33.90085 -84.501367,33.900719 -84.501527,33.900598 -84.501695,33.900484 -84.501962,33.900332 -84.502159,33.900258 -84.502249,33.900207 -84.502403,33.900082 -84.502473,33.900013 -84.502756,33.899881 -84.502827,33.899813 -84.502877,33.899734 -84.502958,33.899675 -84.503053,33.899631 -84.503156,33.899605 -84.503294,33.899467 -84.503343,33.899387 -84.503498,33.899262 -84.50359,33.899215 -84.503804,33.899193 -84.50402,33.899188 -84.504235,33.899171 -84.504554,33.899122 -84.504748,33.899044 -84.504832,33.898988 -84.505024,33.898906 -84.505332,33.89882 -84.506374,33.89858 -84.506795,33.898498 -84.507108,33.898428 -84.507321,33.898398 -84.508288,33.898308 -84.508396,33.898305 -84.508719,33.898318 -84.508935,33.898313 -84.509364,33.898266 -84.50958,33.898259 -84.509796,33.898264 -84.510012,33.898259 -84.510551,33.898234 -84.510874,33.898207 -84.51109,33.898212 -84.511304,33.898238 -84.511712,33.898356 -84.511819,33.898369 -84.511943,33.898411 -84.51205,33.898426 -84.512265,33.898437 -84.512799,33.898505 -84.513015,33.898514 -84.513231,33.898503 -84.513444,33.898472 -84.513659,33.898456 -84.513763,33.89848 -84.513857,33.898523 -84.514035,33.898625 -84.51424,33.89868 -84.514347,33.898673 -84.514651,33.898579 -84.514758,33.898573 -84.514971,33.898605 -84.515171,33.898671 -84.515343,33.898779 -84.515412,33.898849 -84.515578,33.899081 -84.515704,33.899227 -84.51592,33.899429 -84.516004,33.899486 -84.516189,33.899578 -84.516486,33.899687 -84.516691,33.899744 -84.516902,33.899784 -84.517,33.899821 -84.517088,33.899874 -84.517182,33.899983 -84.518122,33.899981 -84.518127,33.900137 -84.518195,33.900381 -84.518189,33.900592 -84.518147,33.901389 -84.518153,33.902629 -84.518127,33.903528 -84.518094,33.905151 -84.518122,33.905245 -84.518241,33.905359 -84.51836,33.905352 -84.518988,33.905365 -84.519542,33.90536 -84.519932,33.905346 -84.52031,33.905399 -84.520518,33.905451 -84.520589,33.905313 -84.520774,33.905123 -84.520886,33.905023 -84.521122,33.904962 -84.521355,33.904958 -84.521933,33.90496 -84.522414,33.904877 -84.522747,33.904845 -84.52284,33.90482 -84.523165,33.904386 -84.523424,33.904228 -84.523611,33.904126 -84.52382,33.904073 -84.524341,33.904006 -84.52455,33.904008 -84.524849,33.903995 -84.525146,33.903915 -84.525281,33.904152 -84.525801,33.904029 -84.526712,33.90526 -84.527233,33.905928 -84.527456,33.906202 -84.527688,33.906473 -84.527855,33.906648 -84.52795,33.906759 -84.528276,33.90708 -84.52856,33.907401 -84.529045,33.907861 -84.530815,33.90937 -84.532243,33.910472 -84.533423,33.911366 -84.534903,33.912435 -84.535409,33.912817 -84.536173,33.913374 -84.536845,33.914004 -84.538414,33.915472 -84.539814,33.916773 -84.539807,33.916308 -84.542637,33.916289 -84.543043,33.916305 -84.544762,33.916336 -84.544819,33.918588 -84.543697,33.918627 -84.544258,33.921619 -84.544713,33.921481 -84.544867,33.921413 -84.545049,33.921265 -84.546164,33.920537 -84.546312,33.920421 -84.546985,33.919875 -84.547447,33.919556 -84.547656,33.919432 -84.547913,33.919302 -84.548119,33.919213 -84.549167,33.918796 -84.549213,33.91888 -84.549579,33.918712 -84.54976,33.918614 -84.549931,33.918504 -84.550095,33.918386 -84.550252,33.918262 -84.550533,33.918001 -84.551129,33.917338 -84.551693,33.916668 -84.552187,33.916099 -84.552724,33.915465 -84.552918,33.915249 -84.553057,33.915111 -84.553277,33.914912 -84.553515,33.91472 -84.55426,33.914177 -84.555052,33.913607 -84.555942,33.912938 -84.556044,33.91301 -84.556351,33.912794 -84.556532,33.912631 -84.556773,33.912393 -84.556692,33.912334 -84.556969,33.912057 -84.557052,33.911962 -84.557737,33.911243 -84.558195,33.910757 -84.558077,33.910668 -84.55789,33.910557 -84.557705,33.910431 -84.557628,33.910337 -84.557612,33.910264 -84.557593,33.909996 -84.557587,33.909663 -84.557577,33.909449 -84.557583,33.909329 -84.557571,33.909094 -84.557607,33.908275 -84.557561,33.90556 -84.557574,33.904749 -84.557599,33.904026 -84.557623,33.903698 -84.557635,33.903109 -84.557616,33.902206 -84.558872,33.902231 -84.560389,33.902229 -84.561132,33.90225 -84.562065,33.902218 -84.562235,33.902215 -84.56396,33.902247 -84.564304,33.902262 -84.565752,33.902296 -84.566385,33.902448 -84.566704,33.902597 -84.567176,33.903119 -84.568316,33.90238 -84.56875,33.902066 -84.569092,33.901799 -84.569673,33.901247 -84.569999,33.900917 -84.570953,33.899887 -84.57118,33.89964 -84.571528,33.899302 -84.57179,33.899097 -84.572123,33.898891 -84.572868,33.898478 -84.573014,33.898538 -84.57332,33.898736 -84.573514,33.898851 -84.57409,33.899168 -84.574461,33.89935 -84.574656,33.89944 -84.574996,33.899579 -84.575392,33.899721 -84.575915,33.899968 -84.576158,33.900135 -84.576391,33.900365 -84.576721,33.900857 -84.57694,33.901149 -84.57713,33.901322 -84.577366,33.901484 -84.577524,33.901574 -84.577641,33.901619 -84.577869,33.901669 -84.578136,33.901696 -84.57841,33.901693 -84.579089,33.901637 -84.579403,33.901629 -84.579687,33.901641 -84.579971,33.901681 -84.580243,33.901738 -84.580474,33.901827 -84.580664,33.901923 -84.580873,33.902054 -84.581061,33.902224 -84.58135,33.902546 -84.581706,33.903082 -84.581839,33.903348 -84.58191,33.903513 -84.582809,33.903371 -84.583462,33.903282 -84.585986,33.902899 -84.587834,33.902624 -84.592013,33.902012 -84.592442,33.901976 -84.59367,33.901936 -84.594076,33.903075 -84.594626,33.904404 -84.594924,33.9053 -84.595095,33.906248 -84.595264,33.90717 -84.595519,33.907692 -84.595802,33.908116 -84.596084,33.908518 -84.596289,33.908827 -84.59646,33.90921 -84.596592,33.909585 -84.596625,33.909831 -84.596666,33.910558 -84.596701,33.910762 -84.596759,33.910988 -84.596796,33.911077 -84.598298,33.910152 -84.599319,33.909507 -84.600137,33.908929 -84.600425,33.908692 -84.601246,33.908023 -84.602264,33.907164 -84.602856,33.906637 -84.603279,33.906145 -84.603726,33.90563 -84.603979,33.905279 -84.604088,33.905327 -84.604317,33.905393 -84.604795,33.90533 -84.605843,33.90515 -84.60608,33.905117 -84.606087,33.90524 -84.607705,33.904979 -84.610448,33.904439 -84.611152,33.904309 -84.611345,33.904262 -84.612569,33.904024 -84.616137,33.90329 -84.618738,33.902777 -84.619052,33.902732 -84.619576,33.902651 -84.62006,33.902546 -84.62052,33.902437 -84.621143,33.902263 -84.62186,33.902006 -84.624205,33.901139 -84.625501,33.900629 -84.626102,33.900437 -84.626241,33.900378 -84.626918,33.900156 -84.627242,33.900055 -84.628552,33.899797 -84.630309,33.899483 -84.632228,33.899133 -84.634624,33.898689 -84.635684,33.898499 -84.637328,33.898188 -84.638141,33.898051 -84.639575,33.897792 -84.641803,33.897384 -84.642451,33.89727 -84.643047,33.89717 -84.643619,33.89705 -84.644165,33.896944 -84.644584,33.896889 -84.645257,33.89679 -84.645801,33.896723 -84.646383,33.896692 -84.647596,33.896662 -84.648173,33.896699 -84.648556,33.896702 -84.648913,33.896714 -84.649229,33.896749 -84.649485,33.896783 -84.649585,33.896806 -84.650145,33.896888 -84.650569,33.89696 -84.650781,33.897004 -84.651057,33.897051 -84.652157,33.897305 -84.652911,33.897536 -84.654139,33.897946 -84.654433,33.898061 -84.655011,33.898304 -84.655208,33.898378 -84.656072,33.898752 -84.656369,33.898858 -84.658195,33.899614 -84.658342,33.899662 -84.659054,33.899946 -84.659702,33.900212 -84.660095,33.900362 -84.661095,33.900705 -84.662551,33.901185 -84.663762,33.901602 -84.664067,33.901694 -84.664468,33.901828 -84.664772,33.901923 -84.665594,33.902145 -84.665806,33.902183 -84.66645,33.902245 -84.666665,33.902258 -84.66703,33.902226 -84.667253,33.902284 -84.667751,33.902301 -84.668715,33.902344 -84.669591,33.902361 -84.670428,33.902352 -84.671094,33.902398 -84.671508,33.902385 -84.672039,33.902441 -84.672638,33.902514 -84.672747,33.902516 -84.673074,33.902545 -84.673271,33.902556 -84.6735,33.90256 -84.673725,33.902548 -84.674224,33.902495 -84.674319,33.90248 -84.674655,33.902453 -84.674747,33.902435 -84.679199,33.902525 -84.680058,33.902537 -84.680941,33.902543 -84.681759,33.902564 -84.684249,33.902581 -84.684891,33.902593 -84.6854,33.902598 -84.685521,33.902596 -84.686735,33.902633 -84.688051,33.9027 -84.6903,33.902785 -84.691656,33.902844 -84.692598,33.902878 -84.693358,33.902893 -84.69499,33.902915 -84.695327,33.902923 -84.695651,33.902925 -84.697488,33.902893 -84.699001,33.902848 -84.699541,33.902848 -84.700771,33.902763 -84.702033,33.902686 -84.706526,33.902467 -84.707092,33.902474 -84.707276,33.90249 -84.707526,33.902534 -84.70774,33.902586 -84.708016,33.902666 -84.70838,33.902804 -84.708982,33.903056 -84.709258,33.903144 -84.709556,33.903189 -84.709817,33.903211 -84.71019,33.903227 -84.711857,33.903271 -84.713599,33.903312 -84.715791,33.903371 -84.717035,33.903376 -84.717923,33.903344 -84.718921,33.903343 -84.719462,33.903318 -84.719662,33.903319 -84.720141,33.903305 -84.721592,33.903316 -84.722071,33.903334 -84.723909,33.903565 -84.72423,33.903596 -84.724236,33.903303 -84.724034,33.902493 -84.724073,33.901305 -84.724271,33.895357 -84.724323,33.893804 -84.724336,33.892986 -84.724335,33.891901 -84.724336,33.891233 -84.724342,33.891212 -84.724336,33.887904 -84.724336,33.885704 -84.724382,33.883971 -84.724436,33.882004 -84.724436,33.880804 -84.724336,33.879204 -84.724436,33.879004 -84.724496,33.875423 -84.724536,33.873104 -84.724536,33.870204 -84.724535,33.870109 -84.724537,33.86762 -84.724536,33.867204 -84.724553,33.865849 -84.724632,33.859763 -84.724635,33.859504 -84.724635,33.855005 -84.724763,33.848665 -84.72483,33.845327 -84.724935,33.831605 -84.724935,33.827559 -84.724936,33.827509 -84.725035,33.819905 -84.725181,33.816995 -84.72398,33.816989 -84.723988,33.815799 -84.723964,33.815638 -84.723982,33.814385 -84.724066,33.811212 -84.724124,33.808647 -84.724155,33.807331 -84.724139,33.80617 -84.724147,33.805761 -84.724135,33.805365 -84.724132,33.803238 -84.72413,33.799922 -84.724122,33.791439 -84.724119,33.788604 -84.725477,33.788579 -84.730974,33.788568 -84.737658,33.788568 -84.738607,33.788569 -84.741348,33.788568 -84.741444,33.787719 -84.74168,33.787719 -84.742123,33.787734 -84.749936,33.787706 -84.750393,33.787725 -84.750668,33.787742 -84.750867,33.787704 -84.751218,33.78762 -84.754147,33.787215 -84.754692,33.787121 -84.755353,33.787185 -84.763796,33.787343 -84.767494,33.786895</coordinates></LinearRing></outerBoundaryIs></Polygon>
  </Placemark>
</Folder>
</Document></kml>
