<?xml version="1.0" encoding="utf-8" ?>
<kml xmlns="http://www.opengis.net/kml/2.2">
<Document id="root_doc">
<Schema name="shape" id="shape">
	<SimpleField name="District" type="string"></SimpleField>
	<SimpleField name="Code" type="string"></SimpleField>
</Schema>
<Folder><name>shape</name>
  <Placemark>
	<Style><LineStyle><color>ff0000ff</color></LineStyle><PolyStyle><fill>0</fill></PolyStyle></Style>
	<ExtendedData><SchemaData schemaUrl="#shape">
		<SimpleData name="District">New York 16</SimpleData>
		<SimpleData name="Code">NY-16</SimpleData>
	</SchemaData></ExtendedData>
      <Polygon><outerBoundaryIs><LinearRing><coordinates>-73.7063040001861,41.0740709996232 -73.7063599997724,41.0739980004095 -73.7065060002949,41.0738030001375 -73.7065570005257,41.0737419998421 -73.7065930003662,41.0736379999162 -73.7066150001989,41.0735669996475 -73.7066359994866,41.0734180003622 -73.7066430002816,41.0732460001332 -73.7066349999464,41.0731159997459 -73.7066209998582,41.0730169999279 -73.7066010000455,41.0729489997781 -73.7066709995705,41.0729579997832 -73.7111209999983,41.072699000331 -73.7114320002198,41.0726829995724 -73.7135219994214,41.0725500001733 -73.7165490005562,41.0723580000676 -73.7170730005475,41.0723280001924 -73.7182699996475,41.0722489996164 -73.7185570005154,41.0722339998347 -73.7191620003509,41.072188999719 -73.7210790000975,41.0720670001601 -73.7213610002947,41.0720450000579 -73.721133000504,41.0723880003178 -73.7210829994629,41.0724869996731 -73.7208220002769,41.0730420002852 -73.7206900006008,41.0735889996906 -73.7206359995615,41.0741370001361 -73.7205880002318,41.074923000356 -73.7206560002138,41.0751259997005 -73.7206870005094,41.0758410001077 -73.7208600003881,41.0765029996241 -73.720773000002,41.0769410003707 -73.7206360001521,41.077844999741 -73.7207639994905,41.0784449996009 -73.7207190001068,41.0788639997281 -73.720823000466,41.0789969998945 -73.7210239996246,41.0791219996256 -73.7212559997532,41.0791929999077 -73.7215720002933,41.0791640002963 -73.7220040001826,41.0793320000666 -73.7228429995073,41.0794200002965 -73.7237589995801,41.0795190001017 -73.7250500000577,41.079142999814 -73.7253390002973,41.0784860000685 -73.7255249997337,41.0771869996139 -73.7258160002225,41.0767440001697 -73.7259700002519,41.0763599995598 -73.7261570004556,41.0761020000251 -73.7262839996701,41.0759280003862 -73.7267150004676,41.0756490002712 -73.7275579994151,41.0751290000076 -73.7279420004992,41.07494199991 -73.7289160004258,41.0752440000005 -73.7296679999261,41.0755589999672 -73.7303289994773,41.0756350004016 -73.7309250005196,41.0757820004305 -73.7313540003403,41.0761259998129 -73.7318009994215,41.0762410000087 -73.7321810004029,41.0760530004452 -73.7326649996398,41.0757370003775 -73.7331649995047,41.0753919996639 -73.7336399994932,41.0751570001556 -73.7341139998704,41.0750650002864 -73.7343029999122,41.0751010001379 -73.7345849996779,41.0751390002875 -73.7348309994248,41.0753549997449 -73.7350399996986,41.0755610000354 -73.7352460004411,41.0758719999538 -73.7353309997175,41.0759780001538 -73.7357580003239,41.0763109996505 -73.7359470000603,41.0765880000091 -73.7360719997607,41.0768709997876 -73.7362140005771,41.0771309997929 -73.7363950001997,41.0774200001267 -73.7366469995859,41.077761999721 -73.7368789999186,41.078024999866 -73.7371410003323,41.0782389997868 -73.7373879995354,41.078402999889 -73.7376130005174,41.0785069996974 -73.7380050005398,41.0786270004101 -73.7385249997551,41.0788819998086 -73.7391859996928,41.0789109999011 -73.7398789999697,41.0788959998356 -73.7409150005096,41.0786630000489 -73.7422960002406,41.0782200002619 -73.7428499996165,41.078067999891 -73.7433649999765,41.0779609997097 -73.7437310000527,41.0779399997906 -73.7442500000729,41.0778290001472 -73.7451479998353,41.0779490002454 -73.7455689996763,41.078083999973 -73.7457929999953,41.0781670000505 -73.7460589996222,41.0784009999534 -73.7463179994483,41.0786990001789 -73.7464460004695,41.0788649999789 -73.7467620004083,41.0792639997627 -73.7470140001686,41.0795460000438 -73.74879500002,41.0792990004484 -73.7498700002587,41.0791509999353 -73.7507139996992,41.0790420000435 -73.7516010000621,41.0789210002842 -73.7525769995588,41.0787529996769 -73.7525229998338,41.0780320001566 -73.7525229998993,41.0774599998955 -73.7523699995535,41.0764819997275 -73.7523929996394,41.0764530003843 -73.7524360001779,41.076395999698 -73.7524460001025,41.0763320001995 -73.7524210002677,41.0761339996624 -73.7522579995725,41.0754789997379 -73.752223000202,41.0752529999129 -73.7521230002766,41.07419599973 -73.7519070000073,41.0730959995887 -73.7517440000107,41.0725030004451 -73.7513260002736,41.0707849998892 -73.7512370005733,41.0704250002754 -73.7511780003836,41.0701479996189 -73.7510809998236,41.0695640000292 -73.7509320004873,41.0687050003381 -73.7506660002607,41.0672469997008 -73.7504620002025,41.0661310000315 -73.7501460001705,41.065142999712 -73.7497840002213,41.0645679996778 -73.7497240001258,41.0643370001456 -73.7496109995748,41.0639390001662 -73.7495889995508,41.0636709997476 -73.7495969995427,41.063282000065 -73.7497000005397,41.062762999592 -73.7497450001659,41.0625589999466 -73.7498299995073,41.0622269995518 -73.7501440001671,41.0616449997782 -73.7503189994927,41.061317999884 -73.7504980000985,41.0609240003989 -73.7505599996469,41.060560999855 -73.7505410001813,41.0602499997108 -73.7503450004961,41.0599389996106 -73.7501330003965,41.059833000045 -73.7496450001097,41.0596680000142 -73.7494919994422,41.0596310000398 -73.7492920005309,41.0595929996995 -73.7490780001461,41.0594329996624 -73.7490829994492,41.0590050001257 -73.7490010001271,41.058542000071 -73.7488700000913,41.0582600003563 -73.7487950003193,41.0581859999032 -73.7486479999914,41.0580360001513 -73.748590999861,41.0580149999522 -73.7484969999639,41.0579919998698 -73.7484570004964,41.0579380002391 -73.7485059999605,41.0578750000877 -73.7486779999294,41.0577760000077 -73.7488279996615,41.0576560003889 -73.7488190001569,41.0574899996935 -73.7487609998139,41.0573629996521 -73.7487259994461,41.057128000208 -73.748819000052,41.0566730002624 -73.7490129996725,41.0563660004247 -73.7491480003752,41.0561090001259 -73.749225000135,41.0559989997646 -73.74941300044,41.0558959997799 -73.7496509999884,41.0558460001814 -73.7498140001294,41.0557819997864 -73.7499150002663,41.0556229999052 -73.7500669996184,41.0554200003176 -73.7502210003455,41.05521300022 -73.7503479995294,41.0549769999419 -73.750505000017,41.0547129996436 -73.7506159997971,41.0544119996171 -73.7506940004956,41.0539999999972 -73.7506249998819,41.0539279997232 -73.7503260002252,41.053816999992 -73.7500380004349,41.0537170003011 -73.7498569994527,41.0536610003714 -73.7495749997467,41.0535150002471 -73.7493489994536,41.0534400000441 -73.7490550005455,41.0533770001151 -73.7487760004713,41.0531950000788 -73.7486069995867,41.053075999635 -73.7485629997919,41.0529519997477 -73.7485290002484,41.0529080000347 -73.7484960004836,41.052866000105 -73.7483750001486,41.0528070004277 -73.7482560002249,41.0527609999736 -73.7481920004573,41.0527369995861 -73.7480920000311,41.0526979999937 -73.7478879999525,41.0526329995675 -73.7476189999726,41.0525910001106 -73.7474359996872,41.052611999935 -73.7470310002311,41.0526290003165 -73.7465830003339,41.0525979997798 -73.7464689999765,41.0526199999275 -73.746185999624,41.0525219997162 -73.7459269998976,41.0525219997637 -73.7456980003131,41.0526419996637 -73.7454439994699,41.0526820001751 -73.7451529996426,41.0528339999258 -73.7450900005399,41.0528809996218 -73.7449679998546,41.0528880004477 -73.7447719997261,41.0528149997993 -73.7444140002753,41.0526350003315 -73.744284999435,41.052583000175 -73.7441989994446,41.0525699996236 -73.7441280001789,41.0523890002596 -73.7439479997598,41.052162000444 -73.7441519999487,41.0521440004466 -73.7447579998895,41.0521599996229 -73.7459009996725,41.0521909996558 -73.7470249996508,41.0522219997402 -73.7494889994128,41.0523750000178 -73.7505630001093,41.0524420002751 -73.7515139995489,41.0524990004299 -73.7530330003609,41.052591000275 -73.7536069996708,41.0526290001479 -73.7533609994589,41.0528670001338 -73.7527610000729,41.0535729999948 -73.7521869996961,41.0543149997082 -73.7520230000429,41.0545600001327 -73.7517849996473,41.0549709998641 -73.7517210000252,41.0550359999442 -73.7516309996307,41.0550699997108 -73.7515020003152,41.055191999757 -73.751173999519,41.0556330000667 -73.75075600007,41.0561959998015 -73.7506540001503,41.0563340003718 -73.7505239997122,41.0563150002247 -73.7501839996035,41.0572230002285 -73.7500359994922,41.0574139997841 -73.7497219997225,41.0577499998755 -73.7497519999026,41.057940000086 -73.7497359997975,41.0579750003272 -73.749613000585,41.0582829996925 -73.7497709995621,41.0582579995652 -73.7498320003831,41.0582479997383 -73.7501039994651,41.0582199995848 -73.7504100002137,41.0581910001424 -73.7511489996212,41.058098999707 -73.7524620000529,41.0583450004051 -73.7525019999769,41.0583530000709 -73.7524309995427,41.0584550001152 -73.7522740001135,41.0586869997937 -73.7521399999634,41.0594439996655 -73.7521569998835,41.059743000223 -73.75217300035,41.0598710002705 -73.7522330003215,41.0603729998021 -73.7522489995984,41.0604649999531 -73.7523450001894,41.0607080001754 -73.7522460003408,41.060829999657 -73.7517690005819,41.0614310000202 -73.7514609994423,41.0620429996728 -73.7518499997017,41.0622310003172 -73.7518760000944,41.0625869999216 -73.7518570005702,41.0628709996818 -73.751665999729,41.0635019999001 -73.7516239997557,41.0636969997186 -73.7516060005209,41.063766000243 -73.7519599996333,41.0637869996127 -73.752149000321,41.0637990003064 -73.7522199994403,41.0638050000573 -73.7522229998813,41.0639350003967 -73.7522400002967,41.0640059996474 -73.7523329994186,41.0642409998155 -73.7523470000178,41.0643660001006 -73.7523430004858,41.0644470003401 -73.7523179994978,41.0645459996305 -73.7521409996126,41.0649370003478 -73.7519739995279,41.0652100000809 -73.751527000368,41.0659349996601 -73.7514580005853,41.0660779999797 -73.7518189997846,41.0661820000299 -73.7519920000914,41.0662450002966 -73.7521129998931,41.0663159999795 -73.7523400002158,41.0665179998969 -73.7524639997524,41.0666959997692 -73.7525210002182,41.0668180002383 -73.7526160003243,41.067104999674 -73.7526639994075,41.0671989999396 -73.7527830004797,41.0674309995719 -73.7528480005376,41.0675539998559 -73.7529800000623,41.0675850003839 -73.7531220004598,41.0675720003133 -73.7532909999192,41.0675839998033 -73.7535609997777,41.0675639996122 -73.7538639994246,41.0674409997684 -73.7540070001795,41.0669619997412 -73.7540319997348,41.0668779999551 -73.7540559995034,41.0668809996654 -73.756842000151,41.067456000227 -73.7568950000085,41.0672820001333 -73.7569460001784,41.0671029998026 -73.7570070004306,41.067112999918 -73.7581169996702,41.0673250000013 -73.757690000152,41.0688929996761 -73.7574089998792,41.0695810003185 -73.7581459994088,41.0697910000809 -73.7591270002037,41.0700319997031 -73.7596889994655,41.0691509996534 -73.7598509998285,41.068898999852 -73.7604050005963,41.0681659997685 -73.7608199994452,41.0676970000158 -73.7612519995699,41.0666289996827 -73.7615150001115,41.0659769999951 -73.7620830004022,41.064921999662 -73.7623479996277,41.0649579998277 -73.7630420001217,41.0650470003627 -73.7632300004986,41.0650500003372 -73.7635299999109,41.0650540001716 -73.7637169999916,41.0650360003365 -73.7640290003032,41.0650000003845 -73.7640190002291,41.0649539999409 -73.763967000034,41.0646959996833 -73.7639569997094,41.0646490002594 -73.7637019995186,41.0642660000202 -73.7639109996438,41.0642250001704 -73.7647999998377,41.0640499999689 -73.7649899999966,41.0640120003639 -73.7653460002394,41.0639499997635 -73.7655140003885,41.0632230000159 -73.7650730004444,41.0626689999956 -73.7649530000676,41.0625189996052 -73.7641030000958,41.0614430002263 -73.7636090004895,41.0608179999413 -73.7634009994533,41.060275000339 -73.7629529998245,41.0591039996627 -73.7625440004649,41.0587969998889 -73.7625179998332,41.0587520002583 -73.7627139997898,41.0578599997706 -73.7632560004246,41.0569189999332 -73.7628459996249,41.056396999866 -73.7623180003061,41.0557239995883 -73.762215999814,41.0555960003084 -73.7625879996181,41.0550519999451 -73.7630539997917,41.05449400033 -73.7626780000472,41.0542669999422 -73.7625610005725,41.054191999775 -73.7625159998547,41.0541379998939 -73.7625009996311,41.0540440003021 -73.7624819994423,41.0536959999993 -73.7624470005141,41.0535930002432 -73.7623969995047,41.0535169998528 -73.7622680000596,41.0534229999274 -73.7622280001791,41.0534010000304 -73.7626139995921,41.0534399998921 -73.7644019999978,41.053627000426 -73.7661100002933,41.053788999846 -73.7661980004582,41.0537979996758 -73.7668180002987,41.0538570002721 -73.7679659996676,41.0539659998258 -73.769096999735,41.0540730002807 -73.7691240002476,41.0540760000738 -73.7691409998149,41.0540780003518 -73.7692100004758,41.0540839997886 -73.7716889996226,41.0543210002755 -73.7718069994474,41.0543300003374 -73.7722950001382,41.0543779998967 -73.7722719997148,41.0544330000738 -73.7722260004698,41.05449600009 -73.7721249999106,41.0545800004494 -73.7720399998835,41.0546430000488 -73.7719559999822,41.0546860001719 -73.7719159997317,41.0547019997016 -73.7718559998133,41.0547379997029 -73.7718250004175,41.0547700003223 -73.7718220002096,41.0548020003113 -73.7718870004071,41.0548929996594 -73.7719040000047,41.0549349998545 -73.7719090004581,41.0549840000841 -73.7718929998539,41.055048999647 -73.7718770003583,41.0550760004435 -73.7718369997865,41.0551190001131 -73.771785000083,41.0551530000238 -73.7717469994356,41.0551680002153 -73.7717310002143,41.0551740000591 -73.7716680004749,41.055186999729 -73.7717350003566,41.0553359995911 -73.7717520001467,41.0553730004432 -73.771844000294,41.055436000213 -73.7718969995585,41.0554990004033 -73.7719309995394,41.055583999761 -73.7718239998947,41.0558840003088 -73.7716750001693,41.0561839998125 -73.7715640005442,41.0564059997984 -73.7716540005383,41.0564750001456 -73.771814000264,41.0565990000161 -73.771839000544,41.056646000178 -73.7717660003877,41.0568349997038 -73.772004000129,41.0571019999853 -73.7721559994457,41.0573560002397 -73.7723269998428,41.0574250002126 -73.7724219994671,41.0578629998883 -73.7724379996064,41.0579349999276 -73.7724989998885,41.0584559996256 -73.7724940003905,41.0587060000405 -73.7724879998527,41.0589609999516 -73.7724830000751,41.0591920000658 -73.7724409999232,41.059362000219 -73.7724850002519,41.0594389997356 -73.7725570000725,41.0595039999773 -73.7726880000557,41.059541999724 -73.7728340005118,41.0595630000118 -73.7729350005427,41.0596069998825 -73.7729869996383,41.0596829998416 -73.7730159994135,41.0597930000417 -73.7729440004919,41.0598760001022 -73.7728509997986,41.0599690003662 -73.772788000126,41.0600420001611 -73.7727979998959,41.0600619996166 -73.7728270001808,41.0601050003204 -73.7728610005885,41.0601359999534 -73.7728880000931,41.0601729999176 -73.7729240002246,41.0602310002616 -73.7729350000711,41.0602779996967 -73.7729509995268,41.0603119999875 -73.7729759999778,41.0603519998774 -73.772977000281,41.0603770001265 -73.7729770001909,41.0604450004377 -73.7729690003785,41.0605000000938 -73.7729960004296,41.0605430001704 -73.7729480005459,41.0607399997855 -73.7730270003649,41.0609079998382 -73.7731259999748,41.0612870002179 -73.7732149998208,41.0615349999798 -73.773280000093,41.0616340001479 -73.7733339998585,41.0616929999885 -73.7733959998909,41.0617370004157 -73.7734510003187,41.0617769997753 -73.7742420000708,41.0623099995554 -73.7743850004779,41.0624280003875 -73.7746499994586,41.0626639997669 -73.7747819996084,41.0627939995853 -73.7749199999904,41.062926999608 -73.775789000197,41.0636770002253 -73.7758850004201,41.0637500001173 -73.7759350003191,41.063786999595 -73.7762120000803,41.0639499998052 -73.7771200002938,41.0644089996312 -73.7774449998865,41.0645829995491 -73.7781959995118,41.0649890000104 -73.7785730000689,41.0651809999637 -73.7788310002581,41.0653330001626 -73.7791680005136,41.0655559999172 -73.7793950000377,41.0657939998326 -73.7794660000107,41.0658859996894 -73.779580000454,41.066103000227 -73.7795170005782,41.0664000000657 -73.7795099999478,41.066477999658 -73.7795070005786,41.0665060003189 -73.7795629996888,41.0665409998688 -73.7799549995056,41.0667940003958 -73.7802260003791,41.0672050000228 -73.7803740001945,41.0676540001284 -73.7805449994949,41.0679220001097 -73.780794000198,41.0680910002462 -73.7808709997089,41.0681100000372 -73.7809949994483,41.0681610001885 -73.781140999551,41.0682720000178 -73.7812199997175,41.0683750000148 -73.7815000003092,41.0688730004038 -73.7817840003813,41.069294999923 -73.7818970001352,41.0694330003972 -73.7820320004852,41.0695640000241 -73.782181000573,41.0696920001217 -73.7823369994225,41.0697990001316 -73.7824970004453,41.0698939996295 -73.7827170000634,41.0700040003166 -73.7837150003386,41.0701089996666 -73.7841839996776,41.0701659996315 -73.784401999647,41.0701650002256 -73.7844550004597,41.0701679996131 -73.7845210004214,41.0701999999547 -73.7848200002574,41.0702099997568 -73.7851739995108,41.0702080001285 -73.7854429994104,41.0702039999824 -73.7862630000823,41.0702319996644 -73.7867700001674,41.0702630000139 -73.7870999999191,41.0702980000199 -73.78759699968,41.0703829998057 -73.7880889995532,41.0704580001947 -73.7881409999308,41.070448999719 -73.7899569996247,41.0708199999607 -73.7904429998462,41.0709440002612 -73.790627000282,41.0709870003155 -73.7918160004101,41.0712629998047 -73.7930720005194,41.0715270004334 -73.7935489998262,41.0716240004297 -73.7949609998943,41.0719579996484 -73.7958890005301,41.072042000146 -73.7964230000252,41.0720910000928 -73.7969830001292,41.0721619995841 -73.797204000137,41.0721899999609 -73.7977929997122,41.0722979998341 -73.798182000209,41.0723590002891 -73.7985430000614,41.0724149999523 -73.7987749995464,41.0724580001925 -73.7990480003043,41.0725090002401 -73.7996880005443,41.0726149998199 -73.7998370001483,41.072668000298 -73.7999519994097,41.0727189998258 -73.8011940000382,41.0733669996937 -73.8013080002607,41.0734339998297 -73.801583000092,41.0735879996314 -73.801693999728,41.0736489995738 -73.8018289995244,41.0737199999915 -73.8020449994496,41.0738379995874 -73.8029480002548,41.0743339996974 -73.8031459995429,41.0744460001479 -73.8036609997716,41.0746979998435 -73.8037180003874,41.0747209996114 -73.8039989997977,41.0748400000923 -73.804421000388,41.0750020001014 -73.8046209998122,41.0750890003723 -73.8050440004628,41.0752300003714 -73.8054700000069,41.0753720000566 -73.8056749999359,41.0754410004148 -73.8059320000917,41.0755150000187 -73.8064639999738,41.075599000338 -73.8066420004797,41.0756120003327 -73.8070590001035,41.0756410001488 -73.8086430004324,41.0756450003683 -73.809583000587,41.0756600002359 -73.810181000259,41.0756709999851 -73.8107479994265,41.0756610000302 -73.8115180004057,41.0756849999684 -73.8119230004587,41.0756970002098 -73.8124969997353,41.0757900001567 -73.8134600002166,41.0760329996186 -73.813907999773,41.0761369996188 -73.8143229996726,41.0762329998146 -73.8150060005293,41.0763590003408 -73.8153959999193,41.0763789997214 -73.8157969999468,41.0763850000464 -73.8160979999709,41.0763630001643 -73.8172160004237,41.0763259996876 -73.8177879996161,41.0763090002035 -73.8180959998274,41.0762979997554 -73.8182829994888,41.0763040002177 -73.8184860000376,41.0763369997594 -73.8186330001341,41.0763790001107 -73.8187120004195,41.0764119996718 -73.8188110001079,41.0764750003909 -73.8189419997801,41.076591999647 -73.8191339997085,41.0768269999012 -73.8194159998684,41.077141000336 -73.8195809996235,41.077289999937 -73.8197770004676,41.0774389997886 -73.8200789998339,41.0776440003496 -73.8203460002922,41.0777720002711 -73.8211469994193,41.0780719998803 -73.8225690000959,41.078622999601 -73.8230209998418,41.0787559995692 -73.8245190004011,41.0790480002674 -73.8248590001687,41.0791150000749 -73.8252179994384,41.0791969997161 -73.8255209996057,41.0792850004431 -73.8257370000819,41.0793720002183 -73.8268250002816,41.0798919995964 -73.8273739996923,41.0801759995471 -73.82753900025,41.0802719999752 -73.8276909997742,41.0803750003 -73.8277680003459,41.0804269996959 -73.8278539996091,41.0805730001471 -73.8278729994535,41.0808039998216 -73.8278109995272,41.0810539999041 -73.8277839997608,41.081177000349 -73.8276000000707,41.0813749997482 -73.8274150005176,41.0815740002489 -73.8278690001932,41.0817849996507 -73.8281699995394,41.0816589996933 -73.8283490005039,41.0815710001692 -73.8286439996693,41.0816289998614 -73.8288130004196,41.0816620003884 -73.8288359998506,41.0818189996048 -73.8288429994993,41.0818620003696 -73.8289149997802,41.081931999898 -73.82903400053,41.0820369996598 -73.8292909999949,41.082401999861 -73.8293529994192,41.0824450000531 -73.8296900005725,41.0825569998197 -73.8299440005887,41.0826300002638 -73.8304760000033,41.082661000266 -73.8310750002239,41.0827830002134 -73.8311929995152,41.0828330000668 -73.8312439999996,41.0828560001311 -73.8312690005095,41.0829249998475 -73.831320000127,41.0831200002538 -73.8313770000773,41.0832380002445 -73.8314739994264,41.0834020000257 -73.8316540003639,41.083607000239 -73.8324300000978,41.0843459996579 -73.8326089998032,41.0844790001993 -73.8327219996483,41.0845299999455 -73.8328450004248,41.0845609998822 -73.8329629996642,41.0845759997297 -73.8330969995315,41.0845760004064 -73.8332769999179,41.0845460004239 -73.8336460004389,41.0844509997473 -73.8346730005712,41.0841639996163 -73.8348119998394,41.0841580000905 -73.8349349994124,41.08416900036 -73.8350890001438,41.0842100002213 -73.8352150005774,41.0842540001636 -73.8361309996772,41.0845759997392 -73.8369530002691,41.0849170000773 -73.8378209996822,41.0853169996778 -73.8382050001635,41.0854669996745 -73.8383960002515,41.0855100004364 -73.8386220005463,41.0855350002075 -73.8388319996373,41.0855299997685 -73.8390580004505,41.0855049997218 -73.8392069997596,41.0854690004413 -73.8393659998593,41.0854069996683 -73.8395559995305,41.0853199997546 -73.8396840004014,41.0852429999063 -73.839828000051,41.0851150000336 -73.8399259999162,41.0849939998199 -73.8400080003172,41.0848659996737 -73.8402079999113,41.0845989999792 -73.8403519997323,41.0844459999414 -73.8404909996595,41.0843349998521 -73.8406739995467,41.0842829996889 -73.8407969999165,41.0842630003938 -73.840941000323,41.0842779996552 -73.8411669998824,41.0843239998298 -73.8414180005883,41.0844630003232 -73.8417080004586,41.084677999757 -73.841914999673,41.084774999968 -73.8421089995276,41.0848270001548 -73.8424410005156,41.084855999654 -73.842649000026,41.0848490003382 -73.8434870003284,41.0847510000959 -73.8436019995292,41.0847429997231 -73.8437739997221,41.084770000198 -73.8439009999769,41.0848139997888 -73.8441070000671,41.0848669997998 -73.844323999706,41.0849549998923 -73.8446630003584,41.0851549998138 -73.844747000504,41.0852049997744 -73.8454820005181,41.0857599997267 -73.8457000001991,41.0858880003101 -73.8459929996068,41.0860419998343 -73.8461370003224,41.0860929996992 -73.8465060004762,41.0861650003134 -73.846671000271,41.0862109996088 -73.8468300003957,41.086268000259 -73.8469479999107,41.0863240003469 -73.8472610004997,41.0865239999438 -73.8473899999853,41.0866130000046 -73.8474969999117,41.0866879996437 -73.8475900001649,41.0867290004414 -73.8477350001603,41.0867769996842 -73.8479149998532,41.0868349997477 -73.8479940003194,41.0866500000632 -73.8480559998532,41.0865639995772 -73.8481960002182,41.0864450003305 -73.8491729999376,41.0858930004449 -73.8494809994889,41.0857550000567 -73.8497839998032,41.0856339998949 -73.8501020005308,41.0855369996406 -73.8504149994001,41.085458000336 -73.8507289996616,41.0854140002767 -73.8509960005025,41.0854600001383 -73.8510470002594,41.0854500001776 -73.8511339997028,41.0853749999843 -73.8513340002291,41.0851649996852 -73.8513910004025,41.0850779998945 -73.8516319995295,41.0844729998371 -73.8516680002882,41.0844419996112 -73.8517529997336,41.0843929999925 -73.8519400004173,41.0842929999895 -73.8522379997497,41.0840750000138 -73.8522689999133,41.0840389999627 -73.8523099999506,41.0839369998583 -73.8523440002032,41.0835349998722 -73.8523459995355,41.0834009999726 -73.8523770005894,41.0831240000453 -73.8524330002005,41.0829029996321 -73.8524900005408,41.0827800002466 -73.8526900005079,41.0824799999304 -73.852752000219,41.082341999855 -73.8527720004146,41.0822550002162 -73.8527720001744,41.0821010000321 -73.8526390005916,41.081752000143 -73.8526279999294,41.081635000085 -73.8526529999576,41.08144000005 -73.8526850004908,41.0811849998873 -73.8526749994165,41.0809800002623 -73.8526230000188,41.0807849999888 -73.852541000483,41.0806730002203 -73.8524489997554,41.0805909996527 -73.85209899995,41.0803649999915 -73.8520790004995,41.0803340001489 -73.8520880001011,41.0801820001553 -73.8521660003728,41.0797929998026 -73.852308999777,41.0789529997288 -73.852424000474,41.0786060002265 -73.852894000572,41.0783780001557 -73.8530329999428,41.0782800001695 -73.8531360000704,41.0781830000699 -73.8532380005218,41.0780420000087 -73.8533410002561,41.077872999835 -73.8534230002175,41.0776879997952 -73.8537260005846,41.0768440003398 -73.8538290002062,41.0767060002661 -73.8539369996656,41.0765890003311 -73.8540339994334,41.0765009998183 -73.8543419997345,41.0762959999264 -73.8545229997448,41.0761980004452 -73.8549170000298,41.075985000123 -73.8553789994906,41.0757850003567 -73.855707999992,41.0756570001918 -73.8559729998532,41.0756110000365 -73.8561079995814,41.0756090002778 -73.856256999517,41.0756190000026 -73.85636500035,41.0756439996572 -73.8565080004795,41.0756940002127 -73.8568940002714,41.0758310001174 -73.8569530002849,41.0758519999936 -73.8578200005616,41.0745990003312 -73.8577550002948,41.0745770000901 -73.857282999447,41.074416999791 -73.857336000002,41.0743380003108 -73.8575470005129,41.0740870002289 -73.8576130000649,41.0740100004409 -73.8580449998139,41.07361200016 -73.8581839997079,41.0734630002436 -73.8582850001181,41.0733570001487 -73.8584299998635,41.0731809997177 -73.8585680002545,41.0729760000605 -73.8586349994515,41.0728430003913 -73.8587690001124,41.0724400001382 -73.8590099999339,41.0716499999133 -73.858430000274,41.0715140000927 -73.856864999539,41.071155000022 -73.8559430001355,41.07094899978 -73.8559500005648,41.070721999581 -73.8559710000635,41.0706449997539 -73.8560119994547,41.070556000025 -73.8561740000425,41.0702050003129 -73.8560399995497,41.0701959997754 -73.8557270005881,41.0701550001364 -73.8556450003337,41.0701289997245 -73.8556039997484,41.0700929996728 -73.8555940005427,41.0700469998066 -73.8556839999864,41.0699399999829 -73.8557960003259,41.0699629996004 -73.8559350005118,41.0699810002935 -73.8562789996437,41.0699840001755 -73.8575750005561,41.0699840004048 -73.8576099999615,41.0691680000596 -73.857852000094,41.0691060000097 -73.8580990005686,41.0689779996075 -73.8583189995868,41.0688440003136 -73.8583720003874,41.0687909997198 -73.8584270001385,41.0687370001141 -73.8584430004168,41.0687109997446 -73.8584479996805,41.0684910001985 -73.8584680002874,41.0684030003616 -73.8585089995419,41.0683160003449 -73.8586680005795,41.0680540002447 -73.859118999609,41.0679449997948 -73.8593050001015,41.0679070003612 -73.8594699996464,41.0678849997371 -73.85958400041,41.0678800000509 -73.8601560002213,41.0678859995907 -73.8600740000653,41.0672889996709 -73.8600630001548,41.0669859997733 -73.8600940001162,41.0664759997662 -73.8600940002393,41.0658809999656 -73.8600580000651,41.065825000285 -73.8599859998367,41.0657990000998 -73.8591499997273,41.0657580001055 -73.8585439994924,41.0657629997399 -73.8579219999125,41.0657449999077 -73.8576670004538,41.065759999664 -73.8575729996262,41.0657759998238 -73.8574759994111,41.0658270000367 -73.8574089999019,41.0658839996588 -73.8573580001349,41.0659609995792 -73.8571780002963,41.0664330004246 -73.8570549999095,41.0666260003287 -73.8569619999719,41.0667379997405 -73.8568750000792,41.0667840001749 -73.856715000421,41.0668110001386 -73.8558229998141,41.0668549997098 -73.8553920004674,41.0668770004442 -73.8551300005858,41.0669260000491 -73.8547599995442,41.0670420000295 -73.8546069995506,41.0668379999924 -73.8546420003092,41.066550000131 -73.854775999789,41.0659499998672 -73.854881999537,41.0655949995574 -73.8548909995078,41.0655260003144 -73.8548729995531,41.0654699995555 -73.8548810003795,41.0653619997452 -73.8549210003538,41.0648170003352 -73.8549470005913,41.064537999789 -73.8549460001578,41.0644799997673 -73.8541609996378,41.0645260001882 -73.8541359995476,41.0641329995591 -73.8539800002418,41.0631999999782 -73.8538879994969,41.0628999995535 -73.8538460000582,41.0627890000325 -73.8537069999568,41.0625040002813 -73.8533039998689,41.0618690002976 -73.8531999995124,41.0615819998492 -73.8531360000376,41.0612860004052 -73.8531130005274,41.0609160002121 -73.8535780001411,41.0609170000944 -73.8550279997086,41.0609199999496 -73.8561950000872,41.0609339998016 -73.8567779999386,41.0609909999061 -73.8576470002593,41.0611340000072 -73.8582039994514,41.0612470002379 -73.8585739996845,41.0613600002532 -73.8586170002761,41.0614269999498 -73.8587230003454,41.0615989999051 -73.859355000351,41.062419000402 -73.8599759999839,41.0633599996397 -73.8600580001214,41.0635749996573 -73.8605699999423,41.0635719999587 -73.8606689996464,41.0635709998637 -73.8613609998543,41.063609000294 -73.8623139994849,41.063620999932 -73.8623039997053,41.0632790003256 -73.8622980001322,41.0630239996964 -73.8623039999331,41.0628989996499 -73.8623180005038,41.0627520002488 -73.8627949999884,41.0630670002354 -73.86302200041,41.0632320003912 -73.8634370001513,41.0635700001116 -73.8638060004202,41.0639090004308 -73.8642499994677,41.0642690002866 -73.8647889994952,41.0647170002073 -73.8649629999256,41.0648980002275 -73.8651100003536,41.065050999655 -73.8656199996781,41.0656549996337 -73.8661029998441,41.0662160000029 -73.8667649997848,41.0668689999772 -73.867075999663,41.0671169999015 -73.8672749996869,41.0673010004159 -73.8684220002687,41.0681559998366 -73.8690059996676,41.0685190000437 -73.8696489994429,41.0688499999813 -73.8703949997141,41.0691749998285 -73.8710960005516,41.0694209997878 -73.8717190002924,41.0695959999133 -73.8722189994753,41.0697199999244 -73.872842000509,41.0698429995704 -73.8734719996523,41.069946999979 -73.8739780003844,41.0699989996512 -73.8746530000628,41.0700380000744 -73.8754249998393,41.0700309996038 -73.8788130001282,41.0700310002903 -73.8830520003628,41.0700249998432 -73.8848559995497,41.0700249999249 -73.8890509995748,41.0700109997098 -73.8897390005333,41.0700130002521 -73.8914169996072,41.0700109996965 -73.8941790004241,41.0700179996367 -73.8947129997865,41.0700229999248 -73.8947099995482,41.0700039996135 -73.8946999998433,41.069937000239 -73.894679999928,41.0697959996423 -73.8944800001116,41.0645959996765 -73.893879999768,41.0578959999923 -73.8926799996381,41.0534960000684 -73.8903800001128,41.0457959995629 -73.8902800000813,41.0451960001338 -73.8893799995401,41.0375970000046 -73.8894790001469,41.0340969996497 -73.8899150000389,41.0257489999973 -73.8900790002943,41.0225970004189 -73.8935790001401,41.0052969999396 -73.8939789997803,40.9972049998153 -73.8939840005032,40.9971720001279 -73.8936280000125,40.9971650001408 -73.895970999485,40.9829199998786 -73.8961440001354,40.9818729995569 -73.8986870005903,40.9748569998955 -73.8987029994107,40.9748129998258 -73.8987389999336,40.9747140003654 -73.9041430002131,40.9598019995799 -73.9047349995004,40.9581670003513 -73.9047700004475,40.9580730003665 -73.9049279997118,40.9576350002398 -73.9071059996206,40.9516249999011 -73.9071350000494,40.9515440003043 -73.9071779995294,40.9514250003889 -73.9084630002218,40.9478800002443 -73.9091120002905,40.9458939996555 -73.9091500001328,40.9457609998317 -73.9103679997781,40.9415100001614 -73.9120570004703,40.9356179998498 -73.9120960001089,40.9354850001151 -73.9142530001806,40.9279599995697 -73.9154610001011,40.9248950001153 -73.9176090000117,40.9194910001104 -73.9177119995673,40.9192320002906 -73.918242999881,40.917892000053 -73.9183170002488,40.9177049998296 -73.910807999857,40.9153720004183 -73.9105160000124,40.9152819998426 -73.9102789995963,40.9151869999275 -73.9100060004373,40.9150760003962 -73.9094960002284,40.9149309999941 -73.9094710000122,40.9149240002485 -73.9088400005707,40.9147539998917 -73.908813999441,40.9147470004413 -73.9083279997669,40.9146159999441 -73.9083019999348,40.9146090003906 -73.9059469995036,40.9139479996433 -73.9059110001455,40.9139379995513 -73.9041940005438,40.9134600004073 -73.9038059999714,40.9133529999927 -73.9024539997228,40.9129790003106 -73.9021059996773,40.9128790003961 -73.9006970001596,40.9123809998187 -73.8999700005593,40.9121320000407 -73.8997890000013,40.9120719995569 -73.899504999528,40.9119780001019 -73.8986820001115,40.9118709999779 -73.8981200001072,40.9117979997001 -73.8974240001849,40.9116930004353 -73.8973600002353,40.9116720003451 -73.8972530002025,40.9116550002892 -73.8966339996516,40.9113239996006 -73.8965429996612,40.9112930002016 -73.8927989995959,40.9100579996258 -73.8922050001175,40.9098779997489 -73.8919279998615,40.9098089996466 -73.8918050004584,40.9097779997942 -73.8883939995386,40.908719999709 -73.8879839995516,40.9085929999229 -73.8862370003513,40.9080520000329 -73.8861650000759,40.9080300003368 -73.886124000477,40.9080160002123 -73.8860099999562,40.9079789997192 -73.8854010003023,40.907976999982 -73.8848320003248,40.9077230001872 -73.8847260003891,40.9076850002271 -73.8842459997583,40.9075120000862 -73.8841269994908,40.9075029997954 -73.8841060004227,40.9075010003636 -73.8840540000933,40.9074970001778 -73.882993000075,40.9074230001946 -73.8828290004625,40.9073819999463 -73.8818249995958,40.9071339997713 -73.8814430000049,40.9070039999401 -73.880928999514,40.9068300004083 -73.8806369995624,40.9067450003541 -73.8801110002311,40.9065910003789 -73.8795310002373,40.906440999896 -73.8792390002445,40.906364999939 -73.8788270000969,40.9061879998814 -73.8783500004736,40.9059830003015 -73.8782199995743,40.9059829995499 -73.8781889998194,40.9059829997484 -73.8780120003177,40.9059649999861 -73.8778550000976,40.905921999715 -73.8777409998167,40.9058879997783 -73.8776280005669,40.9058539995634 -73.8765880003521,40.9055389999946 -73.8764549997022,40.905497000022 -73.8762290001043,40.9054299995596 -73.87559899971,40.9052439999834 -73.8755589995781,40.9052320002549 -73.8747969997166,40.9050099998243 -73.8746230004324,40.9049600002158 -73.8740869998121,40.9048070003101 -73.8739489994555,40.9047669997869 -73.8729129999472,40.9044670002305 -73.8727349995022,40.9044150003003 -73.8709400003481,40.9038870002118 -73.8707309994804,40.9038259999045 -73.8690459994873,40.9033330001121 -73.8678760000771,40.9029829998349 -73.8669519995289,40.9024749998863 -73.8656349999116,40.9020860000245 -73.8652679998617,40.9019619999696 -73.8652560005403,40.9019490002559 -73.8646689994074,40.9017930000408 -73.8628790000675,40.901538000143 -73.8628600001509,40.9015249996096 -73.8626429999434,40.9014740002988 -73.8625570002594,40.9014269997605 -73.8624009998807,40.9013409997095 -73.8620409994132,40.9012030003525 -73.8615899994098,40.9010510001132 -73.860955999613,40.9008460001112 -73.8607750005796,40.9007869996461 -73.8603209998048,40.9006379996468 -73.8602570002808,40.9006159998118 -73.8601039999083,40.9005780000427 -73.8600059994521,40.9005649999969 -73.8596330003874,40.9004580003543 -73.8593930005479,40.9003809997129 -73.8593100005143,40.9004789997779 -73.8593000004386,40.9004940002965 -73.8592039994228,40.9008779998133 -73.8592149999664,40.9009059996305 -73.859307999557,40.9011379999213 -73.8594040001978,40.9013780002123 -73.8590370005383,40.9014699999504 -73.8590029994379,40.901477999656 -73.8590180000238,40.9014929997924 -73.8593029994107,40.9017780000927 -73.8593919997516,40.9018949998133 -73.8596039994661,40.9021779999252 -73.8591139997301,40.9024719997081 -73.8590969999619,40.9024710000655 -73.8590140001907,40.9024329995786 -73.8584689999153,40.9021600002224 -73.8583020003873,40.9020769998747 -73.8582209996022,40.9023349997591 -73.8582000001211,40.9023790001478 -73.8580420004911,40.9024440002871 -73.857919999816,40.902493999684 -73.8578250000467,40.9025329999229 -73.8578050001591,40.9025400002237 -73.8577069994112,40.9025720001464 -73.8571990001449,40.9028779996301 -73.8570000001412,40.903579000273 -73.8570030004886,40.9037360002978 -73.8570039999131,40.9038200002138 -73.8570040003828,40.9038609998244 -73.8570039997941,40.9040410002824 -73.8570040005592,40.9041690004164 -73.8570040004648,40.9043779998418 -73.8570790003344,40.9044159999475 -73.8572320000296,40.9044929999182 -73.8574039997777,40.9045789997047 -73.8574489994767,40.9046010002344 -73.8575870002826,40.9046689997325 -73.8574490002433,40.9048369997241 -73.8573210001455,40.9050170001772 -73.8571359995453,40.904985000366 -73.8571039994166,40.9049789999804 -73.8569560000408,40.9049530002873 -73.8566969996328,40.9049099996583 -73.8564339999652,40.9050269999051 -73.8563939995312,40.9050449996113 -73.8562039995486,40.905090999654 -73.856177999725,40.9051069996272 -73.8559440000365,40.9052560004182 -73.8559590002715,40.9053880003079 -73.8560009997915,40.905405999951 -73.8561179999466,40.9054540001946 -73.8562039994326,40.9054749999409 -73.8562789998627,40.9057280002538 -73.8563260004738,40.9058009998598 -73.8563250002014,40.905965999914 -73.8563240000067,40.9061660001407 -73.8562269994636,40.9061190002068 -73.8561529996667,40.906082000367 -73.8561080005878,40.9060600002419 -73.8560740004818,40.9060599998616 -73.8559970003669,40.9060599998651 -73.855740000074,40.9060600001023 -73.8556870004559,40.906060000242 -73.8555740003977,40.9061219996634 -73.8555340001443,40.9061439995757 -73.8553150004125,40.9062630004237 -73.8551040002569,40.9063779995949 -73.8547040001003,40.9065780002214 -73.854127999859,40.9066750002141 -73.8541040001392,40.9066790000456 -73.8540069995682,40.9068420001632 -73.8538019998524,40.9071789996289 -73.8538040001963,40.9076809999148 -73.8538220003241,40.9077730004381 -73.8539829994552,40.9080049996006 -73.8542040001716,40.9080669998275 -73.8543019999119,40.9080910001306 -73.8544849999447,40.9080110001406 -73.8547680004391,40.9081589995816 -73.8547960001828,40.9081729997365 -73.8548810003586,40.9082169999951 -73.8543419996783,40.9089739998712 -73.8542340005204,40.9090099997295 -73.8540370001339,40.9092310003075 -73.853997000474,40.9092760001087 -73.8537130005806,40.9094469997517 -73.8529349994849,40.9099189995452 -73.8528999995882,40.9099160002832 -73.8526779999338,40.9098990002925 -73.8521840000042,40.9095149997939 -73.8513790004635,40.9100440002159 -73.8511230003485,40.9100089999265 -73.8514839999445,40.9095919998468 -73.8516339997669,40.9094260004075 -73.8518120003915,40.9092289997872 -73.8518719995752,40.909158999666 -73.8520460005125,40.9089589996789 -73.8520779999524,40.9088870001448 -73.8523689995638,40.9088800003698 -73.8527140001618,40.9084460000011 -73.8530689996695,40.9080209998337 -73.8535280000462,40.9074649996255 -73.85278999996,40.9070730002841 -73.8526010002625,40.906977000232 -73.8525640005318,40.9069679995783 -73.8522039998321,40.9068780000108 -73.8515059995367,40.9066450002469 -73.8513039996471,40.9065779999627 -73.8510570000358,40.9064580002735 -73.8510190002234,40.9065020001682 -73.8506610005252,40.906925000439 -73.850517999467,40.9071240003549 -73.8504520004854,40.9071829996193 -73.8504229995802,40.9072070000056 -73.8503309995203,40.9072819996443 -73.850224999881,40.9073679999633 -73.8491260001246,40.9069230000031 -73.8488030004364,40.906792000122 -73.8487319998603,40.9067630003669 -73.8486830000576,40.9067429995508 -73.847071000314,40.9061730002262 -73.8467990004115,40.9060780002478 -73.8462559996102,40.9058420002783 -73.8461040002451,40.9057770000237 -73.8454029994635,40.9056040004119 -73.8453199996441,40.9055820002342 -73.8448469995275,40.905309999981 -73.844793000132,40.9050480000529 -73.8447280003325,40.9047319996822 -73.8447129994338,40.9046250004335 -73.844701999483,40.904183000297 -73.8444200003368,40.904171999787 -73.8443889995534,40.9040960001521 -73.8441780004868,40.903559000092 -73.8450800004664,40.9033590004276 -73.8459850005383,40.9031629998912 -73.8459560005672,40.9030879998672 -73.8454709994903,40.9018380002015 -73.8466279998439,40.9015890001445 -73.8468019998057,40.9015519999929 -73.8469360001352,40.9015199999905 -73.8474240001326,40.9002739996667 -73.8482190000368,40.899827999733 -73.847854999715,40.8988559999778 -73.848722000494,40.8986650000866 -73.8496069997152,40.8984709996392 -73.8504950004129,40.8982759998699 -73.8495140005467,40.8957180002865 -73.848938000509,40.8942070001547 -73.8480629996592,40.8944370003127 -73.8471809994727,40.8921279997507 -73.8463250003851,40.8898770004031 -73.845905999928,40.8897409998515 -73.846262000492,40.889098000442 -73.8466550004438,40.8883910003494 -73.8470490001996,40.8876720000356 -73.8474439996181,40.8869779995661 -73.8479029997185,40.8862959999132 -73.8483640002673,40.8856099997625 -73.8488200005101,40.8849200003703 -73.8492780004456,40.8842419998644 -73.8497350001462,40.8835550000151 -73.8495849999372,40.8833450000713 -73.8493799994475,40.8834009998906 -73.8465759999951,40.8822109995674 -73.8463590004383,40.8822059995884 -73.8451429994267,40.8817609997158 -73.8452330005668,40.8816360002129 -73.8445860005593,40.8813579996215 -73.8437979996567,40.8810209999332 -73.8433720002227,40.8816580001625 -73.842109000112,40.8819770003719 -73.8412709999313,40.8821920003307 -73.8404169996728,40.8823999997076 -73.8395100004025,40.8826299996328 -73.8387430001662,40.8812660002743 -73.8377570005699,40.8795089995642 -73.837536999676,40.8791199998191 -73.8366060002417,40.8794209996647 -73.8357419995414,40.8797010001188 -73.8348209995404,40.8780569999387 -73.8339999994274,40.8783879999801 -73.8344219995427,40.8774029996281 -73.834502000221,40.8772269995725 -73.8346660005299,40.8766119995747 -73.8347889995091,40.8760789998011 -73.834880999983,40.8755050004126 -73.8348809996368,40.8744289995495 -73.834750000389,40.8737429996488 -73.8344940004491,40.8725580000079 -73.8343370005169,40.8720269996769 -73.8340129999866,40.8711720003724 -73.833600000439,40.8702070002614 -73.8327299999957,40.868456999853 -73.832590000231,40.868501000254 -73.8321860005335,40.8677259997938 -73.8317829994611,40.8669499999507 -73.8314740002545,40.8663599997043 -73.8303719995175,40.8644690004416 -73.8289199994782,40.8622120001234 -73.828255999588,40.8614299995937 -73.8281240002921,40.8612490002301 -73.8280429994627,40.8611389998397 -73.8276050005567,40.8605769996407 -73.8272799998213,40.8600279997055 -73.8271749994792,40.859686000243 -73.8271049997293,40.8594700000453 -73.8271010004313,40.8594570002027 -73.8270259999616,40.8592630002303 -73.8269949999034,40.8592730002308 -73.8255539999377,40.8597370002609 -73.8247309997455,40.8600310000364 -73.8204679996695,40.861359999685 -73.8198839999951,40.8617539995978 -73.8188069998515,40.8624820000986 -73.8194589996127,40.8628099999019 -73.8199380000334,40.86373700016 -73.8202569998002,40.8674940000201 -73.8204000000444,40.8682420001738 -73.8211639997186,40.8685830003609 -73.8213350003607,40.8686530002427 -73.8216379994814,40.8687710000813 -73.8212670002461,40.8690710003669 -73.8232959999999,40.8730979997228 -73.8211039994892,40.8789639996743 -73.8199259999311,40.8821199997231 -73.8198140005826,40.885574000049 -73.8203220005371,40.8854379995639 -73.8206840005013,40.8855440002718 -73.820977999869,40.8859789999137 -73.8215280001714,40.8865160001383 -73.8215979995659,40.8867459996288 -73.8222690005098,40.8870590003349 -73.822628000017,40.8870609995637 -73.8228569996139,40.8870529995471 -73.8230999998564,40.887104000245 -73.8236119999359,40.8872950000138 -73.8238549998029,40.8874740002861 -73.8237519999142,40.8878319998003 -73.8240150000775,40.8878140002372 -73.824233999889,40.8885659995981 -73.8240469995474,40.8898660002476 -73.8240359998542,40.8898230003424 -73.8240170002242,40.8897500001326 -73.8239630000728,40.8897630003931 -73.8237809999457,40.8898089999421 -73.8236389995966,40.8898499996545 -73.8235670004509,40.8898249999672 -73.8223750002701,40.889476999599 -73.8223629995906,40.8896399999838 -73.822507999936,40.8898819996449 -73.8226670001157,40.8899579995964 -73.8228990002484,40.8899260000646 -73.8231010001987,40.8898920003738 -73.8233040002405,40.8900570002573 -73.8232749999812,40.890222000031 -73.8232169995181,40.8903649996628 -73.8232450004825,40.8904740000753 -73.8231720000299,40.8905450004305 -73.8231199997274,40.8906480002575 -73.8231129999474,40.89077700008 -73.8231319994423,40.8908710001858 -73.8232049997366,40.8909180001174 -73.8232560002134,40.8909610002059 -73.8233019995973,40.8909890002427 -73.8232819999736,40.8910819997327 -73.8232439995167,40.8911989996712 -73.8230029999888,40.8910780003537 -73.8229590001572,40.8910560002067 -73.821702999794,40.8907299996072 -73.8209940004605,40.8905430003293 -73.8197190004672,40.8902060002666 -73.8195580004256,40.8901629996101 -73.8195000002626,40.8901470001834 -73.8194190000059,40.8901250000629 -73.8189290004695,40.8899930004398 -73.8187319998265,40.8899400002255 -73.8185029994384,40.8898779997008 -73.8176139999082,40.8896790003182 -73.8175959998576,40.8896749999161 -73.8167490004978,40.8894539996549 -73.8166189995793,40.8894189996051 -73.8164840002168,40.8893860001638 -73.8162060002995,40.8893160001357 -73.8161039994246,40.8892760000562 -73.8156029999011,40.8891779998075 -73.8153289998271,40.8890659995908 -73.8151649995144,40.8889990003536 -73.8150479997765,40.8889510000549 -73.8141769994232,40.8887950000417 -73.8136659996104,40.8886610001547 -73.8124389997427,40.8883529999123 -73.8123239996047,40.8883209996763 -73.8112809998398,40.8880539997942 -73.8109999997215,40.8879829996453 -73.8104079998206,40.8878320003967 -73.8099420005078,40.8876900003975 -73.8099229998636,40.8876840003788 -73.8096509997046,40.8876370001116 -73.80875700038,40.8874019997465 -73.8075750005635,40.887097999698 -73.8063980002936,40.886794999566 -73.8053679995157,40.8865279997533 -73.8049969995126,40.8864329999336 -73.8044019994463,40.8862810001635 -73.8030170001519,40.8859260002983 -73.801931999631,40.8856479999743 -73.7992790000304,40.8849649995729 -73.7973530005516,40.8844680001717 -73.796245999489,40.8841860002425 -73.7949610000192,40.8838530004439 -73.7948420004625,40.8838220003669 -73.7941069999931,40.8836309997975 -73.7932839994444,40.8834190000525 -73.7930160005681,40.8833609999419 -73.7919930003075,40.8831699998649 -73.7857969995185,40.8816000000774 -73.7837019999222,40.8810780003295 -73.7835549995118,40.8810420000664 -73.7835190004334,40.881032999561 -73.7834080004515,40.8810059996305 -73.7828380002926,40.8808679997993 -73.7822670001364,40.8807290002056 -73.7812020004753,40.8804780001901 -73.7609879997977,40.8751779996861 -73.7494830001684,40.8721010003683 -73.748059999498,40.871721000291 -73.7480040003143,40.8718739998618 -73.7424989997347,40.8750990002119 -73.7405969999066,40.8762029998893 -73.7313899994842,40.8815529998586 -73.718500000142,40.8890439998637 -73.7096739996422,40.8941730000172 -73.6989719995531,40.9003939995789 -73.6944479999821,40.9030499997346 -73.6281490004172,40.9419780002943 -73.6229549999338,40.9450279999813 -73.6194459996155,40.9470890000008 -73.6130900005119,40.9508210000513 -73.6129959997063,40.9508780000396 -73.6129010002786,40.9509339997633 -73.6128850005359,40.9509429998475 -73.6128960005695,40.9509519996208 -73.6462090005223,40.9764290003448 -73.6480200003237,40.9778140000161 -73.6498320000704,40.9791990000268 -73.6563680003575,40.9842009996471 -73.6563790000199,40.9842080000077 -73.6564119998728,40.9842329997057 -73.6564230004679,40.9842429997079 -73.6566990004849,40.9844540003345 -73.6567709996973,40.9845090003852 -73.6569130003176,40.9846749999815 -73.6573900004259,40.9852339997214 -73.65761499992,40.9854990001154 -73.6593799995518,40.9875679999267 -73.6596710002997,40.9879089997766 -73.6595309999,40.9881059996637 -73.6594740000644,40.9881879996213 -73.6592910004831,40.9884500001002 -73.6589110002918,40.988990999995 -73.6588820002251,40.9890230000511 -73.6587759998618,40.9891300002294 -73.6586299996196,40.9892569998667 -73.6577990001944,40.9902379999876 -73.6572280000954,40.9909139997214 -73.6579720001593,40.9919969996854 -73.6590320004957,40.9932509997486 -73.6590419994239,40.9932630002042 -73.6591059994757,40.993337999618 -73.6594860001562,40.9939749996736 -73.6595850002824,40.9941400002566 -73.6596389998095,40.9943390002097 -73.6596480004133,40.9944519999815 -73.6595819998334,40.9949090003349 -73.6595160005424,40.995368000381 -73.6595069996889,40.9954330002778 -73.6594940003693,40.9955249998812 -73.6593830005517,40.9965120003163 -73.6593090001493,40.9971710003211 -73.6594159998592,40.9975490001277 -73.659726999966,40.9986500001491 -73.6597360001516,40.9986819999576 -73.6599390004902,40.99940100042 -73.6600570000755,40.9998160003182 -73.6601339997693,41.000085999938 -73.660210000057,41.0003570003659 -73.6602410004691,41.0004259999584 -73.6602680003718,41.0004840003453 -73.6601739993994,41.0006210003843 -73.6601319999253,41.0006849996188 -73.6596910004467,41.0015120000933 -73.6585549997883,41.0040180003126 -73.6580819997128,41.0047470004139 -73.6580200002302,41.0048699999844 -73.6579590004396,41.0049940002245 -73.657916000238,41.0050789996212 -73.6578739999276,41.0051639998347 -73.6577809998039,41.0053359996438 -73.6576900003341,41.0055090000277 -73.657214000552,41.006404000028 -73.6568460005142,41.0072100003463 -73.6560650001708,41.0089230000579 -73.6552760005699,41.0117269997371 -73.6552410003472,41.0118519998285 -73.655254999888,41.0122459999065 -73.6553199997348,41.0123370000776 -73.6554130002422,41.0124449995656 -73.6556499998982,41.012678000157 -73.6561169994214,41.0131349995536 -73.6562039999103,41.0132909998288 -73.6562930000099,41.0134460000563 -73.6568669998757,41.014464999938 -73.6569009995911,41.0145250003448 -73.6573720001992,41.0150969996323 -73.6578719999688,41.0157969995868 -73.6581390001424,41.0160969998944 -73.6581890002933,41.0161540001308 -73.658678999895,41.0167059997615 -73.6587720000445,41.0168299998742 -73.6589920004621,41.017177999978 -73.6590780002198,41.0172680001655 -73.6594469995257,41.0176509999083 -73.6595630001547,41.0177540002517 -73.6602599999172,41.0183699999737 -73.6602929999206,41.018398999785 -73.6603090004286,41.0184130002496 -73.6604539995335,41.0185420001964 -73.6617160004516,41.0196530003421 -73.6617349998448,41.0196699999208 -73.6618469995138,41.0197689997462 -73.6626719997857,41.0204970002212 -73.6627389994886,41.020557999758 -73.6627560000942,41.0205729996491 -73.6635100003862,41.0215470000248 -73.6635220000697,41.021564999974 -73.6636039997958,41.021665000444 -73.66385800018,41.0219429997866 -73.6640740000436,41.0221870001721 -73.664148000014,41.0222569996164 -73.6641789994785,41.022286000342 -73.6646719995587,41.0229969995883 -73.6651769995761,41.0236209999553 -73.6651889999679,41.0236350002467 -73.6652400002928,41.0236970002358 -73.6652570000125,41.0237170000074 -73.6656060000664,41.0241440002535 -73.6664210004263,41.0251439997103 -73.6665389999583,41.0252880000722 -73.6667149997871,41.0255020003379 -73.6667819996892,41.0255840002271 -73.6691719997139,41.0284970001871 -73.6697270000924,41.0293300003929 -73.6697719999519,41.0293969996023 -73.6702749994911,41.0299479996409 -73.6703770000672,41.0300590003079 -73.6703809994222,41.0300719997438 -73.6705110002345,41.0304880004251 -73.6705889997688,41.0307850000538 -73.6706059995334,41.0308300003164 -73.6706319999201,41.030867999915 -73.670687000263,41.0309499995951 -73.6709740001375,41.0313769995643 -73.6710230002678,41.0314510002693 -73.6710539994613,41.0314980004131 -73.6710740003934,41.0315270003395 -73.6713499994349,41.0318520000116 -73.6714110005832,41.0319250003244 -73.6717670000895,41.0323440003117 -73.671831999621,41.0324210000299 -73.6719270001626,41.0325340003374 -73.6723880003225,41.0330810002239 -73.6727180001325,41.0334720003671 -73.6730969996256,41.0339110000066 -73.6737069996093,41.034636999897 -73.6745170001304,41.035625999562 -73.6748039995786,41.0359409997849 -73.674922000424,41.0360849995659 -73.6749900001717,41.0361679996788 -73.6751029995011,41.036306000188 -73.6751230005574,41.0363309999187 -73.6751909996046,41.036406999907 -73.6752250003668,41.0364450003507 -73.6753110001639,41.0365410001465 -73.675330000004,41.0365609997868 -73.6753450005517,41.036576000037 -73.6753959996733,41.0366300000935 -73.675486999723,41.0367239998423 -73.6755009998386,41.0367390002832 -73.6755459995572,41.0367849999086 -73.675575000011,41.0368129999176 -73.6755989994736,41.0368359998382 -73.6756510003942,41.0368949998391 -73.6757430004228,41.0370020001883 -73.6759180001321,41.0373060000091 -73.6760879996769,41.0375049998282 -73.6761850001735,41.0376179997437 -73.6762330001466,41.037677000356 -73.6764849999626,41.0379820000241 -73.6765789994502,41.0380970000078 -73.677056999593,41.0386520004455 -73.6774440003097,41.0391020003931 -73.6774629995391,41.0391240003129 -73.678537000546,41.0403710004195 -73.6785619994425,41.0403999995916 -73.6787760003165,41.0407329997815 -73.6789039996713,41.0409019996368 -73.6792750002668,41.04138400034 -73.6795120005504,41.0416500003011 -73.6797540001429,41.0419230002911 -73.6797709995467,41.0419439995626 -73.6818449995635,41.0439690001659 -73.6824730002315,41.0446970002475 -73.6829470001629,41.0453030001857 -73.6829599996137,41.0453139996048 -73.685717999436,41.0488389998574 -73.6867650001756,41.0501750000403 -73.6868330005294,41.0502619997674 -73.6869009998529,41.0503490003427 -73.6869549999081,41.0504180004445 -73.6870090000928,41.0504869996212 -73.6871730001627,41.0506969995687 -73.6878899997166,41.0515289999626 -73.6884179995808,41.0520240002842 -73.6888500000669,41.052536999737 -73.6895289994917,41.0535179999686 -73.689826000144,41.0538999997748 -73.6907170001864,41.0550469997809 -73.6910140004981,41.0554299999455 -73.6912510003541,41.0557299998451 -73.6914809994367,41.0560220000686 -73.6923460001195,41.0571429999088 -73.6928650002779,41.057711000335 -73.6930399995644,41.0579249998629 -73.6931519996929,41.0580610002011 -73.6934900002991,41.0584730001877 -73.6939520001687,41.0590040000658 -73.6942059999625,41.0593310000758 -73.6946810002798,41.0597899997973 -73.6961729998876,41.0615960004157 -73.6962520004584,41.061692999658 -73.6964149995607,41.0618919998156 -73.6964830002751,41.0619759995732 -73.7015550001578,41.0681879996772 -73.705073000322,41.0724950002173 -73.7055649995438,41.0731250003765 -73.70570500026,41.0733049997982 -73.7063040001861,41.0740709996232</coordinates></LinearRing></outerBoundaryIs></Polygon>
  </Placemark>
</Folder>
</Document></kml>
