<?xml version="1.0" encoding="utf-8" ?>
<kml xmlns="http://www.opengis.net/kml/2.2">
<Document id="root_doc">
<Schema name="shape" id="shape">
	<SimpleField name="District" type="string"></SimpleField>
	<SimpleField name="Code" type="string"></SimpleField>
</Schema>
<Folder><name>shape</name>
  <Placemark>
	<Style><LineStyle><color>ff0000ff</color></LineStyle><PolyStyle><fill>0</fill></PolyStyle></Style>
	<ExtendedData><SchemaData schemaUrl="#shape">
		<SimpleData name="District">New York 9</SimpleData>
		<SimpleData name="Code">NY-9</SimpleData>
	</SchemaData></ExtendedData>
      <Polygon><outerBoundaryIs><LinearRing><coordinates>-73.9765099998741,40.5966160002163 -73.9750390005326,40.5967799997082 -73.974927000311,40.5967939997192 -73.974082999562,40.5968830001926 -73.973240000438,40.5969790004077 -73.9705559994585,40.5972740002764 -73.9696300001568,40.5973789996414 -73.9687030005202,40.5974789999562 -73.9677770003555,40.5975799999081 -73.9668499998986,40.5976829996091 -73.9654770003369,40.5978340002044 -73.9659039994153,40.60009000024 -73.9645300004704,40.6002420001745 -73.963454999642,40.6003629995978 -73.9625340000995,40.6004609995979 -73.9603630000354,40.6006980002166 -73.9596120002221,40.6007809995992 -73.9586830000371,40.6008850001155 -73.9568300000152,40.6010869997823 -73.957283000149,40.6034699996204 -73.9563539995488,40.6035789999191 -73.9553930002337,40.6036829999092 -73.9544319996888,40.6037899998585 -73.9539779999661,40.6014010003085 -73.9530370001848,40.601505999754 -73.9518340004373,40.6016370002223 -73.9508009995891,40.6017490001465 -73.9498739997179,40.6018530001017 -73.9489500000013,40.6019540002139 -73.9470590000434,40.6021620003408 -73.9460960000035,40.6022700000758 -73.9451689994345,40.6023690002416 -73.9456200004755,40.6047590001949 -73.9446929995747,40.6048629997656 -73.9437660004568,40.6049610002649 -73.9427689998426,40.6050729996405 -73.9417710003292,40.6051830002455 -73.9422069996849,40.6075030001698 -73.9423120003226,40.608268999604 -73.9415469999729,40.608768000327 -73.9408289999988,40.6092299997775 -73.9401150000657,40.6096909999178 -73.9395979998222,40.6100240003976 -73.9393470001689,40.6101869998799 -73.9395819994246,40.6103980000101 -73.9409110001965,40.6115939996727 -73.9411610002263,40.6118200001443 -73.9403970005311,40.6123150003368 -73.9396829995198,40.612781999872 -73.9389699997497,40.6132400000189 -73.9382539999089,40.6137020003647 -73.9375419995217,40.614164999619 -73.9360570000037,40.6151229997006 -73.9353480001014,40.615584000334 -73.93463299998,40.6160479996117 -73.9339170001681,40.6165079997592 -73.9332050005796,40.6169699998281 -73.9324869997471,40.6174320003203 -73.9317310003451,40.6179270000084 -73.9306019999377,40.6169219999763 -73.9307589995792,40.6187099996102 -73.9310160004203,40.6211160001213 -73.9300449998048,40.6211779999107 -73.930281999808,40.6233809999746 -73.9283759997171,40.6234989996301 -73.9273690005605,40.6235620002937 -73.9276130000615,40.6258240002425 -73.9266079996838,40.625894999693 -73.9256730002123,40.6259519999992 -73.9247100005009,40.6260100004106 -73.9237400004767,40.6260720003189 -73.9228059998392,40.6261310001132 -73.9218359997071,40.626190000368 -73.9208689996513,40.6262509996864 -73.9199379995178,40.6263069999371 -73.920184000471,40.6286440000045 -73.9192480001282,40.6287019999495 -73.9182419997281,40.6287700000237 -73.918350000553,40.6297670003724 -73.918604000573,40.6320960001514 -73.918763000545,40.6336370000319 -73.9188519996037,40.634482999835 -73.9189250002013,40.6351590004162 -73.9190060005102,40.6358929999272 -73.9191640000203,40.6374040003739 -73.9191719997482,40.6374699998985 -73.9192900001757,40.6385959995805 -73.9194149994602,40.6397749996219 -73.91946200006,40.6402389999631 -73.9195560001331,40.6411849995688 -73.9196169996207,40.6416589996024 -73.9196620005184,40.642103999992 -73.9179520002771,40.6431599997308 -73.9175799998206,40.6428270001245 -73.9166519998679,40.6434239996555 -73.9156980000949,40.6440399996302 -73.9151849995987,40.6435799998599 -73.9147239994494,40.6431609998097 -73.9144409995676,40.6433419995603 -73.9137549994818,40.6437780003168 -73.9131970004446,40.6440700002093 -73.9129150005372,40.644177000359 -73.9120670001541,40.6445200000874 -73.9111279997693,40.6448650001424 -73.9098909996102,40.645614999896 -73.9088990002846,40.6462560001775 -73.9081849997208,40.6467200004285 -73.9074699997202,40.6471810004053 -73.9065949997563,40.6477479995768 -73.907228000469,40.6483200004184 -73.9083990005737,40.6493880001582 -73.9092900003333,40.648817000106 -73.9100039999704,40.648355000327 -73.9107160000587,40.6478879999798 -73.9117549996466,40.6472239996479 -73.9120929998974,40.6480230002566 -73.9132530004453,40.6490610003196 -73.9125350005302,40.6495209997367 -73.9118230001142,40.6499839996551 -73.9111010003483,40.6504479998534 -73.9102300005584,40.6510140000451 -73.9094489998847,40.6515219998947 -73.9085580000579,40.6520959997377 -73.9093349995047,40.652809000191 -73.9101440000885,40.6535210002245 -73.9105510003196,40.6540230004446 -73.9106790005331,40.6541799998799 -73.9109100002343,40.6543529996977 -73.9122059995174,40.655321999574 -73.9123390001007,40.6555310000627 -73.9131440004476,40.6562210001082 -73.9137799997682,40.6567829997366 -73.9140289998179,40.6570039997261 -73.9144130003885,40.6573620000734 -73.9155670004887,40.6583930000605 -73.9157280005048,40.6585500002058 -73.917074000183,40.659745000004 -73.9174189995378,40.6600510002223 -73.9181850004643,40.6607260000501 -73.9186020003164,40.6611180000727 -73.919204999964,40.661654999737 -73.9195839997672,40.6619940000565 -73.9196260004846,40.6625559997337 -73.9187030002371,40.6626939998443 -73.9190970000319,40.6642299998721 -73.9192339996573,40.6646500001967 -73.9194140000935,40.6657790002471 -73.9200389994656,40.6682819998847 -73.9201280002389,40.6682410004392 -73.9210200001654,40.6678519998233 -73.9218720003367,40.6674809997104 -73.9222149998783,40.6673339996074 -73.9227530003108,40.6670979996466 -73.9227269999665,40.6673650001112 -73.92263199999,40.668372999887 -73.9207079998768,40.6691739999914 -73.9199660003295,40.6694759999386 -73.918887999895,40.6699199997317 -73.9170239996226,40.6706869998657 -73.9169599998516,40.6707139997762 -73.9170220001777,40.6707180001102 -73.9169420002262,40.671607000224 -73.9168570001448,40.672498999909 -73.916773000492,40.6733899998245 -73.91954099998,40.6735420002548 -73.9221320000959,40.673684000439 -73.9250820003256,40.6738440000973 -73.9249960001112,40.6747360000878 -73.9253949995261,40.6747590000985 -73.9252459998606,40.6763140000266 -73.9248309996043,40.6762929998902 -73.9247700003112,40.6770899996672 -73.924764999751,40.6771729997814 -73.9265940003003,40.6772779996806 -73.9275320004167,40.6773369999661 -73.928226999913,40.6773780000003 -73.9303220000066,40.6774850001082 -73.9330690000014,40.6776470004193 -73.9358580000312,40.6778169995831 -73.9378949994544,40.6779239996996 -73.9385929994675,40.6779699998089 -73.9398249994561,40.6780249996317 -73.9405580002609,40.6780639997741 -73.941369000386,40.6780930003135 -73.9413849998349,40.6779189999299 -73.9418460004817,40.6779439998577 -73.9431940003213,40.6780179997634 -73.9435909997713,40.6780389998215 -73.9441560004428,40.678074000197 -73.9469280000488,40.6782220002261 -73.948260000544,40.6782889999341 -73.9487129997642,40.6783160003391 -73.9496969998222,40.678361999652 -73.9496759999877,40.6784569997474 -73.9496789996754,40.6785660003062 -73.952053000588,40.6786750000032 -73.9530049994167,40.678814999779 -73.954144000304,40.6790370004481 -73.9553090001379,40.6792730000808 -73.9551670000411,40.6785710003812 -73.9551949995268,40.6783429996425 -73.9554750005915,40.6775759998104 -73.956554999598,40.6778030002039 -73.9588450003159,40.6782819995636 -73.961957000176,40.6789339996824 -73.9640730005032,40.6793790001465 -73.9639010004032,40.6785169999626 -73.9637090005415,40.6775269998078 -73.9635289995249,40.6765470000684 -73.963331000165,40.675560999867 -73.9662960002414,40.6761799997909 -73.9666129996416,40.6753019995662 -73.9631369998818,40.6745730000717 -73.9629539998503,40.6735900001548 -73.9627879996473,40.6727730004061 -73.9627539999542,40.672599999691 -73.9626519998614,40.6718470000432 -73.9626219994145,40.6716289997649 -73.9636190003493,40.6718500002418 -73.9642069994192,40.6720239995991 -73.9649910001217,40.6722850000666 -73.9654919996887,40.6724590002593 -73.9662970004412,40.6726770003628 -73.966819999418,40.6727640000293 -73.9674859998611,40.6728780001758 -73.9679089994264,40.6729380001365 -73.9684530001879,40.6729599998517 -73.9689240001259,40.67293799963 -73.9692470003652,40.6727429997897 -73.962894000051,40.6637979995952 -73.9624289998427,40.6631249997501 -73.9628840000587,40.6626219996859 -73.9629500001951,40.6625300000288 -73.9630109996838,40.6624159997992 -73.9630519997229,40.6622980002946 -73.9630750003378,40.6621699999907 -73.9630770003778,40.6621300002047 -73.9628139996541,40.6605040001111 -73.9624619995869,40.6584249999181 -73.9624440000581,40.6583149996452 -73.9619000003862,40.6548710001323 -73.9641449997955,40.6539949998407 -73.9662130003659,40.6531889998037 -73.9657509997808,40.6525000002906 -73.9652420005829,40.6517420000406 -73.9646539994687,40.6508870002199 -73.9652619998199,40.6506419998387 -73.9661449994965,40.6502979999388 -73.9670279998399,40.6499479998442 -73.9679099997538,40.6495990001684 -73.9687930005786,40.6492489999891 -73.9696720003798,40.6488979996924 -73.9706929996497,40.6484969998336 -73.9713969998757,40.6482579998619 -73.9715590000702,40.648822999924 -73.9720309994805,40.6487429999367 -73.9726720002537,40.6484889995782 -73.9728360004496,40.6487240003173 -73.97366799946,40.6483939998509 -73.9747769996502,40.6479579999025 -73.9747309994241,40.6477729995652 -73.9751760001753,40.6478180002862 -73.9763359998548,40.6477280003512 -73.977263000406,40.6476280003689 -73.9781909997618,40.6475260000661 -73.9791179998208,40.6474280003793 -73.9802909996693,40.6472970001073 -73.9813279996192,40.6471819999403 -73.9811989998772,40.6464960003034 -73.9810560005125,40.6457520004202 -73.9809150001298,40.6449909998176 -73.9807789998904,40.6442539996011 -73.9806269994694,40.6435069998049 -73.9818889996161,40.6430249998336 -73.9815670001315,40.6425559995822 -73.9812319996334,40.64204500011 -73.9820430004509,40.6417080004157 -73.9824449999143,40.6415379996153 -73.9829939996382,40.6413249997032 -73.9832919997229,40.641221000167 -73.9832289994931,40.6406049997277 -73.9829210004584,40.6404159996436 -73.9835019994752,40.6398569998907 -73.9840880003109,40.6392969997434 -73.9846720005462,40.6387349997598 -73.9852520001909,40.6381750002248 -73.9855400003063,40.6378979996425 -73.9858360003535,40.6376160003502 -73.987002000585,40.6364960001587 -73.9847969995615,40.6351649999209 -73.9853810003962,40.6346060001975 -73.9871319998268,40.632927000218 -73.9877129999309,40.6323659999701 -73.9882960001185,40.6318039998691 -73.9888790001492,40.6312470001151 -73.9894619998709,40.6306860002147 -73.990044999824,40.6301269999006 -73.9922460001526,40.6314560002402 -73.9928280003508,40.6308979996439 -73.9934129998121,40.6303359998327 -73.9939949997747,40.6297759995802 -73.9951610004407,40.6286560002251 -73.9961150000623,40.6292320001494 -73.9963360005303,40.6284449995667 -73.9965569994096,40.6276410000815 -73.996702000366,40.6271719997184 -73.9967879994419,40.6268260000344 -73.9968780001465,40.6265300003852 -73.9970169998117,40.6260619995994 -73.9972410003995,40.6252889997181 -73.9974839996583,40.6245200000866 -73.9964980004942,40.6239229998018 -73.9959249997752,40.6244799999411 -73.9937109998429,40.6231560002228 -73.9912560003388,40.6216719996646 -73.9914970000436,40.6214410002964 -73.9892510004724,40.6200449998883 -73.9871360001562,40.6187419998908 -73.9874349997698,40.6184550002017 -73.9880659999357,40.6178519996832 -73.9858600005787,40.6165219996617 -73.983667999787,40.6151849998899 -73.9824900005068,40.6144239996701 -73.9822640002838,40.6133670001684 -73.9821070003102,40.6132729997229 -73.9822110002313,40.6131680001121 -73.9826599998933,40.6126930000636 -73.982517999788,40.6125880003441 -73.9821059995152,40.6104210000798 -73.9816239994359,40.6078660002015 -73.9825479997637,40.6077640001125 -73.9834769998831,40.6076629996482 -73.9834030004219,40.6072739995853 -73.9830660004305,40.6054969998698 -73.9821000005734,40.605378999919 -73.9811340004601,40.6052800001161 -73.9806850000647,40.6052370001634 -73.9801710004312,40.6051789998949 -73.9798269998284,40.6033700001742 -73.9788280001076,40.6034750001712 -73.977828000509,40.6035860004335 -73.9773880000297,40.6012629996257 -73.9769350005151,40.5988700002311 -73.9765099998741,40.5966160002163</coordinates></LinearRing></outerBoundaryIs></Polygon>
  </Placemark>
</Folder>
</Document></kml>
