<?xml version="1.0" encoding="utf-8" ?>
<kml xmlns="http://www.opengis.net/kml/2.2">
<Document id="root_doc">
<Schema name="shape" id="shape">
	<SimpleField name="District" type="string"></SimpleField>
	<SimpleField name="Code" type="string"></SimpleField>
</Schema>
<Folder><name>shape</name>
  <Placemark>
	<Style><LineStyle><color>ff0000ff</color></LineStyle><PolyStyle><fill>0</fill></PolyStyle></Style>
	<ExtendedData><SchemaData schemaUrl="#shape">
		<SimpleData name="District">New York 14</SimpleData>
		<SimpleData name="Code">NY-14</SimpleData>
	</SchemaData></ExtendedData>
      <Polygon><outerBoundaryIs><LinearRing><coordinates>-73.748059999498,40.871721000291 -73.7494830001684,40.8721010003683 -73.7609879997977,40.8751779996861 -73.7812020004753,40.8804780001901 -73.7822670001364,40.8807290002056 -73.7828380002926,40.8808679997993 -73.7834080004515,40.8810059996305 -73.7837019999222,40.8810780003295 -73.7857969995185,40.8816000000774 -73.7919930003075,40.8831699998649 -73.7930160005681,40.8833609999419 -73.7932839994444,40.8834190000525 -73.7941069999931,40.8836309997975 -73.7949610000192,40.8838530004439 -73.796245999489,40.8841860002425 -73.7973530005516,40.8844680001717 -73.7992790000304,40.8849649995729 -73.801931999631,40.8856479999743 -73.8044019994463,40.8862810001635 -73.8053679995157,40.8865279997533 -73.8063980002936,40.886794999566 -73.8075750005635,40.887097999698 -73.80875700038,40.8874019997465 -73.8096509997046,40.8876370001116 -73.8099229998636,40.8876840003788 -73.8104079998206,40.8878320003967 -73.8109999997215,40.8879829996453 -73.8112809998398,40.8880539997942 -73.8123239996047,40.8883209996763 -73.8124389997427,40.8883529999123 -73.8136659996104,40.8886610001547 -73.8141769994232,40.8887950000417 -73.8150479997765,40.8889510000549 -73.8156029999011,40.8891779998075 -73.8161039994246,40.8892760000562 -73.8162060002995,40.8893160001357 -73.8164840002168,40.8893860001638 -73.8166189995793,40.8894189996051 -73.8167490004978,40.8894539996549 -73.8175959998576,40.8896749999161 -73.8185029994384,40.8898779997008 -73.8187319998265,40.8899400002255 -73.8197190004672,40.8902060002666 -73.8209940004605,40.8905430003293 -73.821702999794,40.8907299996072 -73.8229590001572,40.8910560002067 -73.8232439995167,40.8911989996712 -73.8232819999736,40.8910819997327 -73.8233019995973,40.8909890002427 -73.8232560002134,40.8909610002059 -73.8232049997366,40.8909180001174 -73.8231319994423,40.8908710001858 -73.8231129999474,40.89077700008 -73.8231199997274,40.8906480002575 -73.8231720000299,40.8905450004305 -73.8232450004825,40.8904740000753 -73.8232169995181,40.8903649996628 -73.8232749999812,40.890222000031 -73.8233040002405,40.8900570002573 -73.8231010001987,40.8898920003738 -73.8228990002484,40.8899260000646 -73.8226670001157,40.8899579995964 -73.822507999936,40.8898819996449 -73.8223629995906,40.8896399999838 -73.8223750002701,40.889476999599 -73.8235670004509,40.8898249999672 -73.8236389995966,40.8898499996545 -73.8237809999457,40.8898089999421 -73.8240170002242,40.8897500001326 -73.8240469995474,40.8898660002476 -73.824233999889,40.8885659995981 -73.8240150000775,40.8878140002372 -73.8237519999142,40.8878319998003 -73.8238549998029,40.8874740002861 -73.8236119999359,40.8872950000138 -73.8230999998564,40.887104000245 -73.8228569996139,40.8870529995471 -73.822628000017,40.8870609995637 -73.8222690005098,40.8870590003349 -73.8215979995659,40.8867459996288 -73.8215280001714,40.8865160001383 -73.820977999869,40.8859789999137 -73.8206840005013,40.8855440002718 -73.8203220005371,40.8854379995639 -73.8198140005826,40.885574000049 -73.8199259999311,40.8821199997231 -73.8211039994892,40.8789639996743 -73.8232959999999,40.8730979997228 -73.8212670002461,40.8690710003669 -73.8216379994814,40.8687710000813 -73.8213350003607,40.8686530002427 -73.8211639997186,40.8685830003609 -73.8204000000444,40.8682420001738 -73.8202569998002,40.8674940000201 -73.8199380000334,40.86373700016 -73.8194589996127,40.8628099999019 -73.8188069998515,40.8624820000986 -73.8198839999951,40.8617539995978 -73.8204679996695,40.861359999685 -73.8247309997455,40.8600310000364 -73.8255539999377,40.8597370002609 -73.8270259999616,40.8592630002303 -73.8271010004313,40.8594570002027 -73.8271749994792,40.859686000243 -73.8272799998213,40.8600279997055 -73.8276050005567,40.8605769996407 -73.8280429994627,40.8611389998397 -73.828255999588,40.8614299995937 -73.8289199994782,40.8622120001234 -73.8303719995175,40.8644690004416 -73.8305740003674,40.8643740000762 -73.8298090004192,40.8625829998663 -73.8295939997568,40.8621729999483 -73.8316019998593,40.8626280002837 -73.8359070001049,40.8650770001074 -73.8364310005456,40.8653560003544 -73.8369709995601,40.8656430002708 -73.8378440004135,40.8660989995901 -73.8387520001424,40.8665719999196 -73.8392199998494,40.8668210002304 -73.8397429997072,40.8670879998965 -73.8406440002244,40.8675540002506 -73.8407470000604,40.8651620000577 -73.8408229994855,40.8627189996387 -73.8417649995637,40.8627370003151 -73.8434339996392,40.8627679996526 -73.8431980003167,40.8608969996709 -73.8430030005101,40.8595020001153 -73.8445379997818,40.8596320000922 -73.8454819996364,40.859702999903 -73.8464219999594,40.8597749996418 -73.8473600000685,40.8597939999588 -73.8482969996014,40.8598109999523 -73.8483369996153,40.8587019997616 -73.8493089999784,40.8587179996411 -73.8493380001036,40.8581599997399 -73.8493539994569,40.8576329997062 -73.8493590000015,40.8574969996969 -73.8493859997889,40.8568569997061 -73.8500960003457,40.8563469998608 -73.8494830003238,40.8558149998827 -73.8506400001969,40.8550739999181 -73.8501780004735,40.8544739999569 -73.8489009996686,40.8552890000917 -73.8482880005045,40.8547309996773 -73.8480800002316,40.8545099998581 -73.848031000532,40.8544040001313 -73.8480030004413,40.854290999958 -73.8480109999392,40.8539510004353 -73.848062000551,40.8532389997424 -73.8481099995256,40.8526120000997 -73.8487419999683,40.8526439995561 -73.8494220003329,40.8521189998315 -73.8501090001674,40.8515989995887 -73.8496890002978,40.8510590000019 -73.8504990003421,40.8506960001358 -73.8513679995442,40.850304000019 -73.8522420001359,40.8499109999093 -73.8530459997809,40.8495469998373 -73.853852999627,40.8491840004095 -73.8546630003051,40.8488209998561 -73.8552100001609,40.8485730002358 -73.8554680002038,40.8484579997906 -73.8562789998227,40.8480929996715 -73.8587019996032,40.846999999886 -73.8594400004963,40.846658999687 -73.8590119997779,40.8459150001716 -73.8586540004606,40.8452859996859 -73.8611950003499,40.8447140001642 -73.861443000063,40.8454100003107 -73.861706999628,40.8461399998351 -73.8625849996072,40.8459609999529 -73.863451000322,40.8457779997954 -73.8643230005782,40.8455959998475 -73.8661190000581,40.8452230002095 -73.866878999671,40.8450660000751 -73.8677880001022,40.8448750002818 -73.8680189999492,40.8448410003551 -73.8681269995575,40.8447870001053 -73.8688919996235,40.8444099999133 -73.8695950005883,40.8439809995939 -73.8703010005826,40.8435490002374 -73.8709949995626,40.8431120001775 -73.8715339999814,40.8425139997276 -73.872252999488,40.8416010001924 -73.8728079999263,40.8408690002863 -73.8741659996672,40.8413660001769 -73.874590999953,40.841521000238 -73.8760849997807,40.8420650004332 -73.8769079999924,40.8407550001709 -73.8774150004237,40.8399879998863 -73.8779140003616,40.8399710001631 -73.8783640003832,40.8399970000826 -73.8786599999226,40.8400199996154 -73.8797299994955,40.8400419997855 -73.8801630001312,40.8399980002402 -73.8804230004831,40.8400710000049 -73.881493999537,40.8396929998172 -73.8820940002788,40.8395869996333 -73.8824940002006,40.8395760001733 -73.8829070001485,40.8396030003639 -73.883811000286,40.8394689996574 -73.883468000438,40.8390569997027 -73.8835649999062,40.8389859996532 -73.8837389998547,40.8388460001829 -73.8848169997244,40.8369770004304 -73.8851070002331,40.8364749996755 -73.8859639994694,40.8367690002624 -73.8869629997526,40.8350959998829 -73.8879479998515,40.8334470000634 -73.8889359994396,40.8317980002856 -73.8890929995493,40.8315270000569 -73.8899120000971,40.8301239996591 -73.8899349994466,40.8287059996349 -73.8908780004607,40.828629999725 -73.8918909996977,40.8285470002834 -73.8929030001903,40.8284670001161 -73.8938430000563,40.8283920001991 -73.894913999735,40.8283059999855 -73.895057999621,40.8283879997004 -73.8962219999379,40.8271699998418 -73.89582399987,40.825995000395 -73.8968389998462,40.8259909996624 -73.8968609994078,40.8238479999656 -73.8968640004843,40.823492000237 -73.8968780002008,40.8221179998826 -73.8978639995133,40.8215979998185 -73.898985000224,40.8210380002445 -73.8998600001226,40.820562999914 -73.9006459996541,40.8201639997783 -73.9008519995845,40.8200590002074 -73.9016019999962,40.8196949998693 -73.9016680003712,40.8195339999365 -73.90183199956,40.8191469999327 -73.9019280003184,40.8189240003678 -73.9021069998402,40.8185050002591 -73.9025790004621,40.817369999588 -73.9035929997661,40.8175789996399 -73.9050069998434,40.8178660001694 -73.905313000082,40.8179249996768 -73.9063050001377,40.8173709998534 -73.906650000537,40.8171790002064 -73.9075890002937,40.8165959999844 -73.9082249995102,40.8162030004236 -73.9091320000899,40.8159410003001 -73.9095210003646,40.8148250000521 -73.9100190003287,40.8134319998448 -73.9109480004464,40.8136210003396 -73.9118119998747,40.813882999622 -73.9129539999775,40.814268999873 -73.9133369997111,40.8136110004193 -73.9137159996329,40.8129529997697 -73.9140980004769,40.8123010003248 -73.9144739997346,40.8116509996425 -73.9148470004022,40.810993999716 -73.9168380004012,40.811656000446 -73.9172259995569,40.8110020000065 -73.9175989998712,40.8103510004411 -73.9210349999865,40.811651999697 -73.9212520001853,40.8113560002123 -73.921485999717,40.8110349999375 -73.9219500001369,40.8104050001187 -73.9224000000572,40.8097799995977 -73.9228859995288,40.8091060002632 -73.9233750004205,40.8084319997571 -73.923837000561,40.8078089997671 -73.9242650005705,40.8071749996671 -73.9244649999742,40.8068890002758 -73.9248260002196,40.8070450000547 -73.9266699996066,40.8077530000321 -73.9267899997477,40.8078000001806 -73.928625000075,40.8089480004344 -73.9293320001254,40.8094710000282 -73.9294399994418,40.8093840001135 -73.9301079995002,40.8088769999298 -73.9309380001179,40.8082529999911 -73.931800999433,40.8078760001428 -73.931165999571,40.8072049995473 -73.930405999737,40.8064790002648 -73.9303470000233,40.8061960004028 -73.9299860004376,40.8057930000702 -73.9284010004555,40.8041059996599 -73.9282249994147,40.80384999977 -73.9275250000361,40.8027639998289 -73.9272500005271,40.8025580003171 -73.9267369995651,40.8025000000318 -73.9265619997635,40.8024759998131 -73.9264190005245,40.8024759997842 -73.9250810005528,40.8025210002115 -73.9240690005575,40.8024680001988 -73.9238010005573,40.8025040003463 -73.9237479995655,40.8025479998035 -73.9236330002376,40.8025540003112 -73.9230219994642,40.8024249998293 -73.922340000118,40.8019620001557 -73.9217419999492,40.8016890002405 -73.9216219995574,40.8014469999762 -73.921203999482,40.8010110003639 -73.9210519998801,40.8006420001341 -73.9207280002667,40.8001010003568 -73.9203570002339,40.799671999832 -73.9198609998077,40.7993529995492 -73.9190979994476,40.7990130001578 -73.9188119996247,40.7988530000562 -73.918668999826,40.7988009998406 -73.9163059995041,40.797880999785 -73.9162520000767,40.7978380003397 -73.9157540000439,40.7975889996862 -73.9144619998063,40.7970420000829 -73.9139030005463,40.7968430001123 -73.9138020003785,40.796834000371 -73.9136239999708,40.7967860000989 -73.9124560004702,40.796095999874 -73.9106730003187,40.7931160000378 -73.910296000447,40.7906569999093 -73.9111310001391,40.7901139995694 -73.9112500002435,40.7897440001959 -73.9116179996248,40.7895859996473 -73.911774000217,40.7897229995741 -73.9120799994386,40.7895219997599 -73.9119509995009,40.7894020004438 -73.9120689994375,40.7893389999607 -73.912230000427,40.7891790004119 -73.912600000309,40.7893760004499 -73.9142390005196,40.7878559998547 -73.915587000369,40.7864300001821 -73.9152600003446,40.7861919998983 -73.9153439997041,40.7861159998218 -73.9153989996792,40.786057999597 -73.9157520003598,40.7861080002626 -73.9168330002484,40.7851910000971 -73.917182000133,40.784552000314 -73.9171709999041,40.7841930004023 -73.9172449994426,40.7841419995838 -73.9177380003559,40.7840760003441 -73.9181890002896,40.7839330000994 -73.9184739997945,40.7837539997519 -73.9190900000588,40.7833680002389 -73.9199650000531,40.7826350001435 -73.9207629998932,40.7819500001042 -73.9209990004029,40.7817489997491 -73.9220999995121,40.7808520004053 -73.9226300000223,40.7805649997127 -73.9229569999814,40.7804409996607 -73.9231870001982,40.7802480003004 -73.9242340002672,40.779100999938 -73.9248160002952,40.7787579995826 -73.9255729994652,40.7784590002623 -73.9257450000021,40.7784050003707 -73.9259079999095,40.7783610003864 -73.9263180001332,40.7782419999161 -73.9282769996923,40.7768990001073 -73.9283960002871,40.7767909997373 -73.9286050005257,40.776593000091 -73.9290359999255,40.7764669997875 -73.9298809998572,40.7762220001236 -73.9306289994106,40.776591000294 -73.9310739995635,40.7772610003872 -73.9310499997107,40.7774420000238 -73.9317879996752,40.777871000167 -73.9318470005312,40.7778919998239 -73.9326489994169,40.7780219996619 -73.9327219996319,40.778035000129 -73.9327749996891,40.7779220003903 -73.9339079996353,40.7781170001937 -73.9344120004817,40.778093000081 -73.9347439999224,40.778076000352 -73.9350820001057,40.7779440003352 -73.935508999761,40.7775389997144 -73.935854999509,40.7772119997471 -73.9360889997159,40.7771840002491 -73.9363799997415,40.7769210003969 -73.9370469997293,40.7758659998893 -73.9376550003541,40.7750859998488 -73.9378579999481,40.7740879999211 -73.9378130003476,40.7735629999133 -73.9374660005247,40.7725309996235 -73.9374660005551,40.7725039997535 -73.9349560001049,40.771730000367 -73.9353229999819,40.7704849996926 -73.9364040004768,40.7694749997092 -73.9382039998433,40.7687280000817 -73.9398359998513,40.7679880002661 -73.9403510002839,40.7676529996362 -73.9404630000826,40.7675299998761 -73.9385900001767,40.7668170000795 -73.9396999995723,40.7664109996956 -73.9402719997414,40.7655300001639 -73.9394190004352,40.7652150004281 -73.9386030001006,40.7649209999286 -73.9377959994176,40.7646159998069 -73.9370049995669,40.76423999959 -73.9362560002357,40.7638939997737 -73.9354139994342,40.7634970001309 -73.9346070000217,40.764798000058 -73.9344759999286,40.7650030003289 -73.9341889995873,40.7654549998482 -73.933796999584,40.7653110002144 -73.9337079996833,40.7654130003385 -73.9327960004187,40.7649239998442 -73.9322490005206,40.7646390000465 -73.9308670005556,40.763874000448 -73.9313499999984,40.7632749997031 -73.9312259995534,40.7632160004197 -73.9300040001567,40.7626300002752 -73.9294539997409,40.762366000258 -73.9305480003391,40.7612229997724 -73.9296509996035,40.760797999853 -73.9288499999269,40.7604209997321 -73.9280510005147,40.7600479997448 -73.9272470001933,40.7596710002689 -73.926452999414,40.7592959997993 -73.9256540002799,40.7589220004164 -73.924853999789,40.7585510003801 -73.9261019994268,40.7570039997234 -73.9253009996465,40.756629000019 -73.9240540004295,40.7581759995961 -73.923257999754,40.7578029998124 -73.9224599998094,40.757427000406 -73.9208649995562,40.7566779995948 -73.9189980002205,40.7589739998736 -73.9174039996431,40.7582239995831 -73.9158059994935,40.7574730001418 -73.914267000378,40.7593670002008 -73.9138969994304,40.7598179998924 -73.9130870004164,40.7594379997858 -73.9122860000425,40.7590659998805 -73.9114899994402,40.7586930002128 -73.9102169998833,40.7602389996916 -73.9093910001968,40.761264000444 -73.908591999447,40.7608900003458 -73.9077939997043,40.760517999548 -73.9072919995823,40.7602809996858 -73.9069969998243,40.7601430002173 -73.9063150003012,40.7598439998664 -73.9069150004693,40.7589009997616 -73.9075339995026,40.7580449997942 -73.9075280002835,40.7576889996439 -73.9073659994365,40.7569879998617 -73.9064679995268,40.7570820001576 -73.9063020000807,40.7570989995837 -73.9055750003545,40.757178000201 -73.9048469999144,40.757255000387 -73.9036779999501,40.7573770001316 -73.9027859997656,40.7574719998273 -73.9018989995731,40.7575639998691 -73.9013479994759,40.7576219995842 -73.9008149994995,40.7576789997321 -73.9005190001323,40.7577080002023 -73.8999670003809,40.757767999861 -73.8999000000378,40.757771999575 -73.8998320004877,40.7577830000377 -73.8997029995126,40.7577829997638 -73.8994599996351,40.7578140000277 -73.8992120004564,40.7578479996221 -73.8971910003125,40.75805999981 -73.8962619998463,40.758158999581 -73.8959759996943,40.7566079998858 -73.8950520005377,40.7567109997271 -73.894661000575,40.7545830002873 -73.8943299999058,40.7527560003376 -73.8939760000384,40.7508110002827 -73.8936070003012,40.7487710001266 -73.8927080003773,40.7488629996109 -73.8917990005233,40.7489600002011 -73.8917479996088,40.7489650001448 -73.8908239997856,40.7490610004031 -73.8899700005281,40.7491560000336 -73.88990299979,40.7491639999967 -73.8890740004922,40.7492470000847 -73.8887559997136,40.7475429996851 -73.8886780003451,40.7471339995866 -73.8877830003323,40.7472289999798 -73.8876470004228,40.7472449997013 -73.8867170003467,40.7473410003043 -73.8857869996848,40.7474400003912 -73.8848549997427,40.7475350000556 -73.8839359994273,40.7476299998892 -73.8829990002327,40.7477340004212 -73.8825689994925,40.7477780000257 -73.8820710005294,40.7478299999961 -73.8813040001305,40.7479090001378 -73.8811369996897,40.7479269996048 -73.8802059998758,40.7480249999713 -73.8798389995567,40.7480620003101 -73.879277999888,40.7481240002557 -73.8784059999489,40.7482160000266 -73.877416000047,40.74831900042 -73.8769250000218,40.7483690004246 -73.8764800005671,40.748415999583 -73.8762519998374,40.7484390003883 -73.8755519995203,40.7485139996399 -73.8746289998023,40.7486140003132 -73.8739830000454,40.7486859997412 -73.8737010002004,40.7487170004336 -73.8727739996567,40.7488129997283 -73.8723729994181,40.7488519998661 -73.8723250001042,40.7486360001618 -73.8722199994278,40.7481569998026 -73.8721550002185,40.7478720000002 -73.8720679997395,40.7474809997942 -73.8719639996334,40.7469840002617 -73.8719180001955,40.7467819999733 -73.8717709995658,40.7461039998007 -73.8715949995756,40.7453250003855 -73.8698180000338,40.7458530002957 -73.8696309997025,40.7459079999495 -73.8692879995423,40.7452420000114 -73.8680859995983,40.7456009997619 -73.8664140002808,40.7460999997491 -73.8649030005938,40.7465499995673 -73.8637030005172,40.746906000319 -73.8634970000224,40.7475170003517 -73.8631010004043,40.7476309995808 -73.8628589996218,40.7471570001322 -73.8625310001252,40.7465339999969 -73.8603200000324,40.7471959999371 -73.8573960003555,40.7480679999236 -73.8544769996752,40.7489530002201 -73.8544209996674,40.7488049999597 -73.8508639998547,40.7499960004415 -73.8521700002493,40.7525820000675 -73.8522050000028,40.7526610001416 -73.8526169999749,40.7534050003069 -73.8530080001816,40.7545550003093 -73.8531259997641,40.7551090003934 -73.8531870004104,40.7553980000149 -73.8533510003934,40.7560130002642 -73.8535379995119,40.7565549998405 -73.8535940001319,40.756695000044 -73.8536540003921,40.7568350003129 -73.8537160000312,40.7569739997626 -73.8538200004574,40.757186000231 -73.8542080000238,40.7578670001657 -73.8544959995911,40.7582789996591 -73.854389000282,40.7582499998795 -73.8536859998133,40.757876999579 -73.8534179997124,40.7577240003347 -73.8533269997299,40.757681000117 -73.8532329996266,40.757643000276 -73.8531349995381,40.7576099998756 -73.8530349997429,40.7575829997961 -73.8529330002405,40.7575600001789 -73.8528279999557,40.7575429999288 -73.8527230002283,40.7575310001232 -73.8524099996053,40.7575340000339 -73.8521909996443,40.7575669995511 -73.8516280005205,40.7577050003613 -73.8515620002503,40.7577290002947 -73.8512499997312,40.7578089995538 -73.8508749994594,40.7579189999152 -73.850502000419,40.758033999701 -73.8501320005609,40.7581549997921 -73.8497659997932,40.7582800004214 -73.8494029998081,40.7584119995595 -73.849031000387,40.7585640000013 -73.848668000319,40.7587269999293 -73.8483129995884,40.758901000257 -73.8479669998428,40.7590850003202 -73.8476309997013,40.759279000262 -73.8463390000107,40.7601900000358 -73.845852000489,40.7604550003676 -73.8459109996346,40.7605849997639 -73.8459749994867,40.7607170003447 -73.8453630004,40.7611220001049 -73.8451369997769,40.7612649998216 -73.8446900002226,40.7615490003867 -73.8444579994517,40.7617049998707 -73.8440850001973,40.7619080000933 -73.843718999566,40.7620710001369 -73.8433489999184,40.7622069996737 -73.8429329999114,40.7623360003283 -73.8425700004616,40.762404999574 -73.8422330003499,40.7625519995727 -73.8419679997633,40.7626859996484 -73.8417619998735,40.7626650002515 -73.8408740004252,40.7625590000737 -73.8400090002407,40.7625739999196 -73.8399229999776,40.7625750001047 -73.8396909998204,40.7625869998034 -73.8397879994335,40.7627480000706 -73.8398960001311,40.7629650003616 -73.8399830005727,40.7631889997107 -73.8400480002349,40.763416000117 -73.8400889994402,40.763643999683 -73.8401030000922,40.7640570004361 -73.8401089999791,40.7641619997158 -73.8400990002342,40.7642110000206 -73.8396569995173,40.7649939998386 -73.8395380000716,40.7652240001878 -73.8394169995871,40.7654280002513 -73.8391210003761,40.7659829996742 -73.8391319996603,40.7659909998245 -73.8393189998718,40.7660539997406 -73.8388290003094,40.7667250000643 -73.8387100002706,40.7668950003981 -73.8381639999794,40.7677249995514 -73.8372919998273,40.7686890002343 -73.8367320001429,40.769221999903 -73.8362689996915,40.7696099997039 -73.8354800001779,40.7701420004375 -73.8351780000801,40.7703460004051 -73.834375999445,40.770891999875 -73.8340350000784,40.7710859999682 -73.8334280001403,40.7714339999093 -73.8331329995616,40.7716099997846 -73.8327890005757,40.7718069998132 -73.8324380004701,40.7720140001614 -73.8318330000345,40.7723879999205 -73.8315929995506,40.7725599997921 -73.8310000003958,40.773046999835 -73.8306330003397,40.7733609999226 -73.8305399996496,40.7734370001115 -73.8302199997132,40.7737589998326 -73.8301570000599,40.7738250001363 -73.8298520004949,40.774163000107 -73.8295120005141,40.7745690001762 -73.829278999957,40.7748820002642 -73.8291850001794,40.7750179998596 -73.8289649997992,40.7753110003172 -73.828882999644,40.77542699957 -73.8285279997435,40.7760070002156 -73.8282390001749,40.7764599996984 -73.8281029998738,40.7766940002125 -73.8262979994837,40.779802999647 -73.8259159994289,40.7805180000857 -73.8252849998007,40.7816969996944 -73.8252329995964,40.7818320001312 -73.8251499998106,40.7820710001014 -73.8250709997738,40.7823139998766 -73.8250209995284,40.7824829998667 -73.8249069998191,40.7829329996866 -73.8248589998079,40.7831780004387 -73.8248049998816,40.7834999997202 -73.8247880000286,40.7836099998377 -73.8246559998066,40.784431000074 -73.8245219999674,40.7852249998238 -73.8244049995497,40.7858870001358 -73.8243500001695,40.7861220002857 -73.824287000404,40.7863569999505 -73.8241700005212,40.7867460000236 -73.8238679998683,40.7878699996096 -73.8235740001172,40.7890819997237 -73.8235110001235,40.7893890002641 -73.8234040000433,40.7906190004495 -73.8234669995663,40.7911150003614 -73.8235339998482,40.7917109996137 -73.8235519999021,40.7921079998339 -73.8237319995609,40.7927870002844 -73.8240390000905,40.7930460001015 -73.8257250000861,40.7956089996624 -73.8255899997103,40.7956400004143 -73.8252290005773,40.7957259999183 -73.8229699997684,40.7962129995764 -73.823541000529,40.7971309996537 -73.8238370001671,40.7975890003192 -73.8240880005811,40.7980480000104 -73.8275830004772,40.8039359997069 -73.8234379998,40.8048100000397 -73.8174180002119,40.8057900000783 -73.8112989997469,40.8053970004317 -73.8045429996136,40.8035539999953 -73.7997449994794,40.8021989998564 -73.7971329995316,40.8014099996806 -73.7935589998717,40.8003799995962 -73.7933710000986,40.8003870003397 -73.7900200001402,40.8002299995527 -73.7879179999053,40.8003619997715 -73.7873160002951,40.8008530003349 -73.7847450003153,40.802592000347 -73.7826759995099,40.8053860004424 -73.7795559997302,40.8112469997017 -73.7789579994339,40.8117129996299 -73.7801930003118,40.8263999998019 -73.7749769995572,40.8308789997546 -73.7734289994908,40.832213999677 -73.7665009995288,40.8381819997263 -73.7621739998223,40.8419110001292 -73.761640000137,40.8423720000418 -73.7578009995205,40.8456789998396 -73.7537320003451,40.8565559998381 -73.748059999498,40.871721000291</coordinates></LinearRing></outerBoundaryIs></Polygon>
  </Placemark>
</Folder>
</Document></kml>
