<?xml version="1.0" encoding="utf-8" ?>
<kml xmlns="http://www.opengis.net/kml/2.2">
<Document id="root_doc">
<Schema name="shape" id="shape">
	<SimpleField name="District" type="string"></SimpleField>
	<SimpleField name="Code" type="string"></SimpleField>
</Schema>
<Folder><name>shape</name>
  <Placemark>
	<Style><LineStyle><color>ff0000ff</color></LineStyle><PolyStyle><fill>0</fill></PolyStyle></Style>
	<ExtendedData><SchemaData schemaUrl="#shape">
		<SimpleData name="District">New York 8</SimpleData>
		<SimpleData name="Code">NY-8</SimpleData>
	</SchemaData></ExtendedData>
      <Polygon><outerBoundaryIs><LinearRing><coordinates>-73.8572820004913,40.6703119996713 -73.857633000523,40.6716560001888 -73.8585550005383,40.6715330004118 -73.8594739999219,40.6713810004425 -73.8603890001115,40.6712689999669 -73.8607749994531,40.6728059998953 -73.8610769996927,40.6740210001975 -73.8617640001166,40.6742329995511 -73.8631010001099,40.6746479996288 -73.8629920005052,40.6740729996002 -73.8639190005909,40.6739419996109 -73.8649000002261,40.6738079998872 -73.8653239998346,40.6737380002104 -73.8657550003941,40.673677999605 -73.8666679996615,40.6735439995589 -73.8685230002558,40.6732789996741 -73.869446999955,40.6731429999439 -73.8703670002761,40.673011000278 -73.8706789994762,40.6742690001874 -73.8709950001834,40.6755369997407 -73.8713069999373,40.676804999624 -73.8714810005158,40.6775010003127 -73.8725869995774,40.677866000043 -73.8732999996833,40.6778020001341 -73.8740349995212,40.6776990000794 -73.874974999601,40.6775639997547 -73.8758959997135,40.6774300003789 -73.8786620004092,40.6770330004203 -73.8805049995479,40.6767659999103 -73.8814269998511,40.6766340001156 -73.8840399999151,40.6762500002107 -73.8850740001911,40.6760960001878 -73.8856680004847,40.6760090000322 -73.8882560004769,40.6756250000713 -73.8891509996475,40.6754959998477 -73.8900559997157,40.6753570002126 -73.8918600005264,40.6750909997033 -73.8945939995744,40.6746839996388 -73.8954990004075,40.674551000132 -73.8965090005599,40.6743970002356 -73.8974850003296,40.6742550003178 -73.8983869996981,40.6741209999569 -73.8993069995757,40.6739819995793 -73.9002279997885,40.6738490001391 -73.9006490002505,40.6754859997066 -73.9007919994755,40.6765720002028 -73.8999900004606,40.6768999997487 -73.9006270000849,40.6772650000577 -73.9034660005568,40.6788970000679 -73.9040460004202,40.6792200001431 -73.9054930002023,40.6800369995858 -73.9056590003612,40.6801409998029 -73.906282000511,40.6805070001023 -73.9070179996035,40.6809479995929 -73.9077710003766,40.6813770000914 -73.9085170002135,40.6818039998695 -73.9088599994312,40.6819939999735 -73.9092750002087,40.6822349998733 -73.9100669995079,40.6826839995635 -73.9107689997884,40.6830920001744 -73.9115119994582,40.683504999947 -73.9122729995784,40.6839349996047 -73.9137979998315,40.6848000000983 -73.914540000458,40.6852269999012 -73.915500999666,40.6857620003857 -73.9160460002993,40.6860720004015 -73.9167980000153,40.6864970004204 -73.9182940000476,40.6873570003108 -73.9187830002067,40.6876260001468 -73.9198099994941,40.688210999843 -73.9205500004232,40.6886409997848 -73.920961000532,40.6888720001231 -73.9213059998533,40.6890720002824 -73.9220719998979,40.6894899998847 -73.9228070003215,40.6899239996894 -73.9231690001491,40.6901229998292 -73.9236440000932,40.6903990003146 -73.9242869996083,40.6907679996542 -73.9243920002386,40.6908309996464 -73.9253649997518,40.6913670000496 -73.9255599996111,40.6914909999038 -73.9263159995049,40.6919289996159 -73.9270710004874,40.6923459998353 -73.9275070005772,40.6926040004478 -73.9286419997173,40.6932410002887 -73.9297020003757,40.6938639998204 -73.9305119997323,40.6943169997774 -73.9311450001384,40.6946739996041 -73.9314579997956,40.6948550003487 -73.9323659999171,40.6953579996194 -73.9331180001899,40.6957910000611 -73.9338279996077,40.6961840001133 -73.9347970003785,40.6967370001958 -73.9352220004025,40.6969860004112 -73.9360060005338,40.6974059996042 -73.9363880003612,40.6976159996526 -73.9367599996177,40.6978309997182 -73.9373909996546,40.6981860001372 -73.9377730002343,40.698404999582 -73.9381769998407,40.6986410000295 -73.9380889999337,40.6980879997228 -73.9379550001003,40.6974229997886 -73.9377920005612,40.6966899998362 -73.9407049995103,40.6963539996895 -73.9435259994632,40.6960310002666 -73.9444459996487,40.6959239997368 -73.9492070002879,40.6953780001146 -73.9512449994754,40.695145000289 -73.9524890002791,40.6950039997039 -73.9534140000037,40.6948930001943 -73.9543070002959,40.6947910001571 -73.9539889999158,40.693205000314 -73.9535660003091,40.6911210001956 -73.9554100003022,40.6909079995556 -73.9572720004828,40.6906939996288 -73.9585780002699,40.690545999723 -73.9594280005613,40.6904480004269 -73.9602929997628,40.6903459995519 -73.9633220001659,40.6899990001774 -73.96347700053,40.6899800003617 -73.9651880004794,40.6897820003164 -73.9671149995385,40.6895610000655 -73.9680779995968,40.6894519999729 -73.9691029999298,40.6894679998003 -73.9711419996118,40.689543999563 -73.9721360003241,40.6895820003324 -73.9732640003223,40.6896270003052 -73.9741090002433,40.6896630002549 -73.9751059997647,40.6896979995691 -73.9761019994456,40.6897370001005 -73.9755900004407,40.6870860004078 -73.9762059998095,40.6870250001962 -73.9773609994165,40.6869189997044 -73.9770259996802,40.685195000387 -73.9752510000902,40.6854049996992 -73.9733220003272,40.685620999988 -73.973249999574,40.6856530001787 -73.9731189997765,40.6857809999344 -73.9728479997605,40.6856750001742 -73.9722740003301,40.685442999654 -73.9720570005262,40.6842610002773 -73.9717420005848,40.6826459997879 -73.9706399995762,40.682414000323 -73.9697800005003,40.6822349996615 -73.968664000121,40.6819999998273 -73.9674769997002,40.6817539998429 -73.9676779999412,40.6809549997911 -73.9679540001463,40.6801890004281 -73.9650669997255,40.6795859998799 -73.9640730005032,40.6793790001465 -73.961957000176,40.6789339996824 -73.9588450003159,40.6782819995636 -73.956554999598,40.6778030002039 -73.9554750005915,40.6775759998104 -73.9551949995268,40.6783429996425 -73.9551670000411,40.6785710003812 -73.9553090001379,40.6792730000808 -73.954144000304,40.6790370004481 -73.9530049994167,40.678814999779 -73.952053000588,40.6786750000032 -73.9496789996754,40.6785660003062 -73.9496759999877,40.6784569997474 -73.9496969998222,40.678361999652 -73.9487129997642,40.6783160003391 -73.948260000544,40.6782889999341 -73.9469280000488,40.6782220002261 -73.9441560004428,40.678074000197 -73.9435909997713,40.6780389998215 -73.9413849998349,40.6779189999299 -73.941369000386,40.6780930003135 -73.9405580002609,40.6780639997741 -73.9398249994561,40.6780249996317 -73.9385929994675,40.6779699998089 -73.9378949994544,40.6779239996996 -73.9358580000312,40.6778169995831 -73.9330690000014,40.6776470004193 -73.9303220000066,40.6774850001082 -73.928226999913,40.6773780000003 -73.9275320004167,40.6773369999661 -73.9265940003003,40.6772779996806 -73.924764999751,40.6771729997814 -73.9248309996043,40.6762929998902 -73.9252459998606,40.6763140000266 -73.9253949995261,40.6747590000985 -73.9249960001112,40.6747360000878 -73.9250820003256,40.6738440000973 -73.9221320000959,40.673684000439 -73.916773000492,40.6733899998245 -73.9169420002262,40.671607000224 -73.9170239996226,40.6706869998657 -73.9199660003295,40.6694759999386 -73.9207079998768,40.6691739999914 -73.92263199999,40.668372999887 -73.9227530003108,40.6670979996466 -73.9222149998783,40.6673339996074 -73.9218720003367,40.6674809997104 -73.9201280002389,40.6682410004392 -73.9200389994656,40.6682819998847 -73.9194140000935,40.6657790002471 -73.9192339996573,40.6646500001967 -73.9190970000319,40.6642299998721 -73.9187030002371,40.6626939998443 -73.9196260004846,40.6625559997337 -73.9195839997672,40.6619940000565 -73.9186020003164,40.6611180000727 -73.9181850004643,40.6607260000501 -73.9174189995378,40.6600510002223 -73.9157280005048,40.6585500002058 -73.9155670004887,40.6583930000605 -73.9144130003885,40.6573620000734 -73.9140289998179,40.6570039997261 -73.9131440004476,40.6562210001082 -73.9123390001007,40.6555310000627 -73.9122059995174,40.655321999574 -73.9106790005331,40.6541799998799 -73.9101440000885,40.6535210002245 -73.9093349995047,40.652809000191 -73.9085580000579,40.6520959997377 -73.9094489998847,40.6515219998947 -73.9111010003483,40.6504479998534 -73.9118230001142,40.6499839996551 -73.9125350005302,40.6495209997367 -73.9132530004453,40.6490610003196 -73.9120929998974,40.6480230002566 -73.9117549996466,40.6472239996479 -73.9107160000587,40.6478879999798 -73.9100039999704,40.648355000327 -73.9092900003333,40.648817000106 -73.9083990005737,40.6493880001582 -73.907228000469,40.6483200004184 -73.9065949997563,40.6477479995768 -73.9074699997202,40.6471810004053 -73.9081849997208,40.6467200004285 -73.9088990002846,40.6462560001775 -73.9098909996102,40.645614999896 -73.9111279997693,40.6448650001424 -73.9120670001541,40.6445200000874 -73.9129150005372,40.644177000359 -73.9131970004446,40.6440700002093 -73.9137549994818,40.6437780003168 -73.9147239994494,40.6431609998097 -73.9151849995987,40.6435799998599 -73.9156980000949,40.6440399996302 -73.9166519998679,40.6434239996555 -73.9175799998206,40.6428270001245 -73.9179520002771,40.6431599997308 -73.9196620005184,40.642103999992 -73.9196169996207,40.6416589996024 -73.9195560001331,40.6411849995688 -73.9194149994602,40.6397749996219 -73.9191640000203,40.6374040003739 -73.9190060005102,40.6358929999272 -73.9188519996037,40.634482999835 -73.918763000545,40.6336370000319 -73.918604000573,40.6320960001514 -73.918350000553,40.6297670003724 -73.9182419997281,40.6287700000237 -73.9192480001282,40.6287019999495 -73.920184000471,40.6286440000045 -73.9199379995178,40.6263069999371 -73.9208689996513,40.6262509996864 -73.9218359997071,40.626190000368 -73.9228059998392,40.6261310001132 -73.9247100005009,40.6260100004106 -73.9266079996838,40.625894999693 -73.9276130000615,40.6258240002425 -73.9273690005605,40.6235620002937 -73.930281999808,40.6233809999746 -73.9300449998048,40.6211779999107 -73.9310160004203,40.6211160001213 -73.9307589995792,40.6187099996102 -73.9306019999377,40.6169219999763 -73.9317310003451,40.6179270000084 -73.9324869997471,40.6174320003203 -73.9332050005796,40.6169699998281 -73.9339170001681,40.6165079997592 -73.93463299998,40.6160479996117 -73.9360570000037,40.6151229997006 -73.9375419995217,40.614164999619 -73.9382539999089,40.6137020003647 -73.9389699997497,40.6132400000189 -73.9396829995198,40.612781999872 -73.9403970005311,40.6123150003368 -73.9411610002263,40.6118200001443 -73.9409110001965,40.6115939996727 -73.9393470001689,40.6101869998799 -73.9408289999988,40.6092299997775 -73.9415469999729,40.608768000327 -73.9423120003226,40.608268999604 -73.9422069996849,40.6075030001698 -73.9417710003292,40.6051830002455 -73.9427689998426,40.6050729996405 -73.9437660004568,40.6049610002649 -73.9446929995747,40.6048629997656 -73.9456200004755,40.6047590001949 -73.9451689994345,40.6023690002416 -73.9460960000035,40.6022700000758 -73.9470590000434,40.6021620003408 -73.9498739997179,40.6018530001017 -73.9508009995891,40.6017490001465 -73.9530370001848,40.601505999754 -73.9539779999661,40.6014010003085 -73.9544319996888,40.6037899998585 -73.9553930002337,40.6036829999092 -73.9563539995488,40.6035789999191 -73.957283000149,40.6034699996204 -73.9568300000152,40.6010869997823 -73.9586830000371,40.6008850001155 -73.9603630000354,40.6006980002166 -73.9625340000995,40.6004609995979 -73.963454999642,40.6003629995978 -73.9645300004704,40.6002420001745 -73.9659039994153,40.60009000024 -73.9654770003369,40.5978340002044 -73.9677770003555,40.5975799999081 -73.9696300001568,40.5973789996414 -73.9705559994585,40.5972740002764 -73.973240000438,40.5969790004077 -73.974082999562,40.5968830001926 -73.974927000311,40.5967939997192 -73.9750390005326,40.5967799997082 -73.9765099998741,40.5966160002163 -73.9785039998925,40.5963960003292 -73.979432000299,40.596291999584 -73.9803580000659,40.596191999673 -73.9812830000949,40.5960879998821 -73.9837219995207,40.5958209998738 -73.9850610000029,40.5956710003071 -73.9850149997313,40.5954129999413 -73.9860190000995,40.594446000247 -73.9879880001117,40.5925529999626 -73.9896209996776,40.5909820003583 -73.9903640005366,40.5914320003098 -73.9915389995072,40.5903910004031 -73.9925580004819,40.5899220004104 -73.9918660003066,40.5884820000385 -73.9914880004978,40.5877999997845 -73.9919019995175,40.5876150002785 -73.992222999917,40.5874539995672 -73.9917570004604,40.5867279996436 -73.9908770005806,40.5858479998081 -73.9900350003569,40.5852110001644 -73.9891499999573,40.5846700000278 -73.9887810003317,40.5843630004159 -73.9885230000712,40.5838799999289 -73.9883579994654,40.5834749997098 -73.9887490003693,40.5828200003488 -73.9895450000144,40.5819329996836 -73.9898580000297,40.5808099996354 -73.9900060004175,40.5806759997177 -73.9897580003155,40.5804990004373 -73.9895349996126,40.5804169996234 -73.9893600005463,40.5802380003383 -73.9890969995898,40.5802050000296 -73.9888560004852,40.5799920001449 -73.988236999879,40.5797040001055 -73.990679000029,40.5800599998469 -74.003058999784,40.582935000136 -74.0041679999188,40.5831929999113 -74.0065779997898,40.5837159999146 -74.0080930002283,40.5839920004014 -74.0094679997886,40.5842349997079 -74.034655999822,40.5886819996982 -74.037876999639,40.5892009995607 -74.0345469999826,40.5762500000565 -74.0350469995765,40.5728499996673 -74.0351529995297,40.5710029995515 -74.0359780003026,40.5565630004024 -74.0362089999521,40.552524000268 -74.036293000377,40.5510420000439 -73.9970869996407,40.5572829997257 -73.9597150001498,40.5630130000411 -73.9592809997377,40.563079000115 -73.9588439997849,40.5631500001707 -73.9523089996969,40.5642079999535 -73.9516699999093,40.5643119996741 -73.9507030003696,40.5644270002061 -73.9450040003789,40.5653130000201 -73.9348939997425,40.566651999679 -73.9333630003872,40.5669289999324 -73.9280700001178,40.5677859999029 -73.9262360005729,40.56807200005 -73.918486999876,40.5692840002033 -73.9049079994696,40.5714069997717 -73.9038709997918,40.5716190002175 -73.9028739994316,40.5716999998718 -73.8905179995133,40.5727049999038 -73.8862920001454,40.5735050000089 -73.885069000335,40.5737490002748 -73.8792219996836,40.5746559997178 -73.8714180003262,40.5785349996553 -73.8692319998112,40.5793420000677 -73.8673740000346,40.5802989999279 -73.8656070005484,40.5812049997923 -73.8594919998235,40.5839380003038 -73.8551059995989,40.5858990003298 -73.8549369998817,40.5859739999724 -73.8535220004819,40.58659199978 -73.8498519994435,40.5886689999415 -73.8473860003418,40.5920280002592 -73.8466799999409,40.5932090004197 -73.8444370004512,40.5958549995643 -73.842017000465,40.598313000192 -73.8358760003549,40.6056370000386 -73.834462999841,40.6071930000957 -73.8342830005467,40.6091860001492 -73.8340539997852,40.6134550004063 -73.833699999887,40.620922000414 -73.8334219996131,40.6267819998926 -73.8333929995081,40.6276739996219 -73.8330410003213,40.6282610000858 -73.8353760000627,40.6303150003992 -73.8362379996044,40.6311109997125 -73.8376519999427,40.6328400000651 -73.8382980001444,40.6334850002293 -73.8429550001712,40.6381399997777 -73.8483379998568,40.643521000043 -73.8549380003515,40.6426499998668 -73.856148000323,40.6491979998363 -73.8566519998428,40.6501290001595 -73.8569620005279,40.6505840004055 -73.858980000272,40.6526749999479 -73.8597549999216,40.6541039997412 -73.8599069996521,40.6542290001779 -73.8604829997785,40.6546589997059 -73.8609639994502,40.6551800000063 -73.8621930001728,40.6568290003663 -73.8624380002398,40.6572579996315 -73.8631710001388,40.6582770003638 -73.8615079997526,40.6590500001084 -73.8612220001895,40.6592210004007 -73.8603600004866,40.659646000285 -73.8593870003202,40.6597730004254 -73.8585139994741,40.6598990000907 -73.8576150004267,40.6601189999191 -73.8580249994701,40.6617210001788 -73.8583699998898,40.6631819999966 -73.8584300003932,40.6634530003134 -73.8575359996474,40.6635979997987 -73.8565910004804,40.6637469996379 -73.8561169998416,40.6638079996689 -73.8556849999277,40.6638669997705 -73.8560629999362,40.6655109998205 -73.8564249996147,40.6670329999823 -73.8568470004283,40.6686029999557 -73.8572820004913,40.6703119996713</coordinates></LinearRing></outerBoundaryIs></Polygon>
  </Placemark>
</Folder>
</Document></kml>
