{"type":"FeatureCollection", "features": [
{"type":"Feature","geometry":{"type":"Polygon","coordinates":[[[-73.27429400005538,42.94365200017706],[-73.27557999940302,42.943657000109305],[-73.31112899979189,42.94380599981049],[-73.31120799940504,42.943806000396535],[-73.32038500031257,42.943846000043244],[-73.32966100011359,42.9438859996494],[-73.33310699978605,42.94390200032694],[-73.33319899957174,42.94390099993648],[-73.3487150001837,42.943966999934744],[-73.35489000034806,42.943992999802546],[-73.3557629999959,42.943997000204405],[-73.36692500011372,42.94404400009051],[-73.368070000511,42.944048999711285],[-73.36815200007497,42.94404700015072],[-73.37455599988164,42.94387099987033],[-73.37480899982585,42.94386500003575],[-73.37959300017799,42.94375400026051],[-73.38023500000023,42.94373900041357],[-73.38018199999007,42.94379500014485],[-73.37988900045582,42.94402999980944],[-73.37954099940109,42.944205000010086],[-73.3791580002898,42.944436999849955],[-73.37886200030454,42.94473299955654],[-73.3786320001531,42.945038000148294],[-73.3785119998592,42.94531900020595],[-73.37849000061503,42.945614999641016],[-73.3785010003999,42.94593599959475],[-73.37855599956413,42.946232000357575],[-73.3787859999833,42.94672099990895],[-73.3790370000268,42.94716200037586],[-73.37936600029722,42.94756199971377],[-73.3796610002895,42.94779499972255],[-73.3799019996467,42.94793099995941],[-73.38017599946393,42.94803499958517],[-73.38053700057301,42.948122999745124],[-73.38101900004746,42.94821200007411],[-73.38148899979639,42.948251999547814],[-73.38177400045952,42.94824400019028],[-73.38205899964409,42.948188000333275],[-73.38237599958977,42.94800300021672],[-73.38267199995362,42.9477790002393],[-73.38286899955503,42.947618999655006],[-73.38314099953165,42.94746100027968],[-73.38337800030351,42.94735200044708],[-73.38379600017302,42.94725299986681],[-73.38412900053576,42.94721200042544],[-73.38443100002107,42.94722200023787],[-73.38481399974317,42.94727300001926],[-73.38526899971326,42.94736499984138],[-73.38579999997312,42.947518999789736],[-73.38619500046212,42.94765900037289],[-73.38685999972637,42.94785199954936],[-73.3873320005759,42.947962999746096],[-73.38769200034395,42.948033999783064],[-73.38810800036056,42.94809499956707],[-73.38856599962354,42.94815600030634],[-73.38889900017728,42.94823699993878],[-73.38911599976313,42.94834000012908],[-73.38931400035214,42.94851099964564],[-73.38943699990938,42.948706000406446],[-73.38951700003857,42.94890399969642],[-73.3895569995044,42.94918299981467],[-73.38946700009116,42.94979399962644],[-73.3895560000378,42.950125000147196],[-73.38969200042044,42.95058699987889],[-73.38992500061543,42.95080199978302],[-73.3907250004491,42.95145799994036],[-73.3921019994656,42.952586000404295],[-73.3934719994141,42.953089999982886],[-73.39359600038053,42.953113000325594],[-73.39514099982115,42.95328799988204],[-73.39734100059661,42.95297599997003],[-73.39807499987818,42.953087999714604],[-73.3993349997763,42.952767999950545],[-73.39971599978786,42.95267199963504],[-73.40003999985994,42.95258900029047],[-73.4013210005169,42.95226300025842],[-73.40277500032815,42.951467000126634],[-73.40310899963158,42.95128500013571],[-73.40322499958786,42.95124200026928],[-73.40384200047495,42.95147699991078],[-73.40388400038658,42.95161499973644],[-73.4039199994075,42.95175699957912],[-73.40457100045715,42.9523219996751],[-73.40478999991826,42.95272100023405],[-73.40480300013701,42.95320499993161],[-73.40445099981298,42.95417300029509],[-73.40410600036839,42.954622999724336],[-73.40398600010587,42.95487099989381],[-73.4045080000465,42.955489999891704],[-73.40491600030475,42.955798000042485],[-73.4055840005154,42.95611900001379],[-73.40624900022476,42.956296999625636],[-73.4082130002835,42.95693199967547],[-73.40981400000182,42.95713799959769],[-73.4121030005202,42.95738300025107],[-73.41389799984469,42.957056000347215],[-73.41634899947238,42.95667099956913],[-73.41783700049157,42.95608699956974],[-73.41980600018617,42.955357000240994],[-73.42065899979066,42.95490299971625],[-73.4212279998003,42.95493399965121],[-73.42254300012746,42.95521299997508],[-73.42387999992197,42.95558799958581],[-73.42492099950691,42.95598899997555],[-73.4254170001029,42.95709199955436],[-73.42606600038316,42.957847999753],[-73.42684500021409,42.95851500032965],[-73.42829100013469,42.95853499999602],[-73.4306230002162,42.958649999868925],[-73.43269199969244,42.95843500008287],[-73.43373100011799,42.95800499992306],[-73.43503199947651,42.95715500026569],[-73.43604899941285,42.95679799963621],[-73.43737100009278,42.95586000020424],[-73.43949000008847,42.954315000382365],[-73.4406159996249,42.95368300033126],[-73.44168799940516,42.95330900030594],[-73.44300100018292,42.95289499970692],[-73.44475100034374,42.952495000006756],[-73.44635999980615,42.95216800015195],[-73.44744299999257,42.95197200019725],[-73.44848200023867,42.9514610000042],[-73.44926899973494,42.951217000168924],[-73.44959600034927,42.950748999739695],[-73.44958200002891,42.94990299973414],[-73.44941399958493,42.94872699958271],[-73.44937800048511,42.947758999576315],[-73.44926500012716,42.946800999713595],[-73.4490870004037,42.946018999987594],[-73.44932599976619,42.94531700001274],[-73.44987199970329,42.94488899998742],[-73.4505929998485,42.94458099994489],[-73.45150199998609,42.94453799978937],[-73.45242199955898,42.944574999628614],[-73.45559700015124,42.944671000235815],[-73.45881699953793,42.94472700009482],[-73.46101800055159,42.944752999557494],[-73.46229900046878,42.944806000317975],[-73.46319600002002,42.94468199958482],[-73.46386300011712,42.94458300031823],[-73.46446400005362,42.94425900027618],[-73.46500100057354,42.944185000142014],[-73.46511300048765,42.944183999801126],[-73.46687299972677,42.94418000010361],[-73.46709500001234,42.94417899992989],[-73.46952200001176,42.94417200036992],[-73.469856999558,42.94416799983111],[-73.47281700054495,42.944130000416976],[-73.48776600010167,42.94391800005802],[-73.487926999909,42.94391600032822],[-73.49600399946375,42.94379399968817],[-73.49622000030357,42.943791000119255],[-73.49666099993603,42.943778000437945],[-73.49882100032964,42.943711999995244],[-73.49955800036342,42.94368900008907],[-73.50377399949707,42.94362300040132],[-73.50425400057678,42.94361600045352],[-73.51023700023153,42.94348899979892],[-73.51375300005435,42.94342299960244],[-73.51732299959933,42.94335599972185],[-73.51954400035045,42.94331499968294],[-73.51988600006229,42.94330899989247],[-73.52497999948218,42.94321400037191],[-73.52761800011754,42.94316200006757],[-73.53646299993703,42.94298799967897],[-73.54020599940918,42.94291500015108],[-73.54103199946684,42.942900000071845],[-73.54149299996668,42.94289000009374],[-73.54201999959841,42.94287999978225],[-73.54683200060371,42.94278600025282],[-73.55979899956209,42.9425329999494],[-73.55987000060081,42.94253199963498],[-73.56226799961604,42.94248500032629],[-73.57439500056194,42.94224799996545],[-73.57727300020784,42.9422109998872],[-73.58501499984857,42.942112999992744],[-73.58734800038076,42.94208399956617],[-73.59480600026905,42.94191299989171],[-73.59802799966927,42.94183899987695],[-73.60017500010008,42.94179000040999],[-73.61459299983215,42.94145900013131],[-73.6245609995842,42.941222000044164],[-73.62993399996664,42.941223999948896],[-73.63201399992516,42.941248000072484],[-73.63315000056981,42.941256999637766],[-73.63546300019132,42.9412900003995],[-73.63494800059658,42.941614999962816],[-73.63400599989865,42.942336999897144],[-73.63323799969818,42.943179000228334],[-73.63230500033158,42.94437899991997],[-73.63124200049211,42.94632200002542],[-73.63105000047028,42.947009999805154],[-73.63027599980747,42.948677999624465],[-73.62965300013754,42.9502650000535],[-73.62932000058886,42.95150299993958],[-73.62900599955542,42.95365099977857],[-73.62888199949607,42.95540499974754],[-73.62887899976994,42.95545699994452],[-73.62870799987782,42.9591509995925],[-73.62907099977564,42.9609700002843],[-73.62978600042642,42.962606999677135],[-73.63037300061362,42.964794999572824],[-73.63146700034837,42.96973899957751],[-73.63112399948352,42.97062000041567],[-73.63074500010889,42.971132999958186],[-73.63014100046064,42.97163499997401],[-73.62942499993682,42.97214699991594],[-73.62882200024981,42.97249399996617],[-73.6278930001687,42.972959000408636],[-73.62634999990183,42.97366100044614],[-73.62545899994973,42.974024999978006],[-73.62456100018953,42.97425999993775],[-73.6164469998203,42.97834600006466],[-73.61055000013768,42.98123700019414],[-73.61033399952078,42.98134300034693],[-73.60928200049065,42.98224100014837],[-73.60885699985838,42.98283400039673],[-73.60869099969152,42.983246999601064],[-73.60857199979714,42.98385200028971],[-73.60789500021063,42.99162799961475],[-73.60759000024107,42.99479499991569],[-73.6070030003113,42.99809399999468],[-73.60669900024467,42.999241000429926],[-73.60586300022902,43.00007599983463],[-73.60512400043106,43.001377999639885],[-73.60400200022963,43.00251899955926],[-73.60182599941676,43.004269000296986],[-73.5999920000905,43.00544800030505],[-73.59870599969771,43.00641900040074],[-73.5971129998389,43.007622999781425],[-73.59624300013088,43.0088839997814],[-73.59532699963029,43.01061200035743],[-73.59444300027634,43.01266199980839],[-73.59370999989605,43.014175999714645],[-73.59363500026873,43.0143299996736],[-73.59501799999667,43.01428800010962],[-73.59517899942803,43.01429600009036],[-73.59816699960778,43.0144540001043],[-73.59819199993387,43.01437599995917],[-73.61750400056123,43.014464000147534],[-73.61862999975638,43.01444899954914],[-73.62196099946514,43.01449099990506],[-73.62370699954116,43.01449800002396],[-73.62456099956404,43.01450900006452],[-73.64578600045904,43.01489100017995],[-73.64726099953421,43.01491699967225],[-73.65034000022558,43.01497699981633],[-73.65193399986713,43.014998999919634],[-73.65591499996371,43.01506899956054],[-73.65586399949922,43.01612100013117],[-73.66530700051598,43.01608999991122],[-73.66983499982045,43.016278999790956],[-73.67197699958626,43.01631799956695],[-73.67413199971624,43.0162999999278],[-73.67749300048564,43.01629800006041],[-73.68076799985593,43.0163859999403],[-73.68133099941086,43.01638299963089],[-73.68174200001545,43.016391999731724],[-73.68188100005764,43.01640900017166],[-73.68211500012804,43.016456999811986],[-73.69229599958878,43.01638099998529],[-73.7023949996524,43.01644700038019],[-73.71071799984095,43.016522000074005],[-73.72086200008626,43.01669000045031],[-73.72165800033602,43.016706000109686],[-73.72219099988637,43.01670700024199],[-73.72288300002066,43.016706999864184],[-73.72336899987793,43.01670800036261],[-73.72380500018252,43.016713000390595],[-73.72389600028774,43.01671199989952],[-73.72481599991983,43.01670799973721],[-73.72753000049913,43.01669900032194],[-73.7277210003721,43.01670699969596],[-73.74370300031859,43.01670900005525],[-73.74349599978042,43.01711399966028],[-73.74252500052037,43.018768000266135],[-73.74129400029025,43.02008300016605],[-73.74003800025952,43.022008999970126],[-73.73928499962308,43.023792000169706],[-73.7388730000805,43.02522200007743],[-73.73870400058297,43.0262740002409],[-73.73829799998686,43.02654699956079],[-73.7342719998767,43.02906100018974],[-73.73062899983624,43.03143099976842],[-73.72831299973983,43.033097000368095],[-73.72711200007018,43.03490999997762],[-73.72552699963313,43.038381000111286],[-73.72464400030616,43.040314000241985],[-73.72445899948771,43.04084700036183],[-73.72417700057332,43.04166299978245],[-73.72390799978875,43.0428920002693],[-73.72404600043836,43.04364000021173],[-73.72424800056251,43.04397599978999],[-73.72445400056844,43.04433000018381],[-73.72564599950142,43.04565500003298],[-73.72697200011808,43.04737999994444],[-73.7272139997398,43.04768200003125],[-73.72742499957286,43.04863800013591],[-73.72721499950158,43.05049199957976],[-73.72665300046981,43.05247100037534],[-73.72601300048348,43.053152999905464],[-73.72533199983351,43.053394999657684],[-73.72456499981443,43.053483999789066],[-73.72350299965724,43.05344099969817],[-73.72257099973326,43.05360799975673],[-73.72180099954736,43.05397099963453],[-73.72116299942418,43.05428799966211],[-73.7200809995535,43.05506100040226],[-73.7184260001519,43.05686199978286],[-73.7181419995998,43.05716100042804],[-73.71567599971134,43.059831999925656],[-73.71425699946454,43.06134699972055],[-73.71306899958141,43.06238100033355],[-73.71105700035243,43.06416799972995],[-73.70999199973063,43.064879999679476],[-73.70905900014931,43.065359999929164],[-73.70775499938172,43.065871000313244],[-73.70663500012567,43.06649499981978],[-73.70572300027217,43.06724800039843],[-73.70507099974874,43.068258999769995],[-73.70434500048256,43.069037000388974],[-73.7027310001384,43.06991700042677],[-73.70229099966386,43.0704219998812],[-73.70224399982646,43.07099199956973],[-73.70230400011647,43.07197300041937],[-73.7021930004325,43.072254000163184],[-73.70185200026398,43.07247799966383],[-73.70161099959175,43.07254199984491],[-73.69915600025128,43.07301699998763],[-73.69824699950017,43.073263999713326],[-73.6972600001371,43.07360699955574],[-73.69629699957372,43.07398500035519],[-73.696145000423,43.07404400042841],[-73.695779000089,43.074189000154895],[-73.69552599951669,43.074263000015804],[-73.69508399948641,43.074527999915496],[-73.69502300030021,43.07457199960726],[-73.69504700034467,43.07479700011128],[-73.69587700008654,43.07783100043353],[-73.69605800041373,43.078883000313546],[-73.6962170000049,43.07981400001831],[-73.69772399963537,43.08800299971204],[-73.69783800044863,43.08858399959647],[-73.69943099944636,43.09742299978295],[-73.69968999974283,43.0988240001768],[-73.70023200042908,43.10222899995327],[-73.70028499940565,43.10245700042342],[-73.70006900039111,43.10247299996962],[-73.69052600058136,43.103409999989644],[-73.68909200042592,43.10355400023336],[-73.68578300054908,43.10382900007071],[-73.68463899992658,43.10394000041952],[-73.67254599989965,43.10512499992006],[-73.66770700022765,43.10557499969807],[-73.66809100028064,43.1076909997834],[-73.66900099970916,43.11275399963371],[-73.66925600036606,43.1140559998081],[-73.66932000052078,43.114570000323454],[-73.66933800052102,43.11477700005739],[-73.66947500041172,43.11596100008789],[-73.6709839996643,43.124040999765114],[-73.67117399985472,43.125060000304195],[-73.67310799959277,43.13503699980655],[-73.67328199978131,43.136037999998486],[-73.6733409999199,43.13636699968338],[-73.67556899984605,43.1491550002137],[-73.67569199963206,43.14919799971716],[-73.6768719994284,43.14960199976898],[-73.67704799965901,43.149679999724064],[-73.67731399990585,43.14982500030824],[-73.67794899996846,43.15015100031377],[-73.67874200034072,43.150616999646374],[-73.67937199988806,43.15096399955997],[-73.67960699996304,43.15112700019973],[-73.67982100057618,43.151313000035046],[-73.68006099946538,43.15157500008894],[-73.68143899970242,43.153156000219354],[-73.68179800023184,43.15298299989511],[-73.68311000053195,43.152440999905814],[-73.68344999946605,43.15229999981859],[-73.68385999992194,43.15211599985672],[-73.68441300061698,43.151801999778336],[-73.68494200049568,43.15142200034573],[-73.68524200028082,43.15116300040503],[-73.68560000031984,43.15078899985918],[-73.68630499940195,43.1499960003839],[-73.68718800028606,43.149027000146624],[-73.68736999948531,43.1488430001471],[-73.68783399978982,43.148441000071216],[-73.68825099952345,43.148107999762566],[-73.68891000031334,43.147633999858506],[-73.68933400044826,43.14737899975033],[-73.69027799976296,43.14688100034911],[-73.691344000349,43.146294000434644],[-73.69165499965692,43.14610399967685],[-73.69220400025571,43.14570900033507],[-73.69264299967152,43.14531200021634],[-73.69294000028827,43.144999999573606],[-73.69323099978956,43.14467099984165],[-73.69417000027096,43.14369700036116],[-73.69446199997039,43.14341400037052],[-73.69583300011912,43.14221000026091],[-73.69731299967007,43.14092800023289],[-73.69744100008994,43.140818999567685],[-73.6983960000302,43.13999099968969],[-73.69863499955039,43.139783000189055],[-73.69880999970458,43.13986599984331],[-73.69899100044124,43.13990599971877],[-73.69965599972598,43.14008399969465],[-73.69986099965841,43.14010600040766],[-73.70021000032582,43.14016100032843],[-73.7008520004881,43.14019400016513],[-73.70252500044728,43.14020600045137],[-73.70428900004671,43.140246000382135],[-73.70529600030933,43.140282999663356],[-73.70606600020281,43.14029499969794],[-73.70622299982796,43.14029200010019],[-73.70643800049356,43.14026999972664],[-73.70695700014768,43.1402009998838],[-73.70744499953787,43.140093000096094],[-73.70798900050315,43.139997999565956],[-73.70811299980335,43.13996800043263],[-73.70819000036033,43.14053100016276],[-73.70826200040429,43.14083900002328],[-73.7083280000834,43.1410179998611],[-73.70839599980712,43.14114599971912],[-73.70856600003873,43.141404999898555],[-73.70894799968849,43.14203599995632],[-73.70906099987369,43.14226899972841],[-73.70914399941566,43.14247099982583],[-73.70933600045926,43.14314299967917],[-73.70944899993675,43.14363800012186],[-73.70961000000261,43.14458300027222],[-73.70969299980513,43.14529400012593],[-73.70975600013016,43.1456260002213],[-73.70994299970047,43.14642299970326],[-73.71018400010267,43.14739100008175],[-73.71024100051736,43.1475560002154],[-73.71032600038934,43.1477589997574],[-73.71115299948649,43.14923699968013],[-73.71155100048665,43.14993899980275],[-73.71923800018939,43.149142999733705],[-73.72227800037368,43.14885100022615],[-73.72210600019457,43.14811199964375],[-73.72203900006016,43.147829000439884],[-73.72191599968536,43.1472999999518],[-73.72182899952554,43.14688200005834],[-73.7212230002822,43.14107000038604],[-73.72643999939571,43.140510999723475],[-73.72734599978014,43.14513400036082],[-73.72764899971632,43.146433999747394],[-73.73000399992993,43.146731000065884],[-73.72992299962468,43.146246000307414],[-73.72987000042738,43.14577100040541],[-73.7312239994842,43.14566400018818],[-73.73153699941773,43.14562999974977],[-73.73184300034248,43.14555299990036],[-73.73208399961705,43.1454349998533],[-73.73489899939429,43.143605999916204],[-73.73515999962227,43.143804999570776],[-73.73527700037435,43.14386999964367],[-73.73540100036519,43.14391599957121],[-73.73564200020196,43.14397500041247],[-73.73680299988119,43.14419699979945],[-73.73746700044917,43.144334999668054],[-73.73880700030713,43.14458199976502],[-73.73957200033958,43.144732999634215],[-73.73974900002531,43.14479700018232],[-73.73986600020787,43.144852000318],[-73.7400289994079,43.14499200000958],[-73.74010199975022,43.14516399984387],[-73.74012900024469,43.14525499990031],[-73.74016100003814,43.14552100043027],[-73.74020000033305,43.14564099992787],[-73.74029900010103,43.14576600035819],[-73.7405200005356,43.145922000020846],[-73.74079500052608,43.146070000427024],[-73.74117100013716,43.145621000335225],[-73.7420160003102,43.1447019997609],[-73.74277499985898,43.14395900033685],[-73.74353600059335,43.14319699976376],[-73.74438400018212,43.14230000008403],[-73.74493100033698,43.14183599987626],[-73.74608700037341,43.14087499965565],[-73.74637200029979,43.14062399976796],[-73.74718000016207,43.13995500034206],[-73.74753200020378,43.13968599956309],[-73.74782300054477,43.13945299999891],[-73.74860199963095,43.13887000035327],[-73.75090100055037,43.137039999731],[-73.75150499977727,43.13657299964705],[-73.75224700041063,43.13696699960394],[-73.75256200034922,43.13713299981058],[-73.75317899991435,43.13742700004501],[-73.75340100021386,43.13751900011617],[-73.75311799987429,43.13804899975802],[-73.75306700058512,43.1381610003404],[-73.7530499998378,43.13827299957173],[-73.75304999980794,43.138361999619875],[-73.75308499999498,43.138453999718934],[-73.75315699950427,43.13857999969458],[-73.7534500003594,43.138967000261246],[-73.75355900049641,43.138938000414555],[-73.75378999997713,43.138909000365246],[-73.75399299965117,43.13890499999113],[-73.75545200041608,43.13900200004388],[-73.75564800009992,43.13777099995998],[-73.75613700005177,43.13780099958515],[-73.75799700006633,43.13795500035989],[-73.75913599941728,43.13803899968949],[-73.76031600009581,43.13809400000619],[-73.76111499951398,43.138138999979944],[-73.76162499971652,43.138195000310546],[-73.76199799957662,43.13824500007118],[-73.76191799988612,43.13860299992485],[-73.76199000020586,43.13919300005344],[-73.76202300061226,43.13930600003019],[-73.76207199955958,43.139404999664364],[-73.76212500008751,43.13948399984537],[-73.7622620000518,43.13963100035561],[-73.76233400057995,43.139686999905734],[-73.7624259995836,43.13974400005691],[-73.76257900021585,43.13981299960828],[-73.76272599954385,43.13986400023193],[-73.76300599962225,43.139943000053286],[-73.76398999948366,43.14019600022869],[-73.76417699941807,43.13961399971431],[-73.76446000036456,43.1385670002642],[-73.76474199963148,43.13860899988439],[-73.765397999773,43.13871400022426],[-73.76767199943116,43.13901799998222],[-73.76826799979543,43.13910699979818],[-73.76865699953767,43.138310999684904],[-73.76873800037257,43.13837599957408],[-73.76988499966427,43.13895299972053],[-73.7703769996233,43.139175999785714],[-73.77060999978369,43.13924599969304],[-73.7721340000592,43.13944999971597],[-73.77238999988148,43.139498000252324],[-73.77404400045216,43.139956000175175],[-73.77430400052909,43.13999900024678],[-73.77801200010175,43.140356000234746],[-73.7775090000306,43.137210999667836],[-73.7764030003545,43.13028199983394],[-73.77545100028804,43.12417500030978],[-73.77484999980202,43.12031599970281],[-73.77371199996625,43.113016000383624],[-73.77352000020966,43.1118519996805],[-73.77338400015854,43.11104099982724],[-73.77308200018797,43.109031000304576],[-73.77239300002307,43.104976000040246],[-73.77241399979661,43.10467499999866],[-73.77240999942318,43.102721999899124],[-73.77159100013705,43.102703999569684],[-73.77087600050329,43.1026929997944],[-73.77085900039364,43.10239300005418],[-73.77090299942095,43.10162000009913],[-73.77087499973118,43.10157299957259],[-73.77084000024053,43.100109999791634],[-73.77079300047073,43.0987090001957],[-73.7709799995169,43.09869100038878],[-73.77075499990842,43.0967189995762],[-73.77067300014912,43.09590200029719],[-73.77073600014288,43.09589800008115],[-73.77197900049786,43.095799999928715],[-73.7728100004942,43.09572999971257],[-73.77307699982234,43.09570600002755],[-73.77606700029665,43.09535800041894],[-73.77847500039016,43.09507899969648],[-73.77995399944051,43.094953000395115],[-73.77979899970259,43.095282999726024],[-73.77939100018342,43.09626700030805],[-73.77926499944274,43.096566000310204],[-73.77912200024704,43.0969330004066],[-73.77878000032946,43.097786999911264],[-73.77864200024109,43.09811400024836],[-73.77798300048121,43.09963600040948],[-73.77779599951303,43.10006700028348],[-73.77742900024947,43.10084600012839],[-73.77707299976616,43.10150400000498],[-73.77681899950593,43.10195199980957],[-73.77651300035494,43.10248999963881],[-73.77635000048129,43.10299599961239],[-73.77557500013621,43.1044000003624],[-73.77558399942133,43.107881999702684],[-73.77876899996978,43.10757300037012],[-73.77895699985888,43.10747400025358],[-73.78079099954817,43.106156999916486],[-73.78124800028506,43.10623599984787],[-73.78198299999976,43.10579000003546],[-73.78510000039243,43.103779999797034],[-73.78567999953606,43.103492000227185],[-73.7868689999238,43.10299800017463],[-73.78815599970507,43.102127000034365],[-73.78982800016158,43.1009990000385],[-73.79011999995181,43.10124800007339],[-73.79185299959563,43.09993199986662],[-73.79135799969298,43.099577000445024],[-73.79098600037821,43.09928399999978],[-73.79068900001202,43.09903400014396],[-73.79047199942553,43.098785000123215],[-73.79033800025881,43.09855900023208],[-73.790210000119,43.098282999629596],[-73.78931600014496,43.09508199969657],[-73.78904400038084,43.09446899988109],[-73.78900399977731,43.09426900034155],[-73.79258199958726,43.09399799967325],[-73.79419300058058,43.09372899977998],[-73.79571299986195,43.093477000171205],[-73.79605099972561,43.0935359998421],[-73.79634600050966,43.09358399974936],[-73.79681500027748,43.09358500018896],[-73.79841199986473,43.09349599958856],[-73.79932600054975,43.09342000026161],[-73.80064700015707,43.0932859995596],[-73.80177800033242,43.09319100010819],[-73.80248799945429,43.093132999809455],[-73.80289399945943,43.09309600000736],[-73.80851099947394,43.09267800035847],[-73.80967899992908,43.09256300038053],[-73.81347199964381,43.09221399963114],[-73.81525200032603,43.09206199962194],[-73.81672900059307,43.09191699981998],[-73.81687300022588,43.091915000450946],[-73.81722400050174,43.09187300017993],[-73.81780499951503,43.0918190001671],[-73.82167800008187,43.091485000099794],[-73.82311499972249,43.091386999935885],[-73.8241959996798,43.0912749998799],[-73.8244390000149,43.09123100039576],[-73.82688000031003,43.09090899985309],[-73.82736800042461,43.0908700001529],[-73.82773400041644,43.090835999643424],[-73.8290919999047,43.090695999828014],[-73.83040799991937,43.090533999731356],[-73.8305379998327,43.0905409997496],[-73.8307480004052,43.09053500018092],[-73.83089800047985,43.09054399973118],[-73.8311599999876,43.09057599975735],[-73.8314339994942,43.090528999993744],[-73.83327799999455,43.09038199957502],[-73.83711399970937,43.09011300009219],[-73.83727499941948,43.09008000012982],[-73.83755200009338,43.09004000033407],[-73.83911499971845,43.08978999980432],[-73.83923300017247,43.089875000336654],[-73.83933699946712,43.089902999572374],[-73.84094199999315,43.08976299960121],[-73.84104200046146,43.089754000087346],[-73.84123899988793,43.08975599982751],[-73.84140299981898,43.08974499980205],[-73.84158200020727,43.0897280002166],[-73.84195200038019,43.08970700034977],[-73.84240899983112,43.08967799983854],[-73.8447019995493,43.089471000243385],[-73.84569299994791,43.08937899993323],[-73.8461510003884,43.08934600002207],[-73.84651200029938,43.08930799978412],[-73.84787600053188,43.08917200023646],[-73.84881299966156,43.08907499963861],[-73.85205099986057,43.08879599962176],[-73.86073199992688,43.087942000220664],[-73.8621129996067,43.08782999971525],[-73.86582900003258,43.08763000037525],[-73.86606199972503,43.0875890000554],[-73.8671189998648,43.08749200031795],[-73.86926500055392,43.08735300022376],[-73.87136399969015,43.08720199977382],[-73.87238000006502,43.087174000350736],[-73.87277299976196,43.087181999597526],[-73.8729450002802,43.08721199973376],[-73.87329200040139,43.08719299964216],[-73.87393300049213,43.08712700006759],[-73.87476899997235,43.0870149999855],[-73.87917899988963,43.08642799979827],[-73.88587999955665,43.085824999886526],[-73.88922499943483,43.08552900020409],[-73.89721600015605,43.0848420003619],[-73.89764199949198,43.08481800026229],[-73.91374599993533,43.0834969997427],[-73.92276599973782,43.08261600013296],[-73.92370299950794,43.08257100012144],[-73.92666499957427,43.082414000270035],[-73.92684399949201,43.08238299970216],[-73.92796799997474,43.082303999783015],[-73.9290069996568,43.082246000301986],[-73.93003600036161,43.08217399979215],[-73.93403900029422,43.08175400024666],[-73.93544600020448,43.08163400006329],[-73.93604099996368,43.0816029996383],[-73.93672999938404,43.081565000290155],[-73.93797399953293,43.081439000429995],[-73.93831899983148,43.08137400014063],[-73.94392099991504,43.08092600012768],[-73.9448769997908,43.08084000015182],[-73.94969599956197,43.08040900018334],[-73.9598300004331,43.07943799961477],[-73.96063100040547,43.07938600008503],[-73.96479700056805,43.079125999906665],[-73.96865200032038,43.07881600023688],[-73.96957700048416,43.07873599961791],[-73.97905900023132,43.07791300028326],[-73.98686300048882,43.07716999977538],[-73.99110800028585,43.076905999816404],[-73.99958499941523,43.07611299974707],[-74.00367499993416,43.075797000151354],[-74.00661799949539,43.07550799992933],[-74.00931199993236,43.07527999980357],[-74.01815400027839,43.074592999596746],[-74.02713699985269,43.07374199979475],[-74.04464799943167,43.07228100003264],[-74.0538900003676,43.07148900017895],[-74.06902999973981,43.070234000262374],[-74.07147400039992,43.07000599978097],[-74.0775909997274,43.069505000278866],[-74.08011500012782,43.06932300042988],[-74.0938469995773,43.0681440001679],[-74.10071999958346,43.067641000155945],[-74.11061999944489,43.066753000422224],[-74.11031800039733,43.06486799961607],[-74.10993600035744,43.06248900035162],[-74.1099139998405,43.06235600040563],[-74.10955599972863,43.06011600000551],[-74.10915199961663,43.05755300035185],[-74.10806199997984,43.05062899971626],[-74.10805599948425,43.05059400029384],[-74.10673700041852,43.04221900010808],[-74.10654299994025,43.04098599956055],[-74.10598300042109,43.037430000209675],[-74.1058999996345,43.03690699955013],[-74.10519599990667,43.032436000321226],[-74.10518099975556,43.0323379999979],[-74.10489900046875,43.03054500010636],[-74.10491600016474,43.02888799957454],[-74.1038060003348,43.022609999653426],[-74.10368199955988,43.02190699960846],[-74.10347399962436,43.02088700002921],[-74.10335399990744,43.020293000042265],[-74.1031600001743,43.01934699969006],[-74.10272399994102,43.01637999958221],[-74.10270499973905,43.01624799960341],[-74.10252400008382,43.01501499973577],[-74.10245900028384,43.01461400032366],[-74.10233000055017,43.013826000205015],[-74.10224099990502,43.01296399992246],[-74.10222199944923,43.01278700004211],[-74.10202999982631,43.011771000276575],[-74.10205999966573,43.011558000114015],[-74.1018619995956,43.01091799956651],[-74.10176099949742,43.010385999551204],[-74.10175100043261,43.01032299956756],[-74.10139100029598,43.00797900028433],[-74.10114800027581,43.00635600020533],[-74.10095699992584,43.00507800034369],[-74.10077500052886,43.003853999790444],[-74.10021100052681,43.000074000365565],[-74.09961899968005,42.99628599968885],[-74.09943799991112,42.99546199970408],[-74.09929100022086,42.99451899992483],[-74.09927899950303,42.99443900034085],[-74.09810399945079,42.98688399982249],[-74.09808300034547,42.9867739999827],[-74.09746699963424,42.98293400007497],[-74.10497799996246,42.9828469995895],[-74.10558099993746,42.982898999774534],[-74.10599600017682,42.98289700027469],[-74.1124789997263,42.9828180000137],[-74.1216050005288,42.982851000165645],[-74.12457299960487,42.98283999988907],[-74.13032100017953,42.982817000126815],[-74.13211900015087,42.982837000203865],[-74.14207699953563,42.98298699980486],[-74.1423020001008,42.982994999566564],[-74.14334599984238,42.983034000072806],[-74.14357100056912,42.98303300040072],[-74.14379999968907,42.98302899999946],[-74.14534199955104,42.98305399997706],[-74.14623799969598,42.98307000011016],[-74.14892100043704,42.983059999888795],[-74.14894199940973,42.98306099980668],[-74.15047500015156,42.98311500043217],[-74.16164199968136,42.9832479998707],[-74.16262899981915,42.98325900008958],[-74.16294999970987,42.98326299965033],[-74.16655299962068,42.983166999876104],[-74.16693400056958,42.9833080002315],[-74.17042099990275,42.983348999752],[-74.17106299946003,42.98327199972776],[-74.17255699960465,42.983385000406365],[-74.18039500055166,42.98344499989433],[-74.1853730004043,42.983375000361846],[-74.1855600003459,42.983373999757454],[-74.18819399991993,42.9833519996698],[-74.19029499952279,42.983377999915454],[-74.2068109994375,42.983578000265496],[-74.21116899953839,42.983621999911286],[-74.21348399968606,42.983625999801575],[-74.2263369996386,42.983738000248145],[-74.23232999995443,42.98382299992849],[-74.23238299991128,42.98382299969277],[-74.24710699996389,42.98398099996569],[-74.24980700026889,42.98405100035784],[-74.25358100007728,42.98412800012712],[-74.26165500052505,42.98423599984138],[-74.26859199999869,42.98432200040695],[-74.27197799975794,42.98437300006848],[-74.27645199974599,42.984409000259255],[-74.27668900035907,42.984404999740526],[-74.28027500060468,42.98431400013534],[-74.28088500060878,42.98439899964064],[-74.285932999831,42.984415000134064],[-74.28613599967748,42.98441599986678],[-74.28794900014138,42.98440999979687],[-74.28930399957815,42.98441500036741],[-74.28919300060912,42.98372799990755],[-74.28911199984077,42.98324400040693],[-74.28893100002219,42.98218700036205],[-74.28869899992709,42.98071999992792],[-74.2885869998141,42.98026200021387],[-74.28855999939971,42.979800000070234],[-74.28737099987971,42.971947000112046],[-74.28654400042629,42.96678600025723],[-74.28626300025815,42.96546199993792],[-74.28532499982015,42.95862900029581],[-74.2852959999354,42.958448000321745],[-74.28520799972503,42.95782999955207],[-74.28506399939522,42.9574220000813],[-74.2850359999226,42.957292999939405],[-74.28503799955533,42.95697499977507],[-74.285032999475,42.95685400023441],[-74.28488500017392,42.9558969997644],[-74.28474599973005,42.955084000068155],[-74.28470100023773,42.95476500009741],[-74.28401600035437,42.949924999841926],[-74.28385999998928,42.94856399972104],[-74.28350799995698,42.94767499966819],[-74.28395200015939,42.94737400009423],[-74.28614900022129,42.94573100021066],[-74.28691500024614,42.945733999726905],[-74.2879649996048,42.944971999814925],[-74.28837199945559,42.94477400013182],[-74.29141100024289,42.94331499955528],[-74.29292800026683,42.941667000196595],[-74.29217799970344,42.941244000046346],[-74.29147799990847,42.94098200016058],[-74.29054799968911,42.940571999574246],[-74.28987400048094,42.940346000443],[-74.28878799956739,42.9401140000966],[-74.28807100019901,42.93990399994779],[-74.28731100034992,42.93973400035248],[-74.28633900015627,42.939575000412574],[-74.28541799952241,42.93952200026096],[-74.28446599988952,42.93937299960967],[-74.28374900056644,42.93918699988319],[-74.28270600013903,42.93885000028219],[-74.2819680004012,42.9384840000277],[-74.28186100020224,42.93842499983254],[-74.2813949996826,42.938037000446734],[-74.28090299971544,42.93755400002068],[-74.28086800048014,42.93738699960968],[-74.28080700037238,42.93728800021461],[-74.28070799973852,42.93702900006179],[-74.28052000016949,42.93678399996722],[-74.28026599972613,42.93638399968174],[-74.27992000053135,42.93585299959007],[-74.27955300018387,42.935073000176445],[-74.27923999948845,42.93439399988412],[-74.27918799956417,42.93427900008196],[-74.27914700025951,42.93408299983743],[-74.27902700019571,42.93363399963132],[-74.27890600047292,42.93311400002019],[-74.27868399973894,42.93258499986517],[-74.27859000029783,42.932234999794204],[-74.27835400029248,42.931667999936316],[-74.2782869999319,42.93147800030474],[-74.27813100025364,42.93098499977769],[-74.27807299939514,42.93030599980478],[-74.27821399990623,42.929793999837976],[-74.27831800025992,42.92922699977301],[-74.27850800058997,42.92885400017015],[-74.27876099960922,42.92846200007572],[-74.27904900019611,42.928198999805886],[-74.27961200009891,42.92788399959391],[-74.28005899941972,42.92782500038045],[-74.28095199960259,42.927806000287134],[-74.2818689999253,42.92788999973838],[-74.28270999953156,42.928018000195046],[-74.28332599996925,42.92818199975101],[-74.28376999941955,42.928324999647415],[-74.28422699947028,42.92841399957392],[-74.28459999949861,42.92836300005513],[-74.28501100035965,42.92824699975519],[-74.2854610001184,42.92803200013355],[-74.28579700055779,42.92800300037096],[-74.28659200036594,42.92780899964106],[-74.2874869994925,42.927587999745384],[-74.28806399952441,42.927380000130995],[-74.28874699956904,42.926887999723256],[-74.28897399971483,42.92668500010781],[-74.28918300006225,42.92638200038039],[-74.28919899939885,42.925903000221496],[-74.28921800051882,42.92538500021438],[-74.28902699941763,42.92499799984059],[-74.28895700019636,42.924227999556365],[-74.28871199955039,42.92345500008641],[-74.28836599972858,42.92282000032158],[-74.28809600002081,42.922240000167534],[-74.28769800033852,42.92186099961516],[-74.28728599939014,42.92155499999117],[-74.28703700029111,42.92140700029502],[-74.28693799980073,42.92121499963343],[-74.28671700050303,42.920653000049036],[-74.28646999951148,42.920166000428],[-74.28617399981007,42.91947600013643],[-74.28604100010183,42.918961000044085],[-74.28599699944877,42.91869799987155],[-74.28599700015387,42.91824599991137],[-74.28624899958983,42.91772299964975],[-74.2863250001694,42.91765200036451],[-74.28630300039981,42.917462999605206],[-74.28636800059853,42.916802000350124],[-74.28641099974494,42.91604999986185],[-74.28668100055226,42.915108999598445],[-74.28673799990631,42.914000000229066],[-74.28658100047485,42.913366000445336],[-74.28593599976125,42.91261899973703],[-74.28516100020514,42.912182000015086],[-74.28433300010782,42.91196499967399],[-74.28343099956058,42.91178499980069],[-74.28226200006331,42.91170399970527],[-74.28147999969865,42.91177299959534],[-74.28058500028969,42.91178400033635],[-74.2787029999305,42.911981000314825],[-74.27801099997252,42.91205399972203],[-74.27686500060157,42.912120000010376],[-74.27579600030016,42.912066999792685],[-74.2749470004886,42.91216000002369],[-74.27390800044438,42.911919999607605],[-74.27305100036276,42.91133999984643],[-74.27296599990903,42.910900000213424],[-74.2723680000515,42.91041100003702],[-74.27192200004198,42.909839000145034],[-74.27148800032361,42.909267000092505],[-74.27119299983646,42.908650000157735],[-74.27089799964328,42.90786800016727],[-74.2707519998301,42.90726200032389],[-74.27054800052134,42.906206000051895],[-74.27055300017389,42.90565700021825],[-74.27054599941413,42.90491500036512],[-74.27061200008741,42.904502999572166],[-74.27084100025891,42.903816999692616],[-74.27118199983909,42.90324300028033],[-74.2715859995109,42.90252200011709],[-74.27205099971016,42.90202299958099],[-74.27268899980416,42.90157199987959],[-74.2737729995748,42.90119799981349],[-74.27486899971046,42.9008789998361],[-74.27568599939774,42.900713000301586],[-74.27645899950159,42.9004990001257],[-74.27719899996359,42.9003180002265],[-74.277909999722,42.900094999693266],[-74.2783240002072,42.899879999745565],[-74.27851699966321,42.89986499968582],[-74.27885899989832,42.89978599973007],[-74.27946599993581,42.89956499986759],[-74.27993900050858,42.89926800025259],[-74.28050900002653,42.899018000399806],[-74.2813480000458,42.89863399995148],[-74.28200999992391,42.89824799994903],[-74.28290000025389,42.897753999617805],[-74.28360300002568,42.89724900028127],[-74.28409900058143,42.89701699980938],[-74.28456899993525,42.89676600031022],[-74.28492699968616,42.896476999804314],[-74.28540399942857,42.89597899996464],[-74.28602500035686,42.89523600017592],[-74.28605100027185,42.89507800033188],[-74.28610499951843,42.89504699987003],[-74.28616299961344,42.89504800000695],[-74.2866489999402,42.89438200032906],[-74.28714100059102,42.89375600006713],[-74.2875940002513,42.89319300029069],[-74.2877800002549,42.89280199973069],[-74.2879689999736,42.89230099996769],[-74.28785199939526,42.891559000344195],[-74.2876810000976,42.89094499959316],[-74.28737400037123,42.89032100004234],[-74.28710099943372,42.88980700017116],[-74.28642099948804,42.88913500019357],[-74.28594300000756,42.88889299983456],[-74.28519199963934,42.88860500019902],[-74.28442500056629,42.888445999779705],[-74.28378300036836,42.88836899971858],[-74.28277599984025,42.8884659996213],[-74.2820779996276,42.88867399995303],[-74.28164099979301,42.888930000077735],[-74.28122499977061,42.88934300025963],[-74.2807240002261,42.88977299983625],[-74.28006899940587,42.89047100005866],[-74.27970399970212,42.89094899970693],[-74.27929000031607,42.89131600036463],[-74.27880099970606,42.89171000012774],[-74.27822599974819,42.891964999640436],[-74.2778040002133,42.892072999679606],[-74.27743100057256,42.89208100023967],[-74.2770489999787,42.89194999960252],[-74.27665800055432,42.89170099962978],[-74.2762930002974,42.89135999977216],[-74.27596699943159,42.89097399961943],[-74.27578700040075,42.890671000190586],[-74.27578399943846,42.89030499959547],[-74.27583099970462,42.889975000220595],[-74.27592999969508,42.889566000099286],[-74.27630999991503,42.88891099991815],[-74.27644499997359,42.888719999884295],[-74.27678699966094,42.88823199995222],[-74.27729699972296,42.88755900018979],[-74.2775529997411,42.887264999990215],[-74.2782190001628,42.88639400017114],[-74.27855099953014,42.885912000312],[-74.27880900048977,42.88534600001695],[-74.27900699972517,42.88468800032414],[-74.27906499958505,42.8841099999691],[-74.27909700054457,42.8836980001433],[-74.27904199965407,42.88322100025704],[-74.27873500021589,42.88205399974577],[-74.27848700012763,42.881116999651546],[-74.27818700036659,42.88030800000545],[-74.2778369996874,42.879580999955024],[-74.27746100005673,42.87882499993231],[-74.27698399990875,42.878135000372964],[-74.2764870005391,42.877185000345854],[-74.27607199975547,42.87650400031412],[-74.27578200024115,42.87586900027345],[-74.27521599988306,42.87522600015169],[-74.2751269994493,42.87446600012596],[-74.27505499999276,42.874072000189116],[-74.27484099959067,42.873692000001796],[-74.27443299957335,42.873260000360936],[-74.27407300038114,42.87299399995523],[-74.27343000003624,42.87262999981199],[-74.27338399986482,42.87264299960231],[-74.27172999986747,42.87312399963394],[-74.27092199976921,42.87286700035412],[-74.26961100058851,42.872125999744945],[-74.26848599983106,42.8713919999269],[-74.26786899993742,42.871130999659314],[-74.2666389999734,42.870609999923026],[-74.26523999981323,42.87003799993028],[-74.2643559996045,42.8693860000278],[-74.26401700009376,42.86887700003924],[-74.26443300017098,42.86824199974957],[-74.26644099948733,42.867878999797654],[-74.26774800025127,42.867981000436416],[-74.268991000173,42.868082000293114],[-74.27002700034829,42.868029000238096],[-74.27107499953993,42.86775100004478],[-74.27180599975884,42.86734200042604],[-74.27242900031015,42.866699000118196],[-74.27312899984969,42.866016999906165],[-74.2745469999169,42.86558600003478],[-74.27558499974998,42.86509000041541],[-74.2766329994754,42.864254999642476],[-74.27729000001897,42.863322999822756],[-74.27762099965057,42.86271999973671],[-74.27780499965856,42.862388999981],[-74.27794100052961,42.861145000251085],[-74.27781299967862,42.86028899979107],[-74.2774549998537,42.86008900001533],[-74.27706199965188,42.85956899962967],[-74.27619100016274,42.85893000004841],[-74.2759639995981,42.8583969996236],[-74.27575799962648,42.85787200034541],[-74.27567200018193,42.85751599977394],[-74.27534600057672,42.85720099957715],[-74.27497500034313,42.85708699997852],[-74.27439599965366,42.857119000010414],[-74.27364100049627,42.857477000370885],[-74.27361599987472,42.857486999692945],[-74.2727870002446,42.858044999959766],[-74.27183699991194,42.8581160001274],[-74.270320000466,42.85787100038264],[-74.26893399946395,42.85746499977101],[-74.26739700040659,42.8568410003113],[-74.2666120002395,42.8563550000522],[-74.26558899974744,42.85568299969382],[-74.2651979994367,42.855108999906484],[-74.26512299996622,42.85464899978437],[-74.2650270004238,42.85410800020224],[-74.26507299995646,42.85358300038873],[-74.26519399943948,42.85318800010981],[-74.26545800025885,42.85273599983254],[-74.26599500006445,42.852372999633076],[-74.26682599994578,42.852149000439994],[-74.26756900050695,42.85203699993837],[-74.26874899996699,42.85174799990548],[-74.26964499953567,42.85158000016283],[-74.27067299999743,42.85129100023265],[-74.27095199959363,42.851090999651966],[-74.27136200005302,42.850799000417986],[-74.27176899950524,42.85017800004746],[-74.2723520005316,42.8491290002852],[-74.27269500036914,42.847902999850334],[-74.27274199977826,42.846941999619744],[-74.27274600055723,42.84601300011283],[-74.27246600014344,42.844866000143455],[-74.27205399950347,42.844178999966516],[-74.27122500003156,42.84398400036098],[-74.26993700004043,42.84388500004827],[-74.26885599977042,42.843859000128276],[-74.26764300049106,42.84394600042462],[-74.26729900027024,42.84399200031785],[-74.26629900022148,42.844129000255315],[-74.26498899975768,42.844126999983835],[-74.26365800054334,42.8439720003658],[-74.26278500053175,42.843783999589185],[-74.2614550002266,42.843345999773724],[-74.2607029997795,42.84302999974392],[-74.25974399975244,42.84243899963966],[-74.25913500054988,42.841904999840715],[-74.2585599997709,42.84108799987639],[-74.25846400011876,42.84033700028385],[-74.25865500033814,42.839077999657405],[-74.25905400026475,42.837640999820685],[-74.25954999944875,42.83637399976049],[-74.26037599942487,42.834728000211086],[-74.26119899961559,42.83363999969107],[-74.26199000028834,42.83225999982489],[-74.26264000008412,42.83093700017196],[-74.26303699955338,42.82952200016776],[-74.26318300001455,42.828211000409894],[-74.26323300009709,42.82716399979009],[-74.26315200024621,42.825947000312304],[-74.26298100028728,42.82447600012944],[-74.26286999946797,42.823409000073006],[-74.26285000019914,42.823264000172195],[-74.26259600007405,42.82261800035724],[-74.26201799953498,42.821426000180516],[-74.26129900000592,42.81979399978517],[-74.26063500044303,42.81842899981267],[-74.26002900000525,42.817135000161976],[-74.25953499999822,42.8155729998368],[-74.25893399992034,42.81435499956859],[-74.25826300021087,42.8133219999898],[-74.2571090001351,42.81243999978759],[-74.25682900035441,42.812213999713165],[-74.256441999953,42.811900000213285],[-74.25555199969011,42.81065800000878],[-74.25494699976923,42.809814999660524],[-74.25477799939024,42.80847899986388],[-74.2549180000689,42.80714299968699],[-74.25532300025542,42.80606399971814],[-74.25570900048909,42.80545700019038],[-74.25591599957612,42.80531199973887],[-74.25678399939842,42.804375000259576],[-74.2576339997341,42.80348600007248],[-74.25852799987832,42.802386000372145],[-74.25874400021529,42.802271000268235],[-74.25950999996135,42.80178799996775],[-74.26075700013855,42.80113799967863],[-74.2618020005279,42.8007569998503],[-74.26292200058677,42.800448999599205],[-74.26364500017951,42.80032799957767],[-74.26428599951136,42.80011600044042],[-74.2646719997106,42.7996589999464],[-74.26470599961212,42.79911899999194],[-74.26475900020866,42.798948000027266],[-74.26437600028066,42.798062999662925],[-74.26405700034923,42.79737600017182],[-74.26363200022625,42.79675299996788],[-74.26331399949973,42.79653400031474],[-74.26320400035003,42.796421999933266],[-74.26298299995344,42.796227000443686],[-74.26190200027555,42.79545100027875],[-74.26116100003743,42.795193999622285],[-74.26045700045356,42.7951200004192],[-74.2596509995825,42.79520400010336],[-74.25896800001601,42.795324999789614],[-74.2574049999764,42.79579700034338],[-74.25654700008748,42.79587000020152],[-74.25606299988921,42.79580799962081],[-74.2554249994491,42.79567099965551],[-74.25488899970395,42.79550999963615],[-74.25444199943007,42.79529699974787],[-74.25388400006818,42.79450400009272],[-74.2537390005261,42.79380899987155],[-74.25361699977033,42.7926800001171],[-74.25343300051335,42.79053300002898],[-74.2532660001131,42.79017800043298],[-74.25276200014599,42.78973899998718],[-74.25180799939125,42.78911700025042],[-74.24957300044954,42.7882670001413],[-74.24916900058862,42.78788900022279],[-74.2487409994232,42.787579999901524],[-74.24852000026148,42.787369999971794],[-74.24830600014201,42.78715299975588],[-74.24813100010593,42.786885999864744],[-74.24794000049069,42.78635199987367],[-74.24773400000883,42.78547400039177],[-74.24778800031117,42.785069999679635],[-74.24806199964434,42.784570000230275],[-74.24830599940063,42.78424200024003],[-74.24865700004564,42.78380700028262],[-74.24898599979436,42.78351800039318],[-74.24957299984874,42.782877000069824],[-74.25026700033094,42.78245300000747],[-74.25064899976394,42.78213299993627],[-74.25115999952155,42.78152599983044],[-74.25163299990936,42.780888999785105],[-74.25223599964573,42.77969499956371],[-74.25260199969712,42.779088999974114],[-74.2529679997131,42.778355999874876],[-74.2535020001556,42.77725000033851],[-74.25411199966496,42.77645300043808],[-74.25437899978775,42.776006000062296],[-74.25458500014544,42.77527400030224],[-74.25469999972127,42.77470899988494],[-74.2547230000487,42.77365600023163],[-74.25460799966176,42.772851999951556],[-74.2544099998858,42.77223700002868],[-74.25396000058339,42.77120000014984],[-74.25348699970328,42.77008199977944],[-74.25292199951065,42.76897199997287],[-74.25251800055489,42.768403999604494],[-74.25202200040555,42.767605999732105],[-74.25168600021249,42.766874000073706],[-74.25147999998609,42.76609600034693],[-74.25154899990324,42.76564900006827],[-74.2516860002086,42.765305999872325],[-74.25281499968186,42.76349000031936],[-74.25318900009731,42.76304399962518],[-74.25350200041844,42.7626429998998],[-74.25389899971387,42.76218900043718],[-74.25428800056314,42.76182699983045],[-74.2547459999959,42.76143800023618],[-74.25500499983075,42.76110599998438],[-74.25523399996709,42.76075499983792],[-74.25553900031736,42.76046899992781],[-74.25574499980986,42.76025899996469],[-74.25620299983562,42.760022999917915],[-74.25651600021048,42.75982800035038],[-74.25700400035812,42.759596000224654],[-74.25765999997877,42.759163999920965],[-74.25803399975345,42.75877099965292],[-74.25814099941414,42.75850500028846],[-74.25819399987944,42.75824499986021],[-74.25830100030115,42.757828999871975],[-74.25850700024945,42.757398000188864],[-74.25879699950723,42.75713500036133],[-74.25963600049658,42.75669600037019],[-74.26350400054284,42.75561300029439],[-74.26397700054778,42.755547999882204],[-74.26440499956458,42.75560100002989],[-74.26527400005928,42.75580700035076],[-74.26650999989485,42.75641799990843],[-74.26656099949153,42.75644100037719],[-74.26750199990983,42.75685699999652],[-74.26866899980426,42.75717700032961],[-74.26972199986314,42.757368000443776],[-74.27045499987054,42.75730700029511],[-74.27219400047484,42.75723799985186],[-74.27344499974956,42.757112000415454],[-74.27427699943412,42.7569669997431],[-74.27544400005397,42.75679199967914],[-74.27828199971583,42.7566810002465],[-74.28120499959343,42.75671900026414],[-74.28373100057802,42.756799000361376],[-74.28566099967166,42.756737999608006],[-74.28698800031644,42.75668499993347],[-74.28821700043333,42.756543999839714],[-74.28983400008364,42.75634500019535],[-74.29124599989757,42.7561240003138],[-74.29316800007558,42.75576200010159],[-74.29518000047963,42.75522199982758],[-74.29687600032558,42.75476600010671],[-74.29831099997264,42.75445000013752],[-74.29962299968767,42.75404899955732],[-74.30148400053356,42.753464999798],[-74.3023960003119,42.75311500022077],[-74.30481100033954,42.752186999956066],[-74.30593200034386,42.751493000342364],[-74.30624499949099,42.75112699979897],[-74.30654999942536,42.75064199989785],[-74.30666500052203,42.750073999559916],[-74.30623800059182,42.74913900016523],[-74.30567299944096,42.74794200034209],[-74.3053299997278,42.74739600011335],[-74.30517600007474,42.74724199959721],[-74.3020660003429,42.74412599982631],[-74.30145800057635,42.74351799996845],[-74.30107200025967,42.743131000003025],[-74.29855899987696,42.740626000152815],[-74.29698699983916,42.73905899992805],[-74.29203499982886,42.73411999974769],[-74.28750700012357,42.729606999648965],[-74.28734799980892,42.72944900017883],[-74.28633599964225,42.72842100015686],[-74.2821839998387,42.724202999705845],[-74.28186400049373,42.7237190002803],[-74.28158099961699,42.72336700004642],[-74.28124400002089,42.722963000353005],[-74.28122899953588,42.72294200001542],[-74.2803469997909,42.722001999720426],[-74.28024700020477,42.72190300006642],[-74.27904499974942,42.72070500031091],[-74.27857199982411,42.72023499983886],[-74.2778399997182,42.719471999669025],[-74.27770499941545,42.71947299990241],[-74.27138699969822,42.71953599963314],[-74.27076799992456,42.71954200036445],[-74.27109800020048,42.718440000063694],[-74.27112499959298,42.7183010003629],[-74.2711530000382,42.718242999573505],[-74.27188099950078,42.715711999819234],[-74.27229499972248,42.71426999957038],[-74.27137199989764,42.71433300000738],[-74.27042900053907,42.71439799990857],[-74.268548999767,42.714526000185856],[-74.26569699999389,42.714761999954504],[-74.26311799968838,42.71497600008402],[-74.25946600058208,42.71527800020566],[-74.25267299958915,42.71584000031514],[-74.24957400032604,42.71609699992784],[-74.2430589999995,42.71668199972325],[-74.24166999947852,42.71680700025507],[-74.24101400031839,42.71685700029645],[-74.24071300000296,42.71747600011952],[-74.24045700033727,42.718001000326495],[-74.23984599996727,42.718923999598665],[-74.2195570003501,42.71449900032302],[-74.21949000015314,42.71448500042544],[-74.20779199940111,42.7119339997485],[-74.20271299996365,42.710826000199056],[-74.20135799952875,42.710948999777585],[-74.19802400023046,42.71125100004901],[-74.19587499956152,42.71144499988677],[-74.1929550001309,42.71171000011314],[-74.18654899968513,42.7122900003053],[-74.18429899952369,42.71249399985284],[-74.1842349995051,42.71250000005113],[-74.18366999985021,42.71499200017946],[-74.1836109997792,42.71525100009514],[-74.18267799977768,42.719359999708445],[-74.18170799997942,42.723637000200235],[-74.18027399983329,42.729978999787114],[-74.1729279996246,42.723963999816455],[-74.17155800047804,42.72284199978303],[-74.17131699940244,42.722645000063736],[-74.16971599979877,42.721333000344224],[-74.1696699998763,42.721294999748864],[-74.16708400054621,42.71917700042821],[-74.16615999961874,42.71841999995003],[-74.16467800003407,42.71720699996519],[-74.16515500002812,42.71486700031168],[-74.16624099998052,42.70953600021544],[-74.16625299966172,42.70947900008398],[-74.16718100029522,42.70493100036053],[-74.16804500055999,42.699910000376285],[-74.16819300043674,42.69905099994675],[-74.16898399992303,42.694465999718076],[-74.16949600021682,42.6915009997559],[-74.16952499994461,42.69136500003793],[-74.16949799995865,42.690952999854616],[-74.16911100032623,42.68495300043243],[-74.16889500056025,42.68160899964628],[-74.16886700000144,42.681186999756065],[-74.16874300008074,42.679248000106455],[-74.16870500053592,42.67865999985096],[-74.16852499996297,42.67431000028447],[-74.1685699996949,42.673867999783084],[-74.16943600010659,42.66946200031362],[-74.16947000059179,42.66928999979725],[-74.16972500022612,42.66742599961796],[-74.16984799992258,42.667277999848885],[-74.16987799966529,42.66722599955373],[-74.16992199981962,42.667133000334445],[-74.17008799965151,42.666635000071274],[-74.17019200024237,42.6663420000633],[-74.17056199999372,42.66556000016902],[-74.17101200041975,42.66480399970132],[-74.17116599978941,42.6645440002248],[-74.17139500056086,42.66412700013374],[-74.17194100009256,42.663126000042354],[-74.17215199960444,42.66269300042222],[-74.17264799964178,42.66129800017663],[-74.17301099985787,42.660428999694176],[-74.17354600000503,42.65924700023264],[-74.17361300015614,42.6588780002743],[-74.17363900022407,42.658689000125925],[-74.17356000048615,42.65794000040294],[-74.17342799947468,42.65731799984843],[-74.17342800050368,42.657205999589955],[-74.1734800004817,42.657065000216704],[-74.17355300007465,42.65696299958179],[-74.17477500013167,42.65586999960443],[-74.17487500039171,42.65575800012318],[-74.17493400053223,42.655661000287424],[-74.17728499939156,42.65097100040403],[-74.17743700049277,42.650499999587964],[-74.17760299977303,42.65013499997018],[-74.17805999968432,42.649320999639485],[-74.17892299981094,42.64728399986806],[-74.17932399963573,42.646384000094095],[-74.17962700051513,42.64585200043474],[-74.1796860001669,42.64576600006842],[-74.17988299994948,42.645537000328],[-74.17993300005222,42.645489999772636],[-74.1799799996453,42.645436000198394],[-74.18032500013891,42.644930999858595],[-74.18036699947731,42.64487099994923],[-74.18087499998077,42.64391100014387],[-74.18142699995609,42.64284199992546],[-74.18205900042982,42.64178800040947],[-74.18272799967329,42.640804999988745],[-74.18309900048199,42.640360000396605],[-74.18378799987049,42.63976500026256],[-74.18393800024386,42.63966599978643],[-74.18401799986415,42.63962999978174],[-74.18408500035676,42.639610999732305],[-74.18423499973257,42.63962200024845],[-74.18425799988661,42.639582000034345],[-74.18538500011785,42.63767799999539],[-74.18557199961502,42.637363000281894],[-74.18593000052873,42.63676900040196],[-74.18615500047493,42.636379000109585],[-74.1863909995842,42.63603100028056],[-74.18673999946047,42.63551400001848],[-74.18855700041841,42.63282500007677],[-74.19164000044482,42.62840199957725],[-74.19202399998296,42.62784899984783],[-74.19256899980743,42.627069000080176],[-74.192798000044,42.62507600019206],[-74.19346800053205,42.61918300000188],[-74.19349500012704,42.61899900001253],[-74.1975850000551,42.614881999843284],[-74.19769799991275,42.61476800016535],[-74.19850400035587,42.61398100007813],[-74.20119999990293,42.61135399969233],[-74.20131600055717,42.61124000017149],[-74.2022629996754,42.61031999984932],[-74.20465600001246,42.60798500015479],[-74.20522299989634,42.60743099981177],[-74.20669700034681,42.60599300031109],[-74.20676300022762,42.605795999656785],[-74.20903500019264,42.60288100009897],[-74.2094919994778,42.60229499957811],[-74.21050900042802,42.60099000034867],[-74.2151659997654,42.597435000267346],[-74.21748700015412,42.59427999983542],[-74.21815499997375,42.59364400032057],[-74.21875600044949,42.59264599960085],[-74.21902999981842,42.592240999916555],[-74.2191410003963,42.59206600017732],[-74.21950199951026,42.59154500040333],[-74.21961399998557,42.59140599992992],[-74.21963899993948,42.59138600022427],[-74.22001200056226,42.5880209999343],[-74.22020400024591,42.586283000286976],[-74.22027399974867,42.58541199955334],[-74.22458599990634,42.58223800014281],[-74.22432300046604,42.58248000005185],[-74.22530299941572,42.58180100020728],[-74.22639200009776,42.58105400014297],[-74.2274889997725,42.580280000365995],[-74.2339949995257,42.5756880002834],[-74.23411999951156,42.57525599986791],[-74.23442000053647,42.574162000322154],[-74.23450499978196,42.573853999852666],[-74.23616699945198,42.56779500029594],[-74.23691699987782,42.56506299975811],[-74.23701800030419,42.5648110001038],[-74.23708100003083,42.56462899996564],[-74.23762099958341,42.56312400001428],[-74.23695899982863,42.56012000021175],[-74.24051700004854,42.553105000081054],[-74.24042799995016,42.55291100044573],[-74.24101900022113,42.55182000016129],[-74.24157199969062,42.55080200039756],[-74.23797700005498,42.544592999616285],[-74.2381509996008,42.54385699983442],[-74.23441900048626,42.53784000015073],[-74.23360199958132,42.5365220002242],[-74.23304500052221,42.53562399969722],[-74.23088700056773,42.53203500038704],[-74.2291859995217,42.52928400003283],[-74.22906500053482,42.52902999987107],[-74.22565500046696,42.526414999730505],[-74.22563900031918,42.52640300039842],[-74.22556400033363,42.52046700026366],[-74.22555700034516,42.520230000211086],[-74.22563200006046,42.519936999812494],[-74.2256259994741,42.51977599993467],[-74.22554000033259,42.51952999966358],[-74.22545299940623,42.519225000207484],[-74.22541899963355,42.519026000297096],[-74.22543600054014,42.51892399960321],[-74.22551700037636,42.51881400024266],[-74.22555699945003,42.518729999902725],[-74.22555699974907,42.51851300028888],[-74.22559699969062,42.51831800011953],[-74.22560299996071,42.51816599971542],[-74.22556799990505,42.517610000374155],[-74.2255740004734,42.51749099983262],[-74.22560299963622,42.51735100012945],[-74.2256089995927,42.51716500017669],[-74.22557400034434,42.51675999977125],[-74.22558500051505,42.51657799973722],[-74.22563699974135,42.51644600036473],[-74.22563299950177,42.51594799955111],[-74.22560199995662,42.51571600015768],[-74.2255019998203,42.515413000242],[-74.22543599976984,42.51504599989061],[-74.22543100041733,42.514961999779366],[-74.22518599989913,42.51117999999521],[-74.2251369999208,42.51056200030873],[-74.22498599958358,42.508560000399115],[-74.2249849996521,42.50854999990814],[-74.2257719997474,42.506956000304676],[-74.22656800029122,42.50263299991182],[-74.22655000034828,42.501641999606356],[-74.22652199962025,42.50007600007056],[-74.22644700021166,42.49923299969481],[-74.22721300019352,42.49742200017828],[-74.22850099946987,42.49438099989995],[-74.22932800042966,42.493266999746574],[-74.23021700046134,42.49207100027334],[-74.2340369999913,42.48773999974908],[-74.23644699956515,42.48545899966202],[-74.24162900033454,42.472035999817976],[-74.24445700025565,42.4702649996956],[-74.24450899982887,42.47010300020578],[-74.24475399977,42.46935299958942],[-74.24958499958286,42.454598000312785],[-74.25007200041584,42.452899000224654],[-74.25020099991563,42.452481999952155],[-74.25073299969715,42.45077299972346],[-74.25181500036686,42.447366000367126],[-74.25240799955701,42.44542199999648],[-74.25243700004201,42.44533399980424],[-74.25260300031795,42.44494500003609],[-74.25379700021688,42.44253400024019],[-74.25422000009495,42.44165299960313],[-74.2544130002548,42.44125200022972],[-74.25533299956967,42.439338000346865],[-74.2556860004076,42.4386060001187],[-74.25586000012004,42.43824300030287],[-74.25650500021241,42.43690500009129],[-74.25947100005898,42.43093700026249],[-74.26042599986478,42.42894900002301],[-74.26053699977255,42.428717000379145],[-74.26154699961874,42.42661500009161],[-74.26318500037988,42.423213000196505],[-74.26473100056975,42.42012700004445],[-74.26486299961007,42.419863000024606],[-74.26474100043292,42.41874700044816],[-74.2642850002689,42.41458900012187],[-74.26427100059678,42.414459000397194],[-74.26374899944426,42.40969500023511],[-74.26346900020114,42.40712699956458],[-74.2543030005364,42.40820700012337],[-74.2533020002367,42.40832499966103],[-74.249586999941,42.40876199970374],[-74.24480899943828,42.40928000000262],[-74.24091500054915,42.40971200004954],[-74.23235600013265,42.41066300021743],[-74.22565199965557,42.411408000334625],[-74.21755799973572,42.41230699997643],[-74.21703999957131,42.412364999800296],[-74.20199300042478,42.41403600033875],[-74.2014700002856,42.41409299974001],[-74.19852099983457,42.41441700030606],[-74.19818599954158,42.41445300032213],[-74.19484400003086,42.41482000041197],[-74.19464600000586,42.41484100005851],[-74.19056800034933,42.41528899968532],[-74.17542399999179,42.41695500027604],[-74.17401400059066,42.41710899993334],[-74.16496300034748,42.41810600022545],[-74.16025299952112,42.4186240004285],[-74.15785799967327,42.41893200041935],[-74.15636099991178,42.41912799998304],[-74.14965599997116,42.41999499957052],[-74.14749599946586,42.420274999959624],[-74.1474019997117,42.42029400036936],[-74.1391009995188,42.42136299988499],[-74.13826600025371,42.42147099986128],[-74.13740399963575,42.421580999709704],[-74.1300670005346,42.422514999957336],[-74.12964499939109,42.42256900022711],[-74.12672200008609,42.42293799977482],[-74.12644199952267,42.422984000126256],[-74.12457800051479,42.42324299987635],[-74.11731100011413,42.42360799992205],[-74.11684499946081,42.42366399985523],[-74.10805700053574,42.42472900027026],[-74.10793400010509,42.42474399974641],[-74.09649499989013,42.42612900041331],[-74.09636600007683,42.42614500016652],[-74.09067099977797,42.42683399970012],[-74.08734799981225,42.427236999699865],[-74.08709899987625,42.42726800003761],[-74.08405799965873,42.427643000203034],[-74.07637700016745,42.428591999571964],[-74.07183100048141,42.4291549999847],[-74.06153899943453,42.43042800039669],[-74.05705499993104,42.43098500029786],[-74.04357899969285,42.432703000285954],[-74.03643500018627,42.43361000013553],[-74.02874399978515,42.43450200038807],[-74.0236899997678,42.43508599997607],[-74.01863599986741,42.435669000144514],[-74.017280000464,42.435827000382474],[-73.99957500025167,42.43791800017089],[-73.99811499963322,42.43806100019101],[-73.99587300012277,42.43827299968244],[-73.99568400012195,42.43831600018734],[-73.99264099973588,42.43855600002911],[-73.99201700030105,42.4386440002449],[-73.98818500012014,42.43918999979229],[-73.98415599970896,42.439657999693424],[-73.98029300050005,42.439998999675275],[-73.97951800043569,42.44006599964835],[-73.97580800058964,42.440389999714114],[-73.97111699973215,42.440859000065196],[-73.96950199975348,42.44102700008379],[-73.96666399943227,42.44132299986263],[-73.96379199959381,42.44162200000764],[-73.96271200002893,42.441735000412564],[-73.95876000030809,42.44214699962522],[-73.95156400057469,42.44285600010418],[-73.94800300054938,42.443203999724886],[-73.94761199964567,42.44324299974564],[-73.94231000013829,42.44379400011757],[-73.93997299970657,42.444050000306426],[-73.93983699967762,42.44406300044722],[-73.93786700014087,42.44428099966155],[-73.93326000018105,42.44481399985591],[-73.9306990004335,42.44519199975814],[-73.92969699957158,42.44534100017278],[-73.92714699944312,42.44571800022868],[-73.92009699983544,42.44662799983914],[-73.91353599967844,42.44760799989861],[-73.90791899949691,42.44839000029329],[-73.9070849999584,42.44850699990038],[-73.90547800028003,42.448755999738424],[-73.90382700005215,42.44896700015323],[-73.90359900028974,42.44899899995577],[-73.90103699990765,42.44936199995447],[-73.89489999975679,42.45021599963596],[-73.89277100052473,42.450549999600696],[-73.88976500055216,42.45100799996746],[-73.88612599968376,42.451507000279356],[-73.88598600029538,42.451525999897925],[-73.8845359998123,42.45172599984373],[-73.87913099959087,42.45245799974139],[-73.87850499986959,42.45254899982349],[-73.87661200040118,42.45280299956747],[-73.87603499951969,42.452881000032555],[-73.87457099997071,42.45307799955305],[-73.86570399939914,42.45435499975673],[-73.86559000041886,42.45437200010873],[-73.85407599951891,42.456095000297935],[-73.85273000023678,42.45628599989313],[-73.84371500038574,42.45756499980644],[-73.83949100018665,42.458186999929744],[-73.83805600030851,42.45839899970484],[-73.83675699990177,42.45859199986409],[-73.82517299983994,42.45982499959325],[-73.8180969999828,42.46057799983236],[-73.81745500033435,42.46064699961581],[-73.81244200021088,42.46117899997555],[-73.80941400014613,42.46150100040698],[-73.80925100025213,42.46151899986835],[-73.80802099952236,42.46164999965485],[-73.80789500049417,42.461663000168784],[-73.80027699986626,42.46247299972857],[-73.8000809999128,42.46249300017971],[-73.79186200051167,42.463367000200904],[-73.78748400008264,42.463831000107774],[-73.78372100028122,42.46423100006507],[-73.78404899941603,42.46651699999549],[-73.78405999953345,42.46696800035289],[-73.7841359998127,42.467507999769616],[-73.7842979998,42.46774900019368],[-73.78453699999524,42.46839399986305],[-73.78503600015594,42.46985199989209],[-73.78545899961419,42.47085900031823],[-73.78570899995746,42.47163199988177],[-73.78583899951471,42.4728810002614],[-73.78607799972126,42.47524900022263],[-73.78612400035652,42.47781400025604],[-73.78612799993593,42.47801700032466],[-73.7861649997476,42.48006500016601],[-73.78611200000356,42.48280400008434],[-73.78604700038545,42.483835000195754],[-73.78592699949424,42.484760999651805],[-73.78575399972686,42.48611400009111],[-73.78554800016478,42.48720900022147],[-73.78524400048316,42.48813499984385],[-73.78497300058376,42.48901300030265],[-73.78459400059397,42.48994700033386],[-73.78138199980856,42.49592099974289],[-73.78088300049178,42.49730599985012],[-73.78046000011337,42.498022999699444],[-73.77939699986193,42.500080999772045],[-73.77708499958122,42.50399900017155],[-73.77588000026637,42.50581699969396],[-73.77390299989727,42.50840099988451],[-73.77316099957731,42.50937700007976],[-73.76853400038875,42.51556999967637],[-73.76668300038834,42.51804799967913],[-73.76607899964799,42.518781999660476],[-73.76510099974756,42.519649000093175],[-73.76408499983712,42.520721000385066],[-73.76377000027874,42.52113500036053],[-73.76309099977665,42.52202599998084],[-73.7613319994338,42.525831999752405],[-73.75984699993352,42.52943299967722],[-73.75831299949805,42.534215000425036],[-73.75696000001359,42.54198999988798],[-73.756788999795,42.54297200035589],[-73.75666599962712,42.543680999733255],[-73.75676500008204,42.54378000026648],[-73.75646500044309,42.54868000025861],[-73.75566500040613,42.5515799996809],[-73.75406500008438,42.55678000030735],[-73.75216500022178,42.566580000026505],[-73.75216800017445,42.566720000273804],[-73.75218499970526,42.567656999889245],[-73.75236499958578,42.57668000041262],[-73.75436499972592,42.58257999989797],[-73.75726499977267,42.58717999968525],[-73.7582649995113,42.58987999996079],[-73.75957099981564,42.59462500037376],[-73.76126500019342,42.60077899998248],[-73.76156499986968,42.603579000058],[-73.76138499965072,42.60727400036516],[-73.76136500053774,42.607678999691714],[-73.76126500054758,42.61037899967034],[-73.7595649998074,42.6141790000084],[-73.7566889997438,42.61417900033603],[-73.75256299989894,42.61417800040056],[-73.75217199944144,42.61428499968905],[-73.74727000045172,42.61637599968795],[-73.7471660000642,42.61639899978763],[-73.74669999973895,42.616473000439726],[-73.7448669998863,42.61728099979466],[-73.74431599971454,42.620809999740864],[-73.74390400014735,42.62327099968897],[-73.7434579994995,42.62621399999854],[-73.7431010003421,42.628513000220465],[-73.74304199939736,42.628959000073785],[-73.74299399944049,42.62918500022605],[-73.74262599964221,42.63126699964098],[-73.74260800012574,42.63158199959203],[-73.74163799997605,42.63161000024816],[-73.73657199997116,42.63178499958733],[-73.73486500035956,42.631878999683515],[-73.73444300036644,42.63187999982141],[-73.73386900043427,42.63188299984243],[-73.73393599998045,42.632021000207594],[-73.73470899998533,42.63519600003858],[-73.73489500052099,42.636100999800675],[-73.734795000495,42.636395999986235],[-73.73467499979421,42.6367570000234],[-73.7344570000256,42.637078000048774],[-73.73442900034712,42.637162999591965],[-73.7344220003195,42.63723300018163],[-73.73361499998427,42.6388719995623],[-73.73333700029077,42.63943900021342],[-73.73097300015533,42.64389099988406],[-73.73044600054112,42.644882999940826],[-73.73027200039697,42.64548199963899],[-73.72910300000773,42.64526200039111],[-73.72923999951372,42.64476500033694],[-73.72828000024126,42.64457700041046],[-73.72828799957428,42.64373400019292],[-73.72811800004008,42.643778999620594],[-73.72781800015107,42.64474799989846],[-73.72749300057153,42.645382000105684],[-73.72744099995644,42.64562199975982],[-73.72763000021054,42.6461870002631],[-73.72761299976808,42.64637500037103],[-73.72752699965346,42.646529000204666],[-73.72721900002465,42.64685499977135],[-73.72581399939423,42.646461000101674],[-73.72519800009889,42.647506000038696],[-73.7249930002011,42.64738300010893],[-73.72471699963909,42.647852999639476],[-73.72392000028613,42.649214000262624],[-73.71326399994697,42.647782000412526],[-73.71182599965643,42.64757900013248],[-73.71139499982911,42.647521999764216],[-73.71082799987026,42.647435000023115],[-73.71122899984033,42.64815300042298],[-73.71107199999672,42.64836600041362],[-73.70239700058346,42.647285999930624],[-73.70253400000716,42.64630500004911],[-73.7003499994841,42.64600599969989],[-73.69930900024536,42.645862999917476],[-73.6987789996245,42.647497000293946],[-73.69743199970598,42.64719200001685],[-73.69749800006072,42.64700399987194],[-73.69668799977845,42.64690099976],[-73.69678000007936,42.64641500013285],[-73.69654200033698,42.64637699962836],[-73.69668399976345,42.645931000284335],[-73.6963260003459,42.64584500000885],[-73.69624199967261,42.646142000159166],[-73.69605500047436,42.646117999966776],[-73.696134999586,42.64580500034097],[-73.69565399989727,42.645711000355625],[-73.69284999960915,42.64516600019387],[-73.69259999993695,42.64511099995116],[-73.69166399993871,42.6449229995984],[-73.69130700027257,42.64481999996855],[-73.68908899949655,42.64441899958443],[-73.68864500036696,42.64508200031455],[-73.68770300009693,42.64455100007249],[-73.68790600029583,42.644253999674234],[-73.68736399989733,42.64418000026003],[-73.68612199959993,42.64396799972811],[-73.68587899952338,42.643927000150995],[-73.6824539998095,42.64334300025006],[-73.68060200011945,42.64307500039371],[-73.68027099956795,42.64302499999427],[-73.66978900013709,42.6415079996575],[-73.66715300012872,42.641124999559004],[-73.66538700012194,42.64095800044878],[-73.66367600026034,42.64080899991784],[-73.6620019996166,42.6406379995707],[-73.65911700032552,42.640149000409956],[-73.65343100028568,42.63933099977421],[-73.65180299975836,42.63909799962166],[-73.63684099962359,42.63688799963654],[-73.62866200015094,42.63567999963117],[-73.62785800052264,42.63789399956972],[-73.62627700025837,42.64304999957464],[-73.62611199957574,42.64356700023602],[-73.6207900003289,42.65986699990873],[-73.61964100060413,42.6639030002101],[-73.61944699971875,42.6648699999045],[-73.61884899943685,42.66762800000242],[-73.61849299970642,42.66883699994602],[-73.61824299948083,42.669414999629794],[-73.61801700006717,42.67000299972419],[-73.61794599977453,42.670674999870194],[-73.61769800040528,42.671283000355146],[-73.6176069994911,42.671603999657954],[-73.6172259996164,42.67315399996691],[-73.61588100010862,42.67784299958452],[-73.6151579993998,42.68036299993638],[-73.61510699973572,42.68054299960814],[-73.61431099944954,42.683316999586566],[-73.61302900042915,42.68778400021953],[-73.61232899951425,42.69018800008606],[-73.61116600057403,42.6942439995574],[-73.61021200015962,42.69823599994085],[-73.60951899951506,42.7000869996051],[-73.60949800021571,42.700174999736234],[-73.60919100001061,42.701277999952836],[-73.60846000032797,42.70337800022581],[-73.61062800005277,42.70319700013304],[-73.61750299975469,42.7024260000358],[-73.62503199961664,42.70150299983489],[-73.62978600049252,42.70091699972186],[-73.63248299999997,42.700583999987266],[-73.63365300030726,42.70057800010902],[-73.63404799971872,42.70057699998113],[-73.63708800038864,42.70021700020069],[-73.6388419994359,42.70000700028709],[-73.6397169997354,42.69990299985832],[-73.64076099983242,42.69977799987895],[-73.6416609994893,42.69957799960233],[-73.64354999962376,42.69937900043443],[-73.64465899939978,42.6991800001445],[-73.64611300057676,42.699173999715484],[-73.64616100005686,42.69917799999297],[-73.64733799971299,42.69903100004309],[-73.65053199992244,42.69865100006505],[-73.65094099968326,42.69859500008093],[-73.65236100027548,42.69847799963402],[-73.65255900012488,42.69940099972747],[-73.6526710000788,42.700012000132276],[-73.65276800037722,42.700550000280295],[-73.6528640001315,42.70144699974351],[-73.65285099992495,42.70237599976678],[-73.65307300015685,42.70341100026969],[-73.65326200014705,42.704175000333926],[-73.6531470002446,42.70485399967245],[-73.653850999627,42.70901199990579],[-73.65496899962803,42.715439999946106],[-73.65552599988733,42.718948000428355],[-73.65621600002795,42.72344900029925],[-73.65637800022388,42.72568299960965],[-73.65614799951275,42.7258220004194],[-73.65582700047558,42.726002000132645],[-73.65515400017216,42.726325999595645],[-73.65470800043161,42.72648799972977],[-73.65440999949487,42.72658499970783],[-73.65407200043154,42.7266889996203],[-73.65303699976495,42.72700100024777],[-73.65192900013817,42.727337000349344],[-73.65127500011853,42.72753400040935],[-73.65095699991748,42.72762800018539],[-73.65000299985601,42.72792299967822],[-73.64915099962361,42.728179999708686],[-73.64837099952958,42.7284189995944],[-73.6464380004257,42.72902099991552],[-73.6462979996938,42.7290670002473],[-73.64595700020575,42.72921200036165],[-73.6456720003724,42.72936000043812],[-73.645363000358,42.729557000174566],[-73.64508800010672,42.729770999943774],[-73.64486000036571,42.7299970000978],[-73.64447999988738,42.73044400016474],[-73.64428499978384,42.73062300020273],[-73.64407699939126,42.73077300015555],[-73.64380899959144,42.73092499976476],[-73.64351500041188,42.731049999923684],[-73.64334200034635,42.73110700012894],[-73.64296800054636,42.73119399962152],[-73.63901600043133,42.73188799969939],[-73.63824100026063,42.73203699961502],[-73.63514800031233,42.73266099971114],[-73.63403899962094,42.732879000278565],[-73.63373299992796,42.73292300044509],[-73.63326999947178,42.73296200033045],[-73.63301600005998,42.73297200010353],[-73.63270199962513,42.73297200024113],[-73.63240499949035,42.73295499971461],[-73.63191199961192,42.73290700029294],[-73.63147400012767,42.732840000184794],[-73.63138499939848,42.732910000076835],[-73.63113799987102,42.73318200041728],[-73.63108500029267,42.73325800019522],[-73.63102500051662,42.73338299966996],[-73.63080900004557,42.734008999998274],[-73.63075499953057,42.734122999925475],[-73.63063399947164,42.73424399994225],[-73.63045600010098,42.73433499958055],[-73.63039600026953,42.73434500009062],[-73.6301669998786,42.734339000127335],[-73.62971100000179,42.73425500016595],[-73.62939299974305,42.73462500001129],[-73.62935299939828,42.734636000294785],[-73.62927000043082,42.73463800017692],[-73.62920700055777,42.73456900026589],[-73.62917199992377,42.73455699956037],[-73.62913300051184,42.73455700006675],[-73.62890699984487,42.73474100032091],[-73.62887500011107,42.734795000186],[-73.62888199991315,42.73484899963582],[-73.62895700004206,42.73493300034608],[-73.62896099966913,42.734986999890396],[-73.62894200002776,42.735016000012635],[-73.62885700041333,42.73505299995591],[-73.62857799973122,42.73509699979001],[-73.62841700022173,42.735106999933684],[-73.62808800037381,42.735099999726216],[-73.62795700017558,42.735123000265666],[-73.62789000045005,42.735155999774385],[-73.62779299948683,42.735243000234036],[-73.62765499961758,42.73554099963718],[-73.63036499969252,42.73632599986505],[-73.63216400041507,42.73686100039836],[-73.63502699942694,42.73767799989955],[-73.63669599998967,42.73815200044178],[-73.63679399980128,42.73811000022773],[-73.63695900001886,42.73807799997504],[-73.63711899994773,42.73807599965893],[-73.63725599989154,42.73810499991179],[-73.63742099947477,42.738175999789256],[-73.63751200005562,42.73822800033275],[-73.63756599941112,42.738271999728354],[-73.63770899957387,42.738440999656405],[-73.63776099974305,42.73856499985673],[-73.63784600055475,42.7389819999263],[-73.6378840002022,42.7392480001452],[-73.63790199965939,42.73956200021401],[-73.63792500061334,42.73964999980238],[-73.63795099966312,42.73970099986393],[-73.6381280005729,42.73990900035306],[-73.6381879995983,42.740041000312],[-73.63830300055413,42.740364999723695],[-73.63834699952477,42.74069400007633],[-73.63835199989826,42.74078599999546],[-73.6383650002462,42.740833000125846],[-73.63840700044474,42.740902000113906],[-73.63850500015718,42.74101100014203],[-73.63864599977082,42.74112899968566],[-73.63883500023753,42.7412789999192],[-73.63894499969604,42.74147200040404],[-73.63931799969866,42.74224099975301],[-73.6394709998142,42.742538000384826],[-73.63948799981048,42.74266199992304],[-73.63945999952271,42.74275099974472],[-73.63924000058115,42.74309300015514],[-73.63905199946767,42.743442999792954],[-73.63885900015093,42.74383499979551],[-73.63882999962382,42.74391900042353],[-73.63881300026287,42.744087999651235],[-73.63884299977092,42.744305999704046],[-73.63890299983527,42.744582999686834],[-73.63942599992097,42.7444709998938],[-73.63961100015514,42.74441599986938],[-73.63996900023807,42.74432299976304],[-73.64023500050551,42.74428799971914],[-73.64094900043952,42.74427399969654],[-73.6413230002398,42.74425099965415],[-73.64152200019204,42.744245999722224],[-73.64179200026484,42.74425500013381],[-73.64193900048127,42.7442770001189],[-73.64246000024458,42.7444049996473],[-73.64318399981576,42.74459799988886],[-73.64327400061097,42.74463099992606],[-73.64339199972999,42.74469500001244],[-73.6423069999385,42.74533799963242],[-73.64137999983627,42.74588899966336],[-73.6407299995899,42.74627400004794],[-73.64045500044628,42.74643999964711],[-73.64020000056868,42.74659199961392],[-73.64028800038541,42.746655000054126],[-73.64044000011256,42.74656600002962],[-73.641348999916,42.74605099989984],[-73.64201999947873,42.74679199965067],[-73.64243700040409,42.746557000085964],[-73.6438399999176,42.74766899995254],[-73.64376699952955,42.747936000301564],[-73.6425239999619,42.748717000154095],[-73.64339399976264,42.749201000182936],[-73.64366399973973,42.7491189996212],[-73.64499999956845,42.75002200000211],[-73.64565600001211,42.749416999783534],[-73.64538100049414,42.75159000040531],[-73.64549799992261,42.75260999959935],[-73.64607199961542,42.75262000015352],[-73.64618899984045,42.75283500043172],[-73.64685100009679,42.752873000179946],[-73.64691200029014,42.75258599962398],[-73.64811200016369,42.75248300013516],[-73.64810099995627,42.75297200015442],[-73.64722600057753,42.753108000367696],[-73.64741700014639,42.75412799990691],[-73.64728999976012,42.75456000022423],[-73.64820199967579,42.75474799962223],[-73.64652300036539,42.759196000015386],[-73.64748499965866,42.759353000218184],[-73.64741300013247,42.75940099973916],[-73.64731099975235,42.75945999955321],[-73.64717999957291,42.759516000107475],[-73.64704200007058,42.75956600044673],[-73.64654700017536,42.75969999975109],[-73.64641099995761,42.75974299974833],[-73.64616099983928,42.75984899982593],[-73.64610400025383,42.759826999606545],[-73.64601299952423,42.759821000408785],[-73.64596200008828,42.75982499993892],[-73.64591600024632,42.75981800009912],[-73.64570200011107,42.759723000435336],[-73.64562499943258,42.75971499984481],[-73.64548099963964,42.75976799992264],[-73.64538499941654,42.75977899976568],[-73.64501499963318,42.759781000445265],[-73.6448630000564,42.75979499961729],[-73.6445470002429,42.7597759999862],[-73.64431699950316,42.75977800039051],[-73.64409400008587,42.75981199971045],[-73.64390800039138,42.75982600023545],[-73.64363800029089,42.759880999735486],[-73.64351700021957,42.75988399966841],[-73.64335899984317,42.75987900028209],[-73.64330800036565,42.75988400001446],[-73.6432559994636,42.759900000400584],[-73.64318399970848,42.75995499974249],[-73.64312799946535,42.76001000042165],[-73.64307899953273,42.76003799978587],[-73.64302000038191,42.76005199991091],[-73.6429829995199,42.760047999830896],[-73.6429409994481,42.76003200040653],[-73.64287599972944,42.7600239997137],[-73.64277399975275,42.76003000037349],[-73.64240199959316,42.760132999887574],[-73.64223099951333,42.76019099965449],[-73.64202600034223,42.760217999661805],[-73.64187899997877,42.76021700004975],[-73.6418019994782,42.76024299987743],[-73.64166800025679,42.76035099996591],[-73.64159100018284,42.76039799993746],[-73.64156199979818,42.76048099963526],[-73.64154199950018,42.760567999976764],[-73.64148700031687,42.760646000363444],[-73.64144899975881,42.76085199973745],[-73.64139099979485,42.76094600014731],[-73.64136399982144,42.761022999899204],[-73.64134099971369,42.761124999794404],[-73.64123500041148,42.761285999779545],[-73.64119100004253,42.76133500029743],[-73.64109699949056,42.76141400010968],[-73.6408659993999,42.761642000343635],[-73.64058399951031,42.76184399978775],[-73.64035900026498,42.76193900033388],[-73.64024599990142,42.76201999992865],[-73.64006399983552,42.762238999681315],[-73.64004900010926,42.762403999675065],[-73.64001300012583,42.76249899997578],[-73.63980099950656,42.76281499975702],[-73.63972499971425,42.76298800025113],[-73.63997599985774,42.763070999841624],[-73.64022800039034,42.76312500030979],[-73.64046399989284,42.76314299991469],[-73.6407939998569,42.763128999840674],[-73.6414820000149,42.76307500035903],[-73.64174599997799,42.765036999896985],[-73.64178000002251,42.765321000441375],[-73.64178800047618,42.76557300035709],[-73.64177999982748,42.76581700019969],[-73.6417319999196,42.76631699980964],[-73.64169499960995,42.766464999962835],[-73.64163999959771,42.766606000207545],[-73.64155300016776,42.76677200030656],[-73.64128300014029,42.767152000142495],[-73.64094599946887,42.76768500034806],[-73.64086300037245,42.76780299982663],[-73.64074900031073,42.76792499968595],[-73.64057099968126,42.76808099988563],[-73.63992699947296,42.76861900037291],[-73.63981999938841,42.768739000415295],[-73.63968499972734,42.769012999748654],[-73.63962199977627,42.7691710003816],[-73.63958700015161,42.769334999758335],[-73.63953099989936,42.76966999978306],[-73.63951299994916,42.769817999755915],[-73.63942100053433,42.770160000390625],[-73.6393680001117,42.77025599964555],[-73.63927500040137,42.77033499979969],[-73.6391430000805,42.7703979996009],[-73.63904800015827,42.77037100020069],[-73.6389410004213,42.77032599976975],[-73.63825100001294,42.77005999978338],[-73.63800200014495,42.769900000131955],[-73.6374510001034,42.77042399983954],[-73.63697000026359,42.77085200028785],[-73.63741199989083,42.77116199955225],[-73.63750099988931,42.77123499976823],[-73.63790100003442,42.77167800017368],[-73.63828200013897,42.77215199980084],[-73.63842999948943,42.77235300001403],[-73.63902999993917,42.77212800044371],[-73.63960100000382,42.77194700040776],[-73.6397469997906,42.772254999852706],[-73.63998400012032,42.772662000380265],[-73.6402750005339,42.773076000276205],[-73.64046899996814,42.77330900032006],[-73.64130100007957,42.77423800016769],[-73.64181200036369,42.77476200030759],[-73.64278099949655,42.775679999689125],[-73.64294300055991,42.77587100024684],[-73.64313500030201,42.776148000439264],[-73.64331199997015,42.77648099997779],[-73.64350000003924,42.77678799993953],[-73.64357199943379,42.77688500008012],[-73.64370399997097,42.77703299980225],[-73.64399599947987,42.77730400042175],[-73.64435400027644,42.777564000186466],[-73.64501100024147,42.77799499993914],[-73.6452779994325,42.77814299959452],[-73.64527299950839,42.77824600001976],[-73.64529499993559,42.77836099969875],[-73.64540099969513,42.77862899982652],[-73.64559000029078,42.7789769999704],[-73.6456339994371,42.779077999994286],[-73.64571000036234,42.779278000302945],[-73.64572500053684,42.779379999967716],[-73.64572299995352,42.77964199995499],[-73.6456749996932,42.78007599981991],[-73.64563000033202,42.780316000165556],[-73.64557199962941,42.78046200040364],[-73.64549099997112,42.780596999695724],[-73.64537799952737,42.780713000204834],[-73.64481799969369,42.78115999976267],[-73.64430999948219,42.7816100004183],[-73.64415199940653,42.78179000019409],[-73.64405400057568,42.78193900018806],[-73.64398899947706,42.78210000044063],[-73.64387100057365,42.782638000257236],[-73.64381200002666,42.78276599973742],[-73.64376900040722,42.78282699976566],[-73.64365499983423,42.78297100015038],[-73.64332900010004,42.783304999843665],[-73.64316999952258,42.78348200020884],[-73.6428750000381,42.783863000421356],[-73.64272200057493,42.78410099976962],[-73.64265999982034,42.78422999955443],[-73.64259699940344,42.784638999707425],[-73.64253399970055,42.78572599994727],[-73.6425140000071,42.785875000189854],[-73.64360199983916,42.78547900023366],[-73.64383500048774,42.78539900037921],[-73.64403999976398,42.785348000275846],[-73.6441849994872,42.78533500012326],[-73.64451600019586,42.7853450003967],[-73.6451190005963,42.785413999779784],[-73.64581699996131,42.78550400044348],[-73.64594399973349,42.78551599981827],[-73.64615000021789,42.7855170003736],[-73.64632899941303,42.78547700020377],[-73.64674799961794,42.78535799974809],[-73.64749199982975,42.785119000044524],[-73.6478950001346,42.78497400008],[-73.64859800001994,42.784757000441985],[-73.64926699940408,42.78457500034306],[-73.64987400005126,42.7844810001342],[-73.65000000028189,42.78446399987813],[-73.65004300046178,42.78446300029209],[-73.65211899974898,42.78651599999732],[-73.6544689999519,42.79059200029215],[-73.65330600050454,42.791020000081566],[-73.65123999961256,42.79176700031526],[-73.65075600019388,42.79194299976417],[-73.64980799954192,42.79229100036856],[-73.64954699950044,42.792486999753145],[-73.6492739997574,42.792713999725805],[-73.64901799999724,42.79296399994341],[-73.64878000049767,42.793223000199795],[-73.64860599990587,42.79341599965423],[-73.64445500029672,42.79415900008937],[-73.64081500059488,42.79465700016566],[-73.64024900052654,42.7947340002769],[-73.63532600012914,42.79540700016114],[-73.62455599977916,42.796388000118476],[-73.62074599952325,42.79714300004837],[-73.61272900052323,42.79861300021491],[-73.61256800054193,42.798665000377255],[-73.61242800001713,42.79869999994739],[-73.61156499966916,42.798810000294225],[-73.61142199947683,42.79883899991123],[-73.61113099973974,42.79892400039052],[-73.60376799990182,42.799784000429256],[-73.5986349995455,42.8003979998989],[-73.59593399996199,42.80077300005619],[-73.59092600056036,42.80135199974694],[-73.58862299970627,42.80161399985768],[-73.58809800015672,42.801674000378156],[-73.57743899969795,42.802905000193206],[-73.57536299964852,42.803144000339444],[-73.56641999942603,42.80417699983645],[-73.54816799967531,42.80629299975958],[-73.53978200045228,42.80724700029117],[-73.52308999940146,42.8091849996273],[-73.51218399992477,42.81043999978907],[-73.51206899978146,42.81045299992529],[-73.51175499984141,42.81049299967283],[-73.5085520001721,42.81086200044978],[-73.50827600053341,42.81089499969494],[-73.50776500039167,42.81095399957929],[-73.50704200035838,42.81104000019688],[-73.50672399967678,42.81107399955548],[-73.50628900026166,42.811128000198465],[-73.50602299994343,42.8111590001503],[-73.50594400000593,42.811165000434485],[-73.49943199945649,42.81168200022436],[-73.49617599999351,42.81220700024617],[-73.49411099952783,42.812387000163106],[-73.49163299951208,42.81262199977585],[-73.48122399973074,42.81386900044569],[-73.47352499952525,42.81443500042631],[-73.46768899945889,42.81556599994833],[-73.46502800038058,42.81579400017487],[-73.44738400032003,42.81785999992011],[-73.4362229995087,42.819164000286115],[-73.43240600033492,42.81958800035635],[-73.43114999943772,42.81970200027214],[-73.41701100034217,42.82128500034961],[-73.41572499948738,42.82143000042972],[-73.40814799960012,42.82228300023051],[-73.40147499967053,42.82303399998362],[-73.3891819994065,42.82444700041838],[-73.37475800019993,42.82603999956763],[-73.37455000025602,42.82606400038123],[-73.37424399953727,42.82609299998999],[-73.37252500008877,42.82629400043613],[-73.35582799966832,42.82825000028325],[-73.33616899946956,42.83057199999998],[-73.33569700035746,42.83062400029047],[-73.3273489995368,42.831599999748335],[-73.32510199954959,42.83186400039795],[-73.32444700044114,42.83193599988251],[-73.32367400015909,42.83203300008936],[-73.29713900057422,42.8353069995749],[-73.27830600038295,42.8375579997755],[-73.27764499977503,42.853208999549416],[-73.2770699994131,42.86682600005782],[-73.27712200007632,42.86800599976227],[-73.27698100037306,42.871210999835625],[-73.276860000008,42.87395700012314],[-73.27685600025353,42.87401300041506],[-73.27674799948099,42.87507500033404],[-73.27599700013222,42.89269699960056],[-73.27581099968596,42.89710899975936],[-73.2758040005574,42.89724899958754],[-73.27583600022653,42.89764600006618],[-73.27596100016918,42.90122499972276],[-73.27596000022633,42.901252000384105],[-73.27570100024427,42.906493999599604],[-73.27542599941805,42.914790999882065],[-73.27538500024917,42.91601699994053],[-73.2751410004516,42.92307999978473],[-73.27477199948062,42.93385800022351],[-73.27474200029447,42.934433000293176],[-73.27457800056226,42.937593999960434],[-73.27456900021026,42.93778399977785],[-73.27452699970216,42.93861900028363],[-73.27448399951697,42.939847000212566],[-73.2744620004692,42.94045699979026],[-73.27440499974784,42.94211900003986],[-73.27439300041388,42.942484999916495],[-73.27429400005538,42.94365200017706]]]},"properties":{"District":"New York 20","Code":"NY-20"}}
]}