<?xml version="1.0" encoding="utf-8" ?>
<kml xmlns="http://www.opengis.net/kml/2.2">
<Document id="root_doc">
<Schema name="shape" id="shape">
	<SimpleField name="District" type="string"></SimpleField>
	<SimpleField name="Code" type="string"></SimpleField>
</Schema>
<Folder><name>shape</name>
  <Placemark>
	<Style><LineStyle><color>ff0000ff</color></LineStyle><PolyStyle><fill>0</fill></PolyStyle></Style>
	<ExtendedData><SchemaData schemaUrl="#shape">
		<SimpleData name="District">New York 20</SimpleData>
		<SimpleData name="Code">NY-20</SimpleData>
	</SchemaData></ExtendedData>
      <Polygon><outerBoundaryIs><LinearRing><coordinates>-73.2742940000554,42.9436520001771 -73.275579999403,42.9436570001093 -73.3111289997919,42.9438059998105 -73.311207999405,42.9438060003965 -73.3203850003126,42.9438460000432 -73.3296610001136,42.9438859996494 -73.3331069997861,42.9439020003269 -73.3331989995717,42.9439009999365 -73.3487150001837,42.9439669999347 -73.3548900003481,42.9439929998025 -73.3557629999959,42.9439970002044 -73.3669250001137,42.9440440000905 -73.368070000511,42.9440489997113 -73.368152000075,42.9440470001507 -73.3745559998816,42.9438709998703 -73.3748089998258,42.9438650000357 -73.379593000178,42.9437540002605 -73.3802350000002,42.9437390004136 -73.3801819999901,42.9437950001449 -73.3798890004558,42.9440299998094 -73.3795409994011,42.9442050000101 -73.3791580002898,42.94443699985 -73.3788620003045,42.9447329995565 -73.3786320001531,42.9450380001483 -73.3785119998592,42.9453190002059 -73.378490000615,42.945614999641 -73.3785010003999,42.9459359995948 -73.3785559995641,42.9462320003576 -73.3787859999833,42.9467209999089 -73.3790370000268,42.9471620003759 -73.3793660002972,42.9475619997138 -73.3796610002895,42.9477949997225 -73.3799019996467,42.9479309999594 -73.3801759994639,42.9480349995852 -73.380537000573,42.9481229997451 -73.3810190000475,42.9482120000741 -73.3814889997964,42.9482519995478 -73.3817740004595,42.9482440001903 -73.3820589996441,42.9481880003333 -73.3823759995898,42.9480030002167 -73.3826719999536,42.9477790002393 -73.382868999555,42.947618999655 -73.3831409995316,42.9474610002797 -73.3833780003035,42.9473520004471 -73.383796000173,42.9472529998668 -73.3841290005358,42.9472120004254 -73.3844310000211,42.9472220002379 -73.3848139997432,42.9472730000193 -73.3852689997133,42.9473649998414 -73.3857999999731,42.9475189997897 -73.3861950004621,42.9476590003729 -73.3868599997264,42.9478519995494 -73.3873320005759,42.9479629997461 -73.3876920003439,42.9480339997831 -73.3881080003606,42.9480949995671 -73.3885659996235,42.9481560003063 -73.3888990001773,42.9482369999388 -73.3891159997631,42.9483400001291 -73.3893140003521,42.9485109996456 -73.3894369999094,42.9487060004064 -73.3895170000386,42.9489039996964 -73.3895569995044,42.9491829998147 -73.3894670000912,42.9497939996264 -73.3895560000378,42.9501250001472 -73.3896920004204,42.9505869998789 -73.3899250006154,42.950801999783 -73.3907250004491,42.9514579999404 -73.3921019994656,42.9525860004043 -73.3934719994141,42.9530899999829 -73.3935960003805,42.9531130003256 -73.3951409998212,42.953287999882 -73.3973410005966,42.95297599997 -73.3980749998782,42.9530879997146 -73.3993349997763,42.9527679999505 -73.3997159997879,42.952671999635 -73.4000399998599,42.9525890002905 -73.4013210005169,42.9522630002584 -73.4027750003281,42.9514670001266 -73.4031089996316,42.9512850001357 -73.4032249995879,42.9512420002693 -73.403842000475,42.9514769999108 -73.4038840003866,42.9516149997364 -73.4039199994075,42.9517569995791 -73.4045710004572,42.9523219996751 -73.4047899999183,42.952721000234 -73.404803000137,42.9532049999316 -73.404450999813,42.9541730002951 -73.4041060003684,42.9546229997243 -73.4039860001059,42.9548709998938 -73.4045080000465,42.9554899998917 -73.4049160003048,42.9557980000425 -73.4055840005154,42.9561190000138 -73.4062490002248,42.9562969996256 -73.4082130002835,42.9569319996755 -73.4098140000018,42.9571379995977 -73.4121030005202,42.9573830002511 -73.4138979998447,42.9570560003472 -73.4163489994724,42.9566709995691 -73.4178370004916,42.9560869995697 -73.4198060001862,42.955357000241 -73.4206589997907,42.9549029997163 -73.4212279998003,42.9549339996512 -73.4225430001275,42.9552129999751 -73.423879999922,42.9555879995858 -73.4249209995069,42.9559889999756 -73.4254170001029,42.9570919995544 -73.4260660003832,42.957847999753 -73.4268450002141,42.9585150003296 -73.4282910001347,42.958534999996 -73.4306230002162,42.9586499998689 -73.4326919996924,42.9584350000829 -73.433731000118,42.9580049999231 -73.4350319994765,42.9571550002657 -73.4360489994128,42.9567979996362 -73.4373710000928,42.9558600002042 -73.4394900000885,42.9543150003824 -73.4406159996249,42.9536830003313 -73.4416879994052,42.9533090003059 -73.4430010001829,42.9528949997069 -73.4447510003437,42.9524950000068 -73.4463599998061,42.9521680001519 -73.4474429999926,42.9519720001973 -73.4484820002387,42.9514610000042 -73.4492689997349,42.9512170001689 -73.4495960003493,42.9507489997397 -73.4495820000289,42.9499029997341 -73.4494139995849,42.9487269995827 -73.4493780004851,42.9477589995763 -73.4492650001272,42.9468009997136 -73.4490870004037,42.9460189999876 -73.4493259997662,42.9453170000127 -73.4498719997033,42.9448889999874 -73.4505929998485,42.9445809999449 -73.4515019999861,42.9445379997894 -73.452421999559,42.9445749996286 -73.4555970001512,42.9446710002358 -73.4588169995379,42.9447270000948 -73.4610180005516,42.9447529995575 -73.4622990004688,42.944806000318 -73.46319600002,42.9446819995848 -73.4638630001171,42.9445830003182 -73.4644640000536,42.9442590002762 -73.4650010005735,42.944185000142 -73.4651130004876,42.9441839998011 -73.4668729997268,42.9441800001036 -73.4670950000123,42.9441789999299 -73.4695220000118,42.9441720003699 -73.469856999558,42.9441679998311 -73.4728170005449,42.944130000417 -73.4877660001017,42.943918000058 -73.487926999909,42.9439160003282 -73.4960039994638,42.9437939996882 -73.4962200003036,42.9437910001193 -73.496660999936,42.9437780004379 -73.4988210003296,42.9437119999952 -73.4995580003634,42.9436890000891 -73.5037739994971,42.9436230004013 -73.5042540005768,42.9436160004535 -73.5102370002315,42.9434889997989 -73.5137530000544,42.9434229996024 -73.5173229995993,42.9433559997219 -73.5195440003505,42.9433149996829 -73.5198860000623,42.9433089998925 -73.5249799994822,42.9432140003719 -73.5276180001175,42.9431620000676 -73.536462999937,42.942987999679 -73.5402059994092,42.9429150001511 -73.5410319994668,42.9429000000718 -73.5414929999667,42.9428900000937 -73.5420199995984,42.9428799997822 -73.5468320006037,42.9427860002528 -73.5597989995621,42.9425329999494 -73.5598700006008,42.942531999635 -73.562267999616,42.9424850003263 -73.5743950005619,42.9422479999655 -73.5772730002078,42.9422109998872 -73.5850149998486,42.9421129999927 -73.5873480003808,42.9420839995662 -73.594806000269,42.9419129998917 -73.5980279996693,42.9418389998769 -73.6001750001001,42.94179000041 -73.6145929998322,42.9414590001313 -73.6245609995842,42.9412220000442 -73.6299339999666,42.9412239999489 -73.6320139999252,42.9412480000725 -73.6331500005698,42.9412569996378 -73.6354630001913,42.9412900003995 -73.6349480005966,42.9416149999628 -73.6340059998986,42.9423369998971 -73.6332379996982,42.9431790002283 -73.6323050003316,42.94437899992 -73.6312420004921,42.9463220000254 -73.6310500004703,42.9470099998052 -73.6302759998075,42.9486779996245 -73.6296530001375,42.9502650000535 -73.6293200005889,42.9515029999396 -73.6290059995554,42.9536509997786 -73.6288819994961,42.9554049997475 -73.6288789997699,42.9554569999445 -73.6287079998778,42.9591509995925 -73.6290709997756,42.9609700002843 -73.6297860004264,42.9626069996771 -73.6303730006136,42.9647949995728 -73.6314670003484,42.9697389995775 -73.6311239994835,42.9706200004157 -73.6307450001089,42.9711329999582 -73.6301410004606,42.971634999974 -73.6294249999368,42.9721469999159 -73.6288220002498,42.9724939999662 -73.6278930001687,42.9729590004086 -73.6263499999018,42.9736610004461 -73.6254589999497,42.974024999978 -73.6245610001895,42.9742599999378 -73.6164469998203,42.9783460000647 -73.6105500001377,42.9812370001941 -73.6103339995208,42.9813430003469 -73.6092820004907,42.9822410001484 -73.6088569998584,42.9828340003967 -73.6086909996915,42.9832469996011 -73.6085719997971,42.9838520002897 -73.6078950002106,42.9916279996147 -73.6075900002411,42.9947949999157 -73.6070030003113,42.9980939999947 -73.6066990002447,42.9992410004299 -73.605863000229,43.0000759998346 -73.6051240004311,43.0013779996399 -73.6040020002296,43.0025189995593 -73.6018259994168,43.004269000297 -73.5999920000905,43.0054480003051 -73.5987059996977,43.0064190004007 -73.5971129998389,43.0076229997814 -73.5962430001309,43.0088839997814 -73.5953269996303,43.0106120003574 -73.5944430002763,43.0126619998084 -73.593709999896,43.0141759997146 -73.5936350002687,43.0143299996736 -73.5950179999967,43.0142880001096 -73.595178999428,43.0142960000904 -73.5981669996078,43.0144540001043 -73.5981919999339,43.0143759999592 -73.6175040005612,43.0144640001475 -73.6186299997564,43.0144489995491 -73.6219609994651,43.0144909999051 -73.6237069995412,43.014498000024 -73.624560999564,43.0145090000645 -73.645786000459,43.01489100018 -73.6472609995342,43.0149169996723 -73.6503400002256,43.0149769998163 -73.6519339998671,43.0149989999196 -73.6559149999637,43.0150689995605 -73.6558639994992,43.0161210001312 -73.665307000516,43.0160899999112 -73.6698349998205,43.016278999791 -73.6719769995863,43.016317999567 -73.6741319997162,43.0162999999278 -73.6774930004856,43.0162980000604 -73.6807679998559,43.0163859999403 -73.6813309994109,43.0163829996309 -73.6817420000154,43.0163919997317 -73.6818810000576,43.0164090001717 -73.682115000128,43.016456999812 -73.6922959995888,43.0163809999853 -73.7023949996524,43.0164470003802 -73.710717999841,43.016522000074 -73.7208620000863,43.0166900004503 -73.721658000336,43.0167060001097 -73.7221909998864,43.016707000242 -73.7228830000207,43.0167069998642 -73.7233689998779,43.0167080003626 -73.7238050001825,43.0167130003906 -73.7238960002877,43.0167119998995 -73.7248159999198,43.0167079997372 -73.7275300004991,43.0166990003219 -73.7277210003721,43.016706999696 -73.7437030003186,43.0167090000553 -73.7434959997804,43.0171139996603 -73.7425250005204,43.0187680002661 -73.7412940002903,43.0200830001661 -73.7400380002595,43.0220089999701 -73.7392849996231,43.0237920001697 -73.7388730000805,43.0252220000774 -73.738704000583,43.0262740002409 -73.7382979999869,43.0265469995608 -73.7342719998767,43.0290610001897 -73.7306289998362,43.0314309997684 -73.7283129997398,43.0330970003681 -73.7271120000702,43.0349099999776 -73.7255269996331,43.0383810001113 -73.7246440003062,43.040314000242 -73.7244589994877,43.0408470003618 -73.7241770005733,43.0416629997825 -73.7239079997888,43.0428920002693 -73.7240460004384,43.0436400002117 -73.7242480005625,43.04397599979 -73.7244540005684,43.0443300001838 -73.7256459995014,43.045655000033 -73.7269720001181,43.0473799999444 -73.7272139997398,43.0476820000313 -73.7274249995729,43.0486380001359 -73.7272149995016,43.0504919995798 -73.7266530004698,43.0524710003753 -73.7260130004835,43.0531529999055 -73.7253319998335,43.0533949996577 -73.7245649998144,43.0534839997891 -73.7235029996572,43.0534409996982 -73.7225709997333,43.0536079997567 -73.7218009995474,43.0539709996345 -73.7211629994242,43.0542879996621 -73.7200809995535,43.0550610004023 -73.7184260001519,43.0568619997829 -73.7181419995998,43.057161000428 -73.7156759997113,43.0598319999257 -73.7142569994645,43.0613469997205 -73.7130689995814,43.0623810003336 -73.7110570003524,43.06416799973 -73.7099919997306,43.0648799996795 -73.7090590001493,43.0653599999292 -73.7077549993817,43.0658710003132 -73.7066350001257,43.0664949998198 -73.7057230002722,43.0672480003984 -73.7050709997487,43.06825899977 -73.7043450004826,43.069037000389 -73.7027310001384,43.0699170004268 -73.7022909996639,43.0704219998812 -73.7022439998265,43.0709919995697 -73.7023040001165,43.0719730004194 -73.7021930004325,43.0722540001632 -73.701852000264,43.0724779996638 -73.7016109995918,43.0725419998449 -73.6991560002513,43.0730169999876 -73.6982469995002,43.0732639997133 -73.6972600001371,43.0736069995557 -73.6962969995737,43.0739850003552 -73.696145000423,43.0740440004284 -73.695779000089,43.0741890001549 -73.6955259995167,43.0742630000158 -73.6950839994864,43.0745279999155 -73.6950230003002,43.0745719996073 -73.6950470003447,43.0747970001113 -73.6958770000865,43.0778310004335 -73.6960580004137,43.0788830003135 -73.6962170000049,43.0798140000183 -73.6977239996354,43.088002999712 -73.6978380004486,43.0885839995965 -73.6994309994464,43.0974229997829 -73.6996899997428,43.0988240001768 -73.7002320004291,43.1022289999533 -73.7002849994057,43.1024570004234 -73.7000690003911,43.1024729999696 -73.6905260005814,43.1034099999896 -73.6890920004259,43.1035540002334 -73.6857830005491,43.1038290000707 -73.6846389999266,43.1039400004195 -73.6725459998997,43.1051249999201 -73.6677070002277,43.1055749996981 -73.6680910002806,43.1076909997834 -73.6690009997092,43.1127539996337 -73.6692560003661,43.1140559998081 -73.6693200005208,43.1145700003235 -73.669338000521,43.1147770000574 -73.6694750004117,43.1159610000879 -73.6709839996643,43.1240409997651 -73.6711739998547,43.1250600003042 -73.6731079995928,43.1350369998066 -73.6732819997813,43.1360379999985 -73.6733409999199,43.1363669996834 -73.675568999846,43.1491550002137 -73.6756919996321,43.1491979997172 -73.6768719994284,43.149601999769 -73.677047999659,43.1496799997241 -73.6773139999058,43.1498250003082 -73.6779489999685,43.1501510003138 -73.6787420003407,43.1506169996464 -73.6793719998881,43.15096399956 -73.679606999963,43.1511270001997 -73.6798210005762,43.151313000035 -73.6800609994654,43.1515750000889 -73.6814389997024,43.1531560002194 -73.6817980002318,43.1529829998951 -73.683110000532,43.1524409999058 -73.683449999466,43.1522999998186 -73.6838599999219,43.1521159998567 -73.684413000617,43.1518019997783 -73.6849420004957,43.1514220003457 -73.6852420002808,43.151163000405 -73.6856000003198,43.1507889998592 -73.686304999402,43.1499960003839 -73.6871880002861,43.1490270001466 -73.6873699994853,43.1488430001471 -73.6878339997898,43.1484410000712 -73.6882509995234,43.1481079997626 -73.6889100003133,43.1476339998585 -73.6893340004483,43.1473789997503 -73.690277999763,43.1468810003491 -73.691344000349,43.1462940004346 -73.6916549996569,43.1461039996769 -73.6922040002557,43.1457090003351 -73.6926429996715,43.1453120002163 -73.6929400002883,43.1449999995736 -73.6932309997896,43.1446709998417 -73.694170000271,43.1436970003612 -73.6944619999704,43.1434140003705 -73.6958330001191,43.1422100002609 -73.6973129996701,43.1409280002329 -73.6974410000899,43.1408189995677 -73.6983960000302,43.1399909996897 -73.6986349995504,43.1397830001891 -73.6988099997046,43.1398659998433 -73.6989910004412,43.1399059997188 -73.699655999726,43.1400839996947 -73.6998609996584,43.1401060004077 -73.7002100003258,43.1401610003284 -73.7008520004881,43.1401940001651 -73.7025250004473,43.1402060004514 -73.7042890000467,43.1402460003821 -73.7052960003093,43.1402829996634 -73.7060660002028,43.1402949996979 -73.706222999828,43.1402920001002 -73.7064380004936,43.1402699997266 -73.7069570001477,43.1402009998838 -73.7074449995379,43.1400930000961 -73.7079890005031,43.139997999566 -73.7081129998033,43.1399680004326 -73.7081900003603,43.1405310001628 -73.7082620004043,43.1408390000233 -73.7083280000834,43.1410179998611 -73.7083959998071,43.1411459997191 -73.7085660000387,43.1414049998986 -73.7089479996885,43.1420359999563 -73.7090609998737,43.1422689997284 -73.7091439994157,43.1424709998258 -73.7093360004593,43.1431429996792 -73.7094489999368,43.1436380001219 -73.7096100000026,43.1445830002722 -73.7096929998051,43.1452940001259 -73.7097560001302,43.1456260002213 -73.7099429997005,43.1464229997033 -73.7101840001027,43.1473910000817 -73.7102410005174,43.1475560002154 -73.7103260003893,43.1477589997574 -73.7111529994865,43.1492369996801 -73.7115510004867,43.1499389998027 -73.7192380001894,43.1491429997337 -73.7222780003737,43.1488510002262 -73.7221060001946,43.1481119996438 -73.7220390000602,43.1478290004399 -73.7219159996854,43.1472999999518 -73.7218289995255,43.1468820000583 -73.7212230002822,43.141070000386 -73.7264399993957,43.1405109997235 -73.7273459997801,43.1451340003608 -73.7276489997163,43.1464339997474 -73.7300039999299,43.1467310000659 -73.7299229996247,43.1462460003074 -73.7298700004274,43.1457710004054 -73.7312239994842,43.1456640001882 -73.7315369994177,43.1456299997498 -73.7318430003425,43.1455529999004 -73.732083999617,43.1454349998533 -73.7348989993943,43.1436059999162 -73.7351599996223,43.1438049995708 -73.7352770003744,43.1438699996437 -73.7354010003652,43.1439159995712 -73.735642000202,43.1439750004125 -73.7368029998812,43.1441969997994 -73.7374670004492,43.1443349996681 -73.7388070003071,43.144581999765 -73.7395720003396,43.1447329996342 -73.7397490000253,43.1447970001823 -73.7398660002079,43.144852000318 -73.7400289994079,43.1449920000096 -73.7401019997502,43.1451639998439 -73.7401290002447,43.1452549999003 -73.7401610000381,43.1455210004303 -73.740200000333,43.1456409999279 -73.740299000101,43.1457660003582 -73.7405200005356,43.1459220000208 -73.7407950005261,43.146070000427 -73.7411710001372,43.1456210003352 -73.7420160003102,43.1447019997609 -73.742774999859,43.1439590003368 -73.7435360005934,43.1431969997638 -73.7443840001821,43.142300000084 -73.744931000337,43.1418359998763 -73.7460870003734,43.1408749996557 -73.7463720002998,43.140623999768 -73.7471800001621,43.1399550003421 -73.7475320002038,43.1396859995631 -73.7478230005448,43.1394529999989 -73.7486019996309,43.1388700003533 -73.7509010005504,43.137039999731 -73.7515049997773,43.1365729996471 -73.7522470004106,43.1369669996039 -73.7525620003492,43.1371329998106 -73.7531789999144,43.137427000045 -73.7534010002139,43.1375190001162 -73.7531179998743,43.138048999758 -73.7530670005851,43.1381610003404 -73.7530499998378,43.1382729995717 -73.7530499998079,43.1383619996199 -73.753084999995,43.1384539997189 -73.7531569995043,43.1385799996946 -73.7534500003594,43.1389670002612 -73.7535590004964,43.1389380004146 -73.7537899999771,43.1389090003652 -73.7539929996512,43.1389049999911 -73.7554520004161,43.1390020000439 -73.7556480000999,43.13777099996 -73.7561370000518,43.1378009995852 -73.7579970000663,43.1379550003599 -73.7591359994173,43.1380389996895 -73.7603160000958,43.1380940000062 -73.761114999514,43.1381389999799 -73.7616249997165,43.1381950003105 -73.7619979995766,43.1382450000712 -73.7619179998861,43.1386029999248 -73.7619900002059,43.1391930000534 -73.7620230006123,43.1393060000302 -73.7620719995596,43.1394049996644 -73.7621250000875,43.1394839998454 -73.7622620000518,43.1396310003556 -73.76233400058,43.1396869999057 -73.7624259995836,43.1397440000569 -73.7625790002159,43.1398129996083 -73.7627259995438,43.1398640002319 -73.7630059996223,43.1399430000533 -73.7639899994837,43.1401960002287 -73.7641769994181,43.1396139997143 -73.7644600003646,43.1385670002642 -73.7647419996315,43.1386089998844 -73.765397999773,43.1387140002243 -73.7676719994312,43.1390179999822 -73.7682679997954,43.1391069997982 -73.7686569995377,43.1383109996849 -73.7687380003726,43.1383759995741 -73.7698849996643,43.1389529997205 -73.7703769996233,43.1391759997857 -73.7706099997837,43.139245999693 -73.7721340000592,43.139449999716 -73.7723899998815,43.1394980002523 -73.7740440004522,43.1399560001752 -73.7743040005291,43.1399990002468 -73.7780120001018,43.1403560002347 -73.7775090000306,43.1372109996678 -73.7764030003545,43.1302819998339 -73.775451000288,43.1241750003098 -73.774849999802,43.1203159997028 -73.7737119999663,43.1130160003836 -73.7735200002097,43.1118519996805 -73.7733840001585,43.1110409998272 -73.773082000188,43.1090310003046 -73.7723930000231,43.1049760000402 -73.7724139997966,43.1046749999987 -73.7724099994232,43.1027219998991 -73.7715910001371,43.1027039995697 -73.7708760005033,43.1026929997944 -73.7708590003936,43.1023930000542 -73.770902999421,43.1016200000991 -73.7708749997312,43.1015729995726 -73.7708400002405,43.1001099997916 -73.7707930004707,43.0987090001957 -73.7709799995169,43.0986910003888 -73.7707549999084,43.0967189995762 -73.7706730001491,43.0959020002972 -73.7707360001429,43.0958980000811 -73.7719790004979,43.0957999999287 -73.7728100004942,43.0957299997126 -73.7730769998223,43.0957060000275 -73.7760670002966,43.0953580004189 -73.7784750003902,43.0950789996965 -73.7799539994405,43.0949530003951 -73.7797989997026,43.095282999726 -73.7793910001834,43.0962670003081 -73.7792649994427,43.0965660003102 -73.779122000247,43.0969330004066 -73.7787800003295,43.0977869999113 -73.7786420002411,43.0981140002484 -73.7779830004812,43.0996360004095 -73.777795999513,43.1000670002835 -73.7774290002495,43.1008460001284 -73.7770729997662,43.101504000005 -73.7768189995059,43.1019519998096 -73.7765130003549,43.1024899996388 -73.7763500004813,43.1029959996124 -73.7755750001362,43.1044000003624 -73.7755839994213,43.1078819997027 -73.7787689999698,43.1075730003701 -73.7789569998589,43.1074740002536 -73.7807909995482,43.1061569999165 -73.7812480002851,43.1062359998479 -73.7819829999998,43.1057900000355 -73.7851000003924,43.103779999797 -73.7856799995361,43.1034920002272 -73.7868689999238,43.1029980001746 -73.7881559997051,43.1021270000344 -73.7898280001616,43.1009990000385 -73.7901199999518,43.1012480000734 -73.7918529995956,43.0999319998666 -73.791357999693,43.099577000445 -73.7909860003782,43.0992839999998 -73.790689000012,43.099034000144 -73.7904719994255,43.0987850001232 -73.7903380002588,43.0985590002321 -73.790210000119,43.0982829996296 -73.789316000145,43.0950819996966 -73.7890440003808,43.0944689998811 -73.7890039997773,43.0942690003415 -73.7925819995873,43.0939979996732 -73.7941930005806,43.09372899978 -73.7957129998619,43.0934770001712 -73.7960509997256,43.0935359998421 -73.7963460005097,43.0935839997494 -73.7968150002775,43.093585000189 -73.7984119998647,43.0934959995886 -73.7993260005498,43.0934200002616 -73.8006470001571,43.0932859995596 -73.8017780003324,43.0931910001082 -73.8024879994543,43.0931329998095 -73.8028939994594,43.0930960000074 -73.8085109994739,43.0926780003585 -73.8096789999291,43.0925630003805 -73.8134719996438,43.0922139996311 -73.815252000326,43.0920619996219 -73.8167290005931,43.09191699982 -73.8168730002259,43.0919150004509 -73.8172240005017,43.0918730001799 -73.817804999515,43.0918190001671 -73.8216780000819,43.0914850000998 -73.8231149997225,43.0913869999359 -73.8241959996798,43.0912749998799 -73.8244390000149,43.0912310003958 -73.82688000031,43.0909089998531 -73.8273680004246,43.0908700001529 -73.8277340004164,43.0908359996434 -73.8290919999047,43.090695999828 -73.8304079999194,43.0905339997314 -73.8305379998327,43.0905409997496 -73.8307480004052,43.0905350001809 -73.8308980004798,43.0905439997312 -73.8311599999876,43.0905759997573 -73.8314339994942,43.0905289999937 -73.8332779999946,43.090381999575 -73.8371139997094,43.0901130000922 -73.8372749994195,43.0900800001298 -73.8375520000934,43.0900400003341 -73.8391149997184,43.0897899998043 -73.8392330001725,43.0898750003367 -73.8393369994671,43.0899029995724 -73.8409419999931,43.0897629996012 -73.8410420004615,43.0897540000873 -73.8412389998879,43.0897559998275 -73.841402999819,43.0897449998021 -73.8415820002073,43.0897280002166 -73.8419520003802,43.0897070003498 -73.8424089998311,43.0896779998385 -73.8447019995493,43.0894710002434 -73.8456929999479,43.0893789999332 -73.8461510003884,43.0893460000221 -73.8465120002994,43.0893079997841 -73.8478760005319,43.0891720002365 -73.8488129996616,43.0890749996386 -73.8520509998606,43.0887959996218 -73.8607319999269,43.0879420002207 -73.8621129996067,43.0878299997152 -73.8658290000326,43.0876300003752 -73.866061999725,43.0875890000554 -73.8671189998648,43.087492000318 -73.8692650005539,43.0873530002238 -73.8713639996901,43.0872019997738 -73.872380000065,43.0871740003507 -73.872772999762,43.0871819995975 -73.8729450002802,43.0872119997338 -73.8732920004014,43.0871929996422 -73.8739330004921,43.0871270000676 -73.8747689999723,43.0870149999855 -73.8791789998896,43.0864279997983 -73.8858799995566,43.0858249998865 -73.8892249994348,43.0855290002041 -73.897216000156,43.0848420003619 -73.897641999492,43.0848180002623 -73.9137459999353,43.0834969997427 -73.9227659997378,43.082616000133 -73.9237029995079,43.0825710001214 -73.9266649995743,43.08241400027 -73.926843999492,43.0823829997022 -73.9279679999747,43.082303999783 -73.9290069996568,43.082246000302 -73.9300360003616,43.0821739997921 -73.9340390002942,43.0817540002467 -73.9354460002045,43.0816340000633 -73.9360409999637,43.0816029996383 -73.936729999384,43.0815650002902 -73.9379739995329,43.08143900043 -73.9383189998315,43.0813740001406 -73.943920999915,43.0809260001277 -73.9448769997908,43.0808400001518 -73.949695999562,43.0804090001833 -73.9598300004331,43.0794379996148 -73.9606310004055,43.079386000085 -73.9647970005681,43.0791259999067 -73.9686520003204,43.0788160002369 -73.9695770004842,43.0787359996179 -73.9790590002313,43.0779130002833 -73.9868630004888,43.0771699997754 -73.9911080002858,43.0769059998164 -73.9995849994152,43.0761129997471 -74.0036749999342,43.0757970001514 -74.0066179994954,43.0755079999293 -74.0093119999324,43.0752799998036 -74.0181540002784,43.0745929995967 -74.0271369998527,43.0737419997947 -74.0446479994317,43.0722810000326 -74.0538900003676,43.0714890001789 -74.0690299997398,43.0702340002624 -74.0714740003999,43.070005999781 -74.0775909997274,43.0695050002789 -74.0801150001278,43.0693230004299 -74.0938469995773,43.0681440001679 -74.1007199995835,43.0676410001559 -74.1106199994449,43.0667530004222 -74.1103180003973,43.0648679996161 -74.1099360003574,43.0624890003516 -74.1099139998405,43.0623560004056 -74.1095559997286,43.0601160000055 -74.1091519996166,43.0575530003519 -74.1080619999798,43.0506289997163 -74.1080559994843,43.0505940002938 -74.1067370004185,43.0422190001081 -74.1065429999402,43.0409859995605 -74.1059830004211,43.0374300002097 -74.1058999996345,43.0369069995501 -74.1051959999067,43.0324360003212 -74.1051809997556,43.0323379999979 -74.1048990004687,43.0305450001064 -74.1049160001647,43.0288879995745 -74.1038060003348,43.0226099996534 -74.1036819995599,43.0219069996085 -74.1034739996244,43.0208870000292 -74.1033539999074,43.0202930000423 -74.1031600001743,43.0193469996901 -74.102723999941,43.0163799995822 -74.102704999739,43.0162479996034 -74.1025240000838,43.0150149997358 -74.1024590002838,43.0146140003237 -74.1023300005502,43.013826000205 -74.102240999905,43.0129639999225 -74.1022219994492,43.0127870000421 -74.1020299998263,43.0117710002766 -74.1020599996657,43.011558000114 -74.1018619995956,43.0109179995665 -74.1017609994974,43.0103859995512 -74.1017510004326,43.0103229995676 -74.101391000296,43.0079790002843 -74.1011480002758,43.0063560002053 -74.1009569999258,43.0050780003437 -74.1007750005289,43.0038539997904 -74.1002110005268,43.0000740003656 -74.09961899968,42.9962859996889 -74.0994379999111,42.9954619997041 -74.0992910002209,42.9945189999248 -74.099278999503,42.9944390003408 -74.0981039994508,42.9868839998225 -74.0980830003455,42.9867739999827 -74.0974669996342,42.982934000075 -74.1049779999625,42.9828469995895 -74.1055809999375,42.9828989997745 -74.1059960001768,42.9828970002747 -74.1124789997263,42.9828180000137 -74.1216050005288,42.9828510001656 -74.1245729996049,42.9828399998891 -74.1303210001795,42.9828170001268 -74.1321190001509,42.9828370002039 -74.1420769995356,42.9829869998049 -74.1423020001008,42.9829949995666 -74.1433459998424,42.9830340000728 -74.1435710005691,42.9830330004007 -74.1437999996891,42.9830289999995 -74.145341999551,42.9830539999771 -74.146237999696,42.9830700001102 -74.148921000437,42.9830599998888 -74.1489419994097,42.9830609998067 -74.1504750001516,42.9831150004322 -74.1616419996814,42.9832479998707 -74.1626289998191,42.9832590000896 -74.1629499997099,42.9832629996503 -74.1665529996207,42.9831669998761 -74.1669340005696,42.9833080002315 -74.1704209999027,42.983348999752 -74.17106299946,42.9832719997278 -74.1725569996047,42.9833850004064 -74.1803950005517,42.9834449998943 -74.1853730004043,42.9833750003618 -74.1855600003459,42.9833739997575 -74.1881939999199,42.9833519996698 -74.1902949995228,42.9833779999155 -74.2068109994375,42.9835780002655 -74.2111689995384,42.9836219999113 -74.2134839996861,42.9836259998016 -74.2263369996386,42.9837380002481 -74.2323299999544,42.9838229999285 -74.2323829999113,42.9838229996928 -74.2471069999639,42.9839809999657 -74.2498070002689,42.9840510003578 -74.2535810000773,42.9841280001271 -74.2616550005251,42.9842359998414 -74.2685919999987,42.9843220004069 -74.2719779997579,42.9843730000685 -74.276451999746,42.9844090002593 -74.2766890003591,42.9844049997405 -74.2802750006047,42.9843140001353 -74.2808850006088,42.9843989996406 -74.285932999831,42.9844150001341 -74.2861359996775,42.9844159998668 -74.2879490001414,42.9844099997969 -74.2893039995782,42.9844150003674 -74.2891930006091,42.9837279999076 -74.2891119998408,42.9832440004069 -74.2889310000222,42.9821870003621 -74.2886989999271,42.9807199999279 -74.2885869998141,42.9802620002139 -74.2885599993997,42.9798000000702 -74.2873709998797,42.971947000112 -74.2865440004263,42.9667860002572 -74.2862630002581,42.9654619999379 -74.2853249998201,42.9586290002958 -74.2852959999354,42.9584480003217 -74.285207999725,42.9578299995521 -74.2850639993952,42.9574220000813 -74.2850359999226,42.9572929999394 -74.2850379995553,42.9569749997751 -74.285032999475,42.9568540002344 -74.2848850001739,42.9558969997644 -74.28474599973,42.9550840000682 -74.2847010002377,42.9547650000974 -74.2840160003544,42.9499249998419 -74.2838599999893,42.948563999721 -74.283507999957,42.9476749996682 -74.2839520001594,42.9473740000942 -74.2861490002213,42.9457310002107 -74.2869150002461,42.9457339997269 -74.2879649996048,42.9449719998149 -74.2883719994556,42.9447740001318 -74.2914110002429,42.9433149995553 -74.2929280002668,42.9416670001966 -74.2921779997034,42.9412440000463 -74.2914779999085,42.9409820001606 -74.2905479996891,42.9405719995742 -74.2898740004809,42.940346000443 -74.2887879995674,42.9401140000966 -74.288071000199,42.9399039999478 -74.2873110003499,42.9397340003525 -74.2863390001563,42.9395750004126 -74.2854179995224,42.939522000261 -74.2844659998895,42.9393729996097 -74.2837490005664,42.9391869998832 -74.282706000139,42.9388500002822 -74.2819680004012,42.9384840000277 -74.2818610002022,42.9384249998325 -74.2813949996826,42.9380370004467 -74.2809029997154,42.9375540000207 -74.2808680004801,42.9373869996097 -74.2808070003724,42.9372880002146 -74.2807079997385,42.9370290000618 -74.2805200001695,42.9367839999672 -74.2802659997261,42.9363839996817 -74.2799200005313,42.9358529995901 -74.2795530001839,42.9350730001764 -74.2792399994885,42.9343939998841 -74.2791879995642,42.934279000082 -74.2791470002595,42.9340829998374 -74.2790270001957,42.9336339996313 -74.2789060004729,42.9331140000202 -74.2786839997389,42.9325849998652 -74.2785900002978,42.9322349997942 -74.2783540002925,42.9316679999363 -74.2782869999319,42.9314780003047 -74.2781310002536,42.9309849997777 -74.2780729993951,42.9303059998048 -74.2782139999062,42.929793999838 -74.2783180002599,42.929226999773 -74.27850800059,42.9288540001701 -74.2787609996092,42.9284620000757 -74.2790490001961,42.9281989998059 -74.2796120000989,42.9278839995939 -74.2800589994197,42.9278250003805 -74.2809519996026,42.9278060002871 -74.2818689999253,42.9278899997384 -74.2827099995316,42.928018000195 -74.2833259999693,42.928181999751 -74.2837699994195,42.9283249996474 -74.2842269994703,42.9284139995739 -74.2845999994986,42.9283630000551 -74.2850110003596,42.9282469997552 -74.2854610001184,42.9280320001335 -74.2857970005578,42.928003000371 -74.2865920003659,42.9278089996411 -74.2874869994925,42.9275879997454 -74.2880639995244,42.927380000131 -74.288746999569,42.9268879997233 -74.2889739997148,42.9266850001078 -74.2891830000623,42.9263820003804 -74.2891989993988,42.9259030002215 -74.2892180005188,42.9253850002144 -74.2890269994176,42.9249979998406 -74.2889570001964,42.9242279995564 -74.2887119995504,42.9234550000864 -74.2883659997286,42.9228200003216 -74.2880960000208,42.9222400001675 -74.2876980003385,42.9218609996152 -74.2872859993901,42.9215549999912 -74.2870370002911,42.921407000295 -74.2869379998007,42.9212149996334 -74.286717000503,42.920653000049 -74.2864699995115,42.920166000428 -74.2861739998101,42.9194760001364 -74.2860410001018,42.9189610000441 -74.2859969994488,42.9186979998715 -74.2859970001539,42.9182459999114 -74.2862489995898,42.9177229996497 -74.2863250001694,42.9176520003645 -74.2863030003998,42.9174629996052 -74.2863680005985,42.9168020003501 -74.2864109997449,42.9160499998618 -74.2866810005523,42.9151089995984 -74.2867379999063,42.9140000002291 -74.2865810004749,42.9133660004453 -74.2859359997613,42.912618999737 -74.2851610002051,42.9121820000151 -74.2843330001078,42.911964999674 -74.2834309995606,42.9117849998007 -74.2822620000633,42.9117039997053 -74.2814799996986,42.9117729995953 -74.2805850002897,42.9117840003363 -74.2787029999305,42.9119810003148 -74.2780109999725,42.912053999722 -74.2768650006016,42.9121200000104 -74.2757960003002,42.9120669997927 -74.2749470004886,42.9121600000237 -74.2739080004444,42.9119199996076 -74.2730510003628,42.9113399998464 -74.272965999909,42.9109000002134 -74.2723680000515,42.910411000037 -74.271922000042,42.909839000145 -74.2714880003236,42.9092670000925 -74.2711929998365,42.9086500001577 -74.2708979996433,42.9078680001673 -74.2707519998301,42.9072620003239 -74.2705480005213,42.9062060000519 -74.2705530001739,42.9056570002182 -74.2705459994141,42.9049150003651 -74.2706120000874,42.9045029995722 -74.2708410002589,42.9038169996926 -74.2711819998391,42.9032430002803 -74.2715859995109,42.9025220001171 -74.2720509997102,42.902022999581 -74.2726889998042,42.9015719998796 -74.2737729995748,42.9011979998135 -74.2748689997105,42.9008789998361 -74.2756859993977,42.9007130003016 -74.2764589995016,42.9004990001257 -74.2771989999636,42.9003180002265 -74.277909999722,42.9000949996933 -74.2783240002072,42.8998799997456 -74.2785169996632,42.8998649996858 -74.2788589998983,42.8997859997301 -74.2794659999358,42.8995649998676 -74.2799390005086,42.8992680002526 -74.2805090000265,42.8990180003998 -74.2813480000458,42.8986339999515 -74.2820099999239,42.898247999949 -74.2829000002539,42.8977539996178 -74.2836030000257,42.8972490002813 -74.2840990005814,42.8970169998094 -74.2845689999352,42.8967660003102 -74.2849269996862,42.8964769998043 -74.2854039994286,42.8959789999646 -74.2860250003569,42.8952360001759 -74.2860510002719,42.8950780003319 -74.2861049995184,42.89504699987 -74.2861629996134,42.895048000007 -74.2866489999402,42.8943820003291 -74.287141000591,42.8937560000671 -74.2875940002513,42.8931930002907 -74.2877800002549,42.8928019997307 -74.2879689999736,42.8923009999677 -74.2878519993953,42.8915590003442 -74.2876810000976,42.8909449995932 -74.2873740003712,42.8903210000423 -74.2871009994337,42.8898070001712 -74.286420999488,42.8891350001936 -74.2859430000076,42.8888929998346 -74.2851919996393,42.888605000199 -74.2844250005663,42.8884459997797 -74.2837830003684,42.8883689997186 -74.2827759998403,42.8884659996213 -74.2820779996276,42.888673999953 -74.281640999793,42.8889300000777 -74.2812249997706,42.8893430002596 -74.2807240002261,42.8897729998362 -74.2800689994059,42.8904710000587 -74.2797039997021,42.8909489997069 -74.2792900003161,42.8913160003646 -74.2788009997061,42.8917100001277 -74.2782259997482,42.8919649996404 -74.2778040002133,42.8920729996796 -74.2774310005726,42.8920810002397 -74.2770489999787,42.8919499996025 -74.2766580005543,42.8917009996298 -74.2762930002974,42.8913599997722 -74.2759669994316,42.8909739996194 -74.2757870004008,42.8906710001906 -74.2757839994385,42.8903049995955 -74.2758309997046,42.8899750002206 -74.2759299996951,42.8895660000993 -74.276309999915,42.8889109999182 -74.2764449999736,42.8887199998843 -74.2767869996609,42.8882319999522 -74.277296999723,42.8875590001898 -74.2775529997411,42.8872649999902 -74.2782190001628,42.8863940001711 -74.2785509995301,42.885912000312 -74.2788090004898,42.885346000017 -74.2790069997252,42.8846880003241 -74.279064999585,42.8841099999691 -74.2790970005446,42.8836980001433 -74.2790419996541,42.883221000257 -74.2787350002159,42.8820539997458 -74.2784870001276,42.8811169996515 -74.2781870003666,42.8803080000054 -74.2778369996874,42.879580999955 -74.2774610000567,42.8788249999323 -74.2769839999088,42.878135000373 -74.2764870005391,42.8771850003459 -74.2760719997555,42.8765040003141 -74.2757820002412,42.8758690002734 -74.2752159998831,42.8752260001517 -74.2751269994493,42.874466000126 -74.2750549999928,42.8740720001891 -74.2748409995907,42.8736920000018 -74.2744329995733,42.8732600003609 -74.2740730003811,42.8729939999552 -74.2734300000362,42.872629999812 -74.2733839998648,42.8726429996023 -74.2717299998675,42.8731239996339 -74.2709219997692,42.8728670003541 -74.2696110005885,42.8721259997449 -74.2684859998311,42.8713919999269 -74.2678689999374,42.8711309996593 -74.2666389999734,42.870609999923 -74.2652399998132,42.8700379999303 -74.2643559996045,42.8693860000278 -74.2640170000938,42.8688770000392 -74.264433000171,42.8682419997496 -74.2664409994873,42.8678789997977 -74.2677480002513,42.8679810004364 -74.268991000173,42.8680820002931 -74.2700270003483,42.8680290002381 -74.2710749995399,42.8677510000448 -74.2718059997588,42.867342000426 -74.2724290003102,42.8666990001182 -74.2731289998497,42.8660169999062 -74.2745469999169,42.8655860000348 -74.27558499975,42.8650900004154 -74.2766329994754,42.8642549996425 -74.277290000019,42.8633229998228 -74.2776209996506,42.8627199997367 -74.2778049996586,42.862388999981 -74.2779410005296,42.8611450002511 -74.2778129996786,42.8602889997911 -74.2774549998537,42.8600890000153 -74.2770619996519,42.8595689996297 -74.2761910001627,42.8589300000484 -74.2759639995981,42.8583969996236 -74.2757579996265,42.8578720003454 -74.2756720001819,42.8575159997739 -74.2753460005767,42.8572009995772 -74.2749750003431,42.8570869999785 -74.2743959996537,42.8571190000104 -74.2736410004963,42.8574770003709 -74.2736159998747,42.8574869996929 -74.2727870002446,42.8580449999598 -74.2718369999119,42.8581160001274 -74.270320000466,42.8578710003826 -74.268933999464,42.857464999771 -74.2673970004066,42.8568410003113 -74.2666120002395,42.8563550000522 -74.2655889997474,42.8556829996938 -74.2651979994367,42.8551089999065 -74.2651229999662,42.8546489997844 -74.2650270004238,42.8541080002022 -74.2650729999565,42.8535830003887 -74.2651939994395,42.8531880001098 -74.2654580002588,42.8527359998325 -74.2659950000644,42.8523729996331 -74.2668259999458,42.85214900044 -74.267569000507,42.8520369999384 -74.268748999967,42.8517479999055 -74.2696449995357,42.8515800001628 -74.2706729999974,42.8512910002326 -74.2709519995936,42.851090999652 -74.271362000053,42.850799000418 -74.2717689995052,42.8501780000475 -74.2723520005316,42.8491290002852 -74.2726950003691,42.8479029998503 -74.2727419997783,42.8469419996197 -74.2727460005572,42.8460130001128 -74.2724660001434,42.8448660001435 -74.2720539995035,42.8441789999665 -74.2712250000316,42.843984000361 -74.2699370000404,42.8438850000483 -74.2688559997704,42.8438590001283 -74.2676430004911,42.8439460004246 -74.2672990002702,42.8439920003178 -74.2662990002215,42.8441290002553 -74.2649889997577,42.8441269999838 -74.2636580005433,42.8439720003658 -74.2627850005317,42.8437839995892 -74.2614550002266,42.8433459997737 -74.2607029997795,42.8430299997439 -74.2597439997524,42.8424389996397 -74.2591350005499,42.8419049998407 -74.2585599997709,42.8410879998764 -74.2584640001188,42.8403370002839 -74.2586550003381,42.8390779996574 -74.2590540002648,42.8376409998207 -74.2595499994488,42.8363739997605 -74.2603759994249,42.8347280002111 -74.2611989996156,42.8336399996911 -74.2619900002883,42.8322599998249 -74.2626400000841,42.830937000172 -74.2630369995534,42.8295220001678 -74.2631830000145,42.8282110004099 -74.2632330000971,42.8271639997901 -74.2631520002462,42.8259470003123 -74.2629810002873,42.8244760001294 -74.262869999468,42.823409000073 -74.2628500001991,42.8232640001722 -74.2625960000741,42.8226180003572 -74.262017999535,42.8214260001805 -74.2612990000059,42.8197939997852 -74.260635000443,42.8184289998127 -74.2600290000052,42.817135000162 -74.2595349999982,42.8155729998368 -74.2589339999203,42.8143549995686 -74.2582630002109,42.8133219999898 -74.2571090001351,42.8124399997876 -74.2568290003544,42.8122139997132 -74.256441999953,42.8119000002133 -74.2555519996901,42.8106580000088 -74.2549469997692,42.8098149996605 -74.2547779993902,42.8084789998639 -74.2549180000689,42.807142999687 -74.2553230002554,42.8060639997181 -74.2557090004891,42.8054570001904 -74.2559159995761,42.8053119997389 -74.2567839993984,42.8043750002596 -74.2576339997341,42.8034860000725 -74.2585279998783,42.8023860003721 -74.2587440002153,42.8022710002682 -74.2595099999614,42.8017879999678 -74.2607570001386,42.8011379996786 -74.2618020005279,42.8007569998503 -74.2629220005868,42.8004489995992 -74.2636450001795,42.8003279995777 -74.2642859995114,42.8001160004404 -74.2646719997106,42.7996589999464 -74.2647059996121,42.7991189999919 -74.2647590002087,42.7989480000273 -74.2643760002807,42.7980629996629 -74.2640570003492,42.7973760001718 -74.2636320002263,42.7967529999679 -74.2633139994997,42.7965340003147 -74.26320400035,42.7964219999333 -74.2629829999534,42.7962270004437 -74.2619020002756,42.7954510002788 -74.2611610000374,42.7951939996223 -74.2604570004536,42.7951200004192 -74.2596509995825,42.7952040001034 -74.258968000016,42.7953249997896 -74.2574049999764,42.7957970003434 -74.2565470000875,42.7958700002015 -74.2560629998892,42.7958079996208 -74.2554249994491,42.7956709996555 -74.254888999704,42.7955099996362 -74.2544419994301,42.7952969997479 -74.2538840000682,42.7945040000927 -74.2537390005261,42.7938089998716 -74.2536169997703,42.7926800001171 -74.2534330005134,42.790533000029 -74.2532660001131,42.790178000433 -74.252762000146,42.7897389999872 -74.2518079993912,42.7891170002504 -74.2495730004495,42.7882670001413 -74.2491690005886,42.7878890002228 -74.2487409994232,42.7875799999015 -74.2485200002615,42.7873699999718 -74.248306000142,42.7871529997559 -74.2481310001059,42.7868859998647 -74.2479400004907,42.7863519998737 -74.2477340000088,42.7854740003918 -74.2477880003112,42.7850699996796 -74.2480619996443,42.7845700002303 -74.2483059994006,42.78424200024 -74.2486570000456,42.7838070002826 -74.2489859997944,42.7835180003932 -74.2495729998487,42.7828770000698 -74.2502670003309,42.7824530000075 -74.2506489997639,42.7821329999363 -74.2511599995215,42.7815259998304 -74.2516329999094,42.7808889997851 -74.2522359996457,42.7796949995637 -74.2526019996971,42.7790889999741 -74.2529679997131,42.7783559998749 -74.2535020001556,42.7772500003385 -74.254111999665,42.7764530004381 -74.2543789997877,42.7760060000623 -74.2545850001454,42.7752740003022 -74.2546999997213,42.7747089998849 -74.2547230000487,42.7736560002316 -74.2546079996618,42.7728519999516 -74.2544099998858,42.7722370000287 -74.2539600005834,42.7712000001498 -74.2534869997033,42.7700819997794 -74.2529219995106,42.7689719999729 -74.2525180005549,42.7684039996045 -74.2520220004055,42.7676059997321 -74.2516860002125,42.7668740000737 -74.2514799999861,42.7660960003469 -74.2515489999032,42.7656490000683 -74.2516860002086,42.7653059998723 -74.2528149996819,42.7634900003194 -74.2531890000973,42.7630439996252 -74.2535020004184,42.7626429998998 -74.2538989997139,42.7621890004372 -74.2542880005631,42.7618269998304 -74.2547459999959,42.7614380002362 -74.2550049998307,42.7611059999844 -74.2552339999671,42.7607549998379 -74.2555390003174,42.7604689999278 -74.2557449998099,42.7602589999647 -74.2562029998356,42.7600229999179 -74.2565160002105,42.7598280003504 -74.2570040003581,42.7595960002247 -74.2576599999788,42.759163999921 -74.2580339997535,42.7587709996529 -74.2581409994141,42.7585050002885 -74.2581939998794,42.7582449998602 -74.2583010003011,42.757828999872 -74.2585070002495,42.7573980001889 -74.2587969995072,42.7571350003613 -74.2596360004966,42.7566960003702 -74.2635040005428,42.7556130002944 -74.2639770005478,42.7555479998822 -74.2644049995646,42.7556010000299 -74.2652740000593,42.7558070003508 -74.2665099998949,42.7564179999084 -74.2665609994915,42.7564410003772 -74.2675019999098,42.7568569999965 -74.2686689998043,42.7571770003296 -74.2697219998631,42.7573680004438 -74.2704549998705,42.7573070002951 -74.2721940004748,42.7572379998519 -74.2734449997496,42.7571120004155 -74.2742769994341,42.7569669997431 -74.275444000054,42.7567919996791 -74.2782819997158,42.7566810002465 -74.2812049995934,42.7567190002641 -74.283731000578,42.7567990003614 -74.2856609996717,42.756737999608 -74.2869880003164,42.7566849999335 -74.2882170004333,42.7565439998397 -74.2898340000836,42.7563450001954 -74.2912459998976,42.7561240003138 -74.2931680000756,42.7557620001016 -74.2951800004796,42.7552219998276 -74.2968760003256,42.7547660001067 -74.2983109999726,42.7544500001375 -74.2996229996877,42.7540489995573 -74.3014840005336,42.753464999798 -74.3023960003119,42.7531150002208 -74.3048110003395,42.7521869999561 -74.3059320003439,42.7514930003424 -74.306244999491,42.751126999799 -74.3065499994254,42.7506419998979 -74.306665000522,42.7500739995599 -74.3062380005918,42.7491390001652 -74.305672999441,42.7479420003421 -74.3053299997278,42.7473960001133 -74.3051760000747,42.7472419995972 -74.3020660003429,42.7441259998263 -74.3014580005763,42.7435179999684 -74.3010720002597,42.743131000003 -74.298558999877,42.7406260001528 -74.2969869998392,42.739058999928 -74.2920349998289,42.7341199997477 -74.2875070001236,42.729606999649 -74.2873479998089,42.7294490001788 -74.2863359996422,42.7284210001569 -74.2821839998387,42.7242029997058 -74.2818640004937,42.7237190002803 -74.281580999617,42.7233670000464 -74.2812440000209,42.722963000353 -74.2812289995359,42.7229420000154 -74.2803469997909,42.7220019997204 -74.2802470002048,42.7219030000664 -74.2790449997494,42.7207050003109 -74.2785719998241,42.7202349998389 -74.2778399997182,42.719471999669 -74.2777049994154,42.7194729999024 -74.2713869996982,42.7195359996331 -74.2707679999246,42.7195420003644 -74.2710980002005,42.7184400000637 -74.271124999593,42.7183010003629 -74.2711530000382,42.7182429995735 -74.2718809995008,42.7157119998192 -74.2722949997225,42.7142699995704 -74.2713719998976,42.7143330000074 -74.2704290005391,42.7143979999086 -74.268548999767,42.7145260001859 -74.2656969999939,42.7147619999545 -74.2631179996884,42.714976000084 -74.2594660005821,42.7152780002057 -74.2526729995892,42.7158400003151 -74.249574000326,42.7160969999278 -74.2430589999995,42.7166819997232 -74.2416699994785,42.7168070002551 -74.2410140003184,42.7168570002965 -74.240713000003,42.7174760001195 -74.2404570003373,42.7180010003265 -74.2398459999673,42.7189239995987 -74.2195570003501,42.714499000323 -74.2194900001531,42.7144850004254 -74.2077919994011,42.7119339997485 -74.2027129999637,42.7108260001991 -74.2013579995288,42.7109489997776 -74.1980240002305,42.711251000049 -74.1958749995615,42.7114449998868 -74.1929550001309,42.7117100001131 -74.1865489996851,42.7122900003053 -74.1842989995237,42.7124939998528 -74.1842349995051,42.7125000000511 -74.1836699998502,42.7149920001795 -74.1836109997792,42.7152510000951 -74.1826779997777,42.7193599997084 -74.1817079999794,42.7236370002002 -74.1802739998333,42.7299789997871 -74.1729279996246,42.7239639998165 -74.171558000478,42.722841999783 -74.1713169994024,42.7226450000637 -74.1697159997988,42.7213330003442 -74.1696699998763,42.7212949997489 -74.1670840005462,42.7191770004282 -74.1661599996187,42.71841999995 -74.1646780000341,42.7172069999652 -74.1651550000281,42.7148670003117 -74.1662409999805,42.7095360002154 -74.1662529996617,42.709479000084 -74.1671810002952,42.7049310003605 -74.16804500056,42.6999100003763 -74.1681930004367,42.6990509999467 -74.168983999923,42.6944659997181 -74.1694960002168,42.6915009997559 -74.1695249999446,42.6913650000379 -74.1694979999587,42.6909529998546 -74.1691110003262,42.6849530004324 -74.1688950005603,42.6816089996463 -74.1688670000014,42.6811869997561 -74.1687430000807,42.6792480001065 -74.1687050005359,42.678659999851 -74.168524999963,42.6743100002845 -74.1685699996949,42.6738679997831 -74.1694360001066,42.6694620003136 -74.1694700005918,42.6692899997973 -74.1697250002261,42.667425999618 -74.1698479999226,42.6672779998489 -74.1698779996653,42.6672259995537 -74.1699219998196,42.6671330003344 -74.1700879996515,42.6666350000713 -74.1701920002424,42.6663420000633 -74.1705619999937,42.665560000169 -74.1710120004198,42.6648039997013 -74.1711659997894,42.6645440002248 -74.1713950005609,42.6641270001337 -74.1719410000926,42.6631260000424 -74.1721519996044,42.6626930004222 -74.1726479996418,42.6612980001766 -74.1730109998579,42.6604289996942 -74.173546000005,42.6592470002326 -74.1736130001561,42.6588780002743 -74.1736390002241,42.6586890001259 -74.1735600004861,42.6579400004029 -74.1734279994747,42.6573179998484 -74.1734280005037,42.65720599959 -74.1734800004817,42.6570650002167 -74.1735530000746,42.6569629995818 -74.1747750001317,42.6558699996044 -74.1748750003917,42.6557580001232 -74.1749340005322,42.6556610002874 -74.1772849993916,42.650971000404 -74.1774370004928,42.650499999588 -74.177602999773,42.6501349999702 -74.1780599996843,42.6493209996395 -74.1789229998109,42.6472839998681 -74.1793239996357,42.6463840000941 -74.1796270005151,42.6458520004347 -74.1796860001669,42.6457660000684 -74.1798829999495,42.645537000328 -74.1799330000522,42.6454899997726 -74.1799799996453,42.6454360001984 -74.1803250001389,42.6449309998586 -74.1803669994773,42.6448709999492 -74.1808749999808,42.6439110001439 -74.1814269999561,42.6428419999255 -74.1820590004298,42.6417880004095 -74.1827279996733,42.6408049999887 -74.183099000482,42.6403600003966 -74.1837879998705,42.6397650002626 -74.1839380002439,42.6396659997864 -74.1840179998642,42.6396299997817 -74.1840850003568,42.6396109997323 -74.1842349997326,42.6396220002485 -74.1842579998866,42.6395820000343 -74.1853850001178,42.6376779999954 -74.185571999615,42.6373630002819 -74.1859300005287,42.636769000402 -74.1861550004749,42.6363790001096 -74.1863909995842,42.6360310002806 -74.1867399994605,42.6355140000185 -74.1885570004184,42.6328250000768 -74.1916400004448,42.6284019995772 -74.192023999983,42.6278489998478 -74.1925689998074,42.6270690000802 -74.192798000044,42.6250760001921 -74.1934680005321,42.6191830000019 -74.193495000127,42.6189990000125 -74.1975850000551,42.6148819998433 -74.1976979999127,42.6147680001653 -74.1985040003559,42.6139810000781 -74.2011999999029,42.6113539996923 -74.2013160005572,42.6112400001715 -74.2022629996754,42.6103199998493 -74.2046560000125,42.6079850001548 -74.2052229998963,42.6074309998118 -74.2066970003468,42.6059930003111 -74.2067630002276,42.6057959996568 -74.2090350001926,42.602881000099 -74.2094919994778,42.6022949995781 -74.210509000428,42.6009900003487 -74.2151659997654,42.5974350002673 -74.2174870001541,42.5942799998354 -74.2181549999737,42.5936440003206 -74.2187560004495,42.5926459996008 -74.2190299998184,42.5922409999166 -74.2191410003963,42.5920660001773 -74.2195019995103,42.5915450004033 -74.2196139999856,42.5914059999299 -74.2196389999395,42.5913860002243 -74.2200120005623,42.5880209999343 -74.2202040002459,42.586283000287 -74.2202739997487,42.5854119995533 -74.2245859999063,42.5822380001428 -74.224323000466,42.5824800000519 -74.2253029994157,42.5818010002073 -74.2263920000978,42.581054000143 -74.2274889997725,42.580280000366 -74.2339949995257,42.5756880002834 -74.2341199995116,42.5752559998679 -74.2344200005365,42.5741620003222 -74.234504999782,42.5738539998527 -74.236166999452,42.5677950002959 -74.2369169998778,42.5650629997581 -74.2370180003042,42.5648110001038 -74.2370810000308,42.5646289999656 -74.2376209995834,42.5631240000143 -74.2369589998286,42.5601200002117 -74.2405170000485,42.5531050000811 -74.2404279999502,42.5529110004457 -74.2410190002211,42.5518200001613 -74.2415719996906,42.5508020003976 -74.237977000055,42.5445929996163 -74.2381509996008,42.5438569998344 -74.2344190004863,42.5378400001507 -74.2336019995813,42.5365220002242 -74.2330450005222,42.5356239996972 -74.2308870005677,42.532035000387 -74.2291859995217,42.5292840000328 -74.2290650005348,42.5290299998711 -74.225655000467,42.5264149997305 -74.2256390003192,42.5264030003984 -74.2255640003336,42.5204670002637 -74.2255570003452,42.5202300002111 -74.2256320000605,42.5199369998125 -74.2256259994741,42.5197759999347 -74.2255400003326,42.5195299996636 -74.2254529994062,42.5192250002075 -74.2254189996335,42.5190260002971 -74.2254360005401,42.5189239996032 -74.2255170003764,42.5188140002427 -74.22555699945,42.5187299999027 -74.2255569997491,42.5185130002889 -74.2255969996906,42.5183180001195 -74.2256029999607,42.5181659997154 -74.2255679999051,42.5176100003742 -74.2255740004734,42.5174909998326 -74.2256029996362,42.5173510001295 -74.2256089995927,42.5171650001767 -74.2255740003443,42.5167599997713 -74.2255850005151,42.5165779997372 -74.2256369997414,42.5164460003647 -74.2256329995018,42.5159479995511 -74.2256019999566,42.5157160001577 -74.2255019998203,42.515413000242 -74.2254359997698,42.5150459998906 -74.2254310004173,42.5149619997794 -74.2251859998991,42.5111799999952 -74.2251369999208,42.5105620003087 -74.2249859995836,42.5085600003991 -74.2249849996521,42.5085499999081 -74.2257719997474,42.5069560003047 -74.2265680002912,42.5026329999118 -74.2265500003483,42.5016419996064 -74.2265219996202,42.5000760000706 -74.2264470002117,42.4992329996948 -74.2272130001935,42.4974220001783 -74.2285009994699,42.4943809999 -74.2293280004297,42.4932669997466 -74.2302170004613,42.4920710002733 -74.2340369999913,42.4877399997491 -74.2364469995651,42.485458999662 -74.2416290003345,42.472035999818 -74.2444570002557,42.4702649996956 -74.2445089998289,42.4701030002058 -74.24475399977,42.4693529995894 -74.2495849995829,42.4545980003128 -74.2500720004158,42.4528990002247 -74.2502009999156,42.4524819999522 -74.2507329996971,42.4507729997235 -74.2518150003669,42.4473660003671 -74.252407999557,42.4454219999965 -74.252437000042,42.4453339998042 -74.2526030003179,42.4449450000361 -74.2537970002169,42.4425340002402 -74.2542200000949,42.4416529996031 -74.2544130002548,42.4412520002297 -74.2553329995697,42.4393380003469 -74.2556860004076,42.4386060001187 -74.25586000012,42.4382430003029 -74.2565050002124,42.4369050000913 -74.259471000059,42.4309370002625 -74.2604259998648,42.428949000023 -74.2605369997726,42.4287170003791 -74.2615469996187,42.4266150000916 -74.2631850003799,42.4232130001965 -74.2647310005698,42.4201270000445 -74.2648629996101,42.4198630000246 -74.2647410004329,42.4187470004482 -74.2642850002689,42.4145890001219 -74.2642710005968,42.4144590003972 -74.2637489994443,42.4096950002351 -74.2634690002011,42.4071269995646 -74.2543030005364,42.4082070001234 -74.2533020002367,42.408324999661 -74.249586999941,42.4087619997037 -74.2448089994383,42.4092800000026 -74.2409150005492,42.4097120000495 -74.2323560001327,42.4106630002174 -74.2256519996556,42.4114080003346 -74.2175579997357,42.4123069999764 -74.2170399995713,42.4123649998003 -74.2019930004248,42.4140360003387 -74.2014700002856,42.41409299974 -74.1985209998346,42.4144170003061 -74.1981859995416,42.4144530003221 -74.1948440000309,42.414820000412 -74.1946460000059,42.4148410000585 -74.1905680003493,42.4152889996853 -74.1754239999918,42.416955000276 -74.1740140005907,42.4171089999333 -74.1649630003475,42.4181060002254 -74.1602529995211,42.4186240004285 -74.1578579996733,42.4189320004194 -74.1563609999118,42.419127999983 -74.1496559999712,42.4199949995705 -74.1474959994659,42.4202749999596 -74.1474019997117,42.4202940003694 -74.1391009995188,42.421362999885 -74.1382660002537,42.4214709998613 -74.1374039996358,42.4215809997097 -74.1300670005346,42.4225149999573 -74.1296449993911,42.4225690002271 -74.1267220000861,42.4229379997748 -74.1264419995227,42.4229840001263 -74.1245780005148,42.4232429998764 -74.1173110001141,42.423607999922 -74.1168449994608,42.4236639998552 -74.1080570005357,42.4247290002703 -74.1079340001051,42.4247439997464 -74.0964949998901,42.4261290004133 -74.0963660000768,42.4261450001665 -74.090670999778,42.4268339997001 -74.0873479998123,42.4272369996999 -74.0870989998762,42.4272680000376 -74.0840579996587,42.427643000203 -74.0763770001675,42.428591999572 -74.0718310004814,42.4291549999847 -74.0615389994345,42.4304280003967 -74.057054999931,42.4309850002979 -74.0435789996929,42.432703000286 -74.0364350001863,42.4336100001355 -74.0287439997851,42.4345020003881 -74.0236899997678,42.4350859999761 -74.0186359998674,42.4356690001445 -74.017280000464,42.4358270003825 -73.9995750002517,42.4379180001709 -73.9981149996332,42.438061000191 -73.9958730001228,42.4382729996824 -73.995684000122,42.4383160001873 -73.9926409997359,42.4385560000291 -73.992017000301,42.4386440002449 -73.9881850001201,42.4391899997923 -73.984155999709,42.4396579996934 -73.9802930005001,42.4399989996753 -73.9795180004357,42.4400659996483 -73.9758080005896,42.4403899997141 -73.9711169997321,42.4408590000652 -73.9695019997535,42.4410270000838 -73.9666639994323,42.4413229998626 -73.9637919995938,42.4416220000076 -73.9627120000289,42.4417350004126 -73.9587600003081,42.4421469996252 -73.9515640005747,42.4428560001042 -73.9480030005494,42.4432039997249 -73.9476119996457,42.4432429997456 -73.9423100001383,42.4437940001176 -73.9399729997066,42.4440500003064 -73.9398369996776,42.4440630004472 -73.9378670001409,42.4442809996616 -73.9332600001811,42.4448139998559 -73.9306990004335,42.4451919997581 -73.9296969995716,42.4453410001728 -73.9271469994431,42.4457180002287 -73.9200969998354,42.4466279998391 -73.9135359996784,42.4476079998986 -73.9079189994969,42.4483900002933 -73.9070849999584,42.4485069999004 -73.90547800028,42.4487559997384 -73.9038270000521,42.4489670001532 -73.9035990002897,42.4489989999558 -73.9010369999076,42.4493619999545 -73.8948999997568,42.450215999636 -73.8927710005247,42.4505499996007 -73.8897650005522,42.4510079999675 -73.8861259996838,42.4515070002794 -73.8859860002954,42.4515259998979 -73.8845359998123,42.4517259998437 -73.8791309995909,42.4524579997414 -73.8785049998696,42.4525489998235 -73.8766120004012,42.4528029995675 -73.8760349995197,42.4528810000326 -73.8745709999707,42.4530779995531 -73.8657039993991,42.4543549997567 -73.8655900004189,42.4543720001087 -73.8540759995189,42.4560950002979 -73.8527300002368,42.4562859998931 -73.8437150003857,42.4575649998064 -73.8394910001867,42.4581869999297 -73.8380560003085,42.4583989997048 -73.8367569999018,42.4585919998641 -73.8251729998399,42.4598249995933 -73.8180969999828,42.4605779998324 -73.8174550003343,42.4606469996158 -73.8124420002109,42.4611789999756 -73.8094140001461,42.461501000407 -73.8092510002521,42.4615189998684 -73.8080209995224,42.4616499996549 -73.8078950004942,42.4616630001688 -73.8002769998663,42.4624729997286 -73.8000809999128,42.4624930001797 -73.7918620005117,42.4633670002009 -73.7874840000826,42.4638310001078 -73.7837210002812,42.4642310000651 -73.784048999416,42.4665169999955 -73.7840599995335,42.4669680003529 -73.7841359998127,42.4675079997696 -73.7842979998,42.4677490001937 -73.7845369999952,42.4683939998631 -73.7850360001559,42.4698519998921 -73.7854589996142,42.4708590003182 -73.7857089999575,42.4716319998818 -73.7858389995147,42.4728810002614 -73.7860779997213,42.4752490002226 -73.7861240003565,42.477814000256 -73.7861279999359,42.4780170003247 -73.7861649997476,42.480065000166 -73.7861120000036,42.4828040000843 -73.7860470003855,42.4838350001958 -73.7859269994942,42.4847609996518 -73.7857539997269,42.4861140000911 -73.7855480001648,42.4872090002215 -73.7852440004832,42.4881349998439 -73.7849730005838,42.4890130003026 -73.784594000594,42.4899470003339 -73.7813819998086,42.4959209997429 -73.7808830004918,42.4973059998501 -73.7804600001134,42.4980229996994 -73.7793969998619,42.500080999772 -73.7770849995812,42.5039990001715 -73.7758800002664,42.505816999694 -73.7739029998973,42.5084009998845 -73.7731609995773,42.5093770000798 -73.7685340003888,42.5155699996764 -73.7666830003883,42.5180479996791 -73.766078999648,42.5187819996605 -73.7651009997476,42.5196490000932 -73.7640849998371,42.5207210003851 -73.7637700002787,42.5211350003605 -73.7630909997767,42.5220259999808 -73.7613319994338,42.5258319997524 -73.7598469999335,42.5294329996772 -73.758312999498,42.534215000425 -73.7569600000136,42.541989999888 -73.756788999795,42.5429720003559 -73.7566659996271,42.5436809997333 -73.756765000082,42.5437800002665 -73.7564650004431,42.5486800002586 -73.7556650004061,42.5515799996809 -73.7540650000844,42.5567800003073 -73.7521650002218,42.5665800000265 -73.7521680001744,42.5667200002738 -73.7521849997053,42.5676569998892 -73.7523649995858,42.5766800004126 -73.7543649997259,42.582579999898 -73.7572649997727,42.5871799996852 -73.7582649995113,42.5898799999608 -73.7595709998156,42.5946250003738 -73.7612650001934,42.6007789999825 -73.7615649998697,42.603579000058 -73.7613849996507,42.6072740003652 -73.7613650005377,42.6076789996917 -73.7612650005476,42.6103789996703 -73.7595649998074,42.6141790000084 -73.7566889997438,42.614179000336 -73.7525629998989,42.6141780004006 -73.7521719994414,42.614284999689 -73.7472700004517,42.616375999688 -73.7471660000642,42.6163989997876 -73.746699999739,42.6164730004397 -73.7448669998863,42.6172809997947 -73.7443159997145,42.6208099997409 -73.7439040001474,42.623270999689 -73.7434579994995,42.6262139999985 -73.7431010003421,42.6285130002205 -73.7430419993974,42.6289590000738 -73.7429939994405,42.6291850002261 -73.7426259996422,42.631266999641 -73.7426080001257,42.631581999592 -73.741637999976,42.6316100002482 -73.7365719999712,42.6317849995873 -73.7348650003596,42.6318789996835 -73.7344430003664,42.6318799998214 -73.7338690004343,42.6318829998424 -73.7339359999804,42.6320210002076 -73.7347089999853,42.6351960000386 -73.734895000521,42.6361009998007 -73.734795000495,42.6363959999862 -73.7346749997942,42.6367570000234 -73.7344570000256,42.6370780000488 -73.7344290003471,42.637162999592 -73.7344220003195,42.6372330001816 -73.7336149999843,42.6388719995623 -73.7333370002908,42.6394390002134 -73.7309730001553,42.6438909998841 -73.7304460005411,42.6448829999408 -73.730272000397,42.645481999639 -73.7291030000077,42.6452620003911 -73.7292399995137,42.6447650003369 -73.7282800002413,42.6445770004105 -73.7282879995743,42.6437340001929 -73.7281180000401,42.6437789996206 -73.7278180001511,42.6447479998985 -73.7274930005715,42.6453820001057 -73.7274409999564,42.6456219997598 -73.7276300002105,42.6461870002631 -73.7276129997681,42.646375000371 -73.7275269996535,42.6465290002047 -73.7272190000246,42.6468549997713 -73.7258139993942,42.6464610001017 -73.7251980000989,42.6475060000387 -73.7249930002011,42.6473830001089 -73.7247169996391,42.6478529996395 -73.7239200002861,42.6492140002626 -73.713263999947,42.6477820004125 -73.7118259996564,42.6475790001325 -73.7113949998291,42.6475219997642 -73.7108279998703,42.6474350000231 -73.7112289998403,42.648153000423 -73.7110719999967,42.6483660004136 -73.7023970005835,42.6472859999306 -73.7025340000072,42.6463050000491 -73.7003499994841,42.6460059996999 -73.6993090002454,42.6458629999175 -73.6987789996245,42.6474970002939 -73.697431999706,42.6471920000169 -73.6974980000607,42.6470039998719 -73.6966879997784,42.64690099976 -73.6967800000794,42.6464150001328 -73.696542000337,42.6463769996284 -73.6966839997635,42.6459310002843 -73.6963260003459,42.6458450000088 -73.6962419996726,42.6461420001592 -73.6960550004744,42.6461179999668 -73.696134999586,42.645805000341 -73.6956539998973,42.6457110003556 -73.6928499996092,42.6451660001939 -73.6925999999369,42.6451109999512 -73.6916639999387,42.6449229995984 -73.6913070002726,42.6448199999685 -73.6890889994965,42.6444189995844 -73.688645000367,42.6450820003146 -73.6877030000969,42.6445510000725 -73.6879060002958,42.6442539996742 -73.6873639998973,42.64418000026 -73.6861219995999,42.6439679997281 -73.6858789995234,42.643927000151 -73.6824539998095,42.6433430002501 -73.6806020001194,42.6430750003937 -73.680270999568,42.6430249999943 -73.6697890001371,42.6415079996575 -73.6671530001287,42.641124999559 -73.6653870001219,42.6409580004488 -73.6636760002603,42.6408089999178 -73.6620019996166,42.6406379995707 -73.6591170003255,42.64014900041 -73.6534310002857,42.6393309997742 -73.6518029997584,42.6390979996217 -73.6368409996236,42.6368879996365 -73.6286620001509,42.6356799996312 -73.6278580005226,42.6378939995697 -73.6262770002584,42.6430499995746 -73.6261119995757,42.643567000236 -73.6207900003289,42.6598669999087 -73.6196410006041,42.6639030002101 -73.6194469997187,42.6648699999045 -73.6188489994368,42.6676280000024 -73.6184929997064,42.668836999946 -73.6182429994808,42.6694149996298 -73.6180170000672,42.6700029997242 -73.6179459997745,42.6706749998702 -73.6176980004053,42.6712830003551 -73.6176069994911,42.671603999658 -73.6172259996164,42.6731539999669 -73.6158810001086,42.6778429995845 -73.6151579993998,42.6803629999364 -73.6151069997357,42.6805429996081 -73.6143109994495,42.6833169995866 -73.6130290004292,42.6877840002195 -73.6123289995142,42.6901880000861 -73.611166000574,42.6942439995574 -73.6102120001596,42.6982359999408 -73.6095189995151,42.7000869996051 -73.6094980002157,42.7001749997362 -73.6091910000106,42.7012779999528 -73.608460000328,42.7033780002258 -73.6106280000528,42.703197000133 -73.6175029997547,42.7024260000358 -73.6250319996166,42.7015029998349 -73.6297860004925,42.7009169997219 -73.632483,42.7005839999873 -73.6336530003073,42.700578000109 -73.6340479997187,42.7005769999811 -73.6370880003886,42.7002170002007 -73.6388419994359,42.7000070002871 -73.6397169997354,42.6999029998583 -73.6407609998324,42.6997779998789 -73.6416609994893,42.6995779996023 -73.6435499996238,42.6993790004344 -73.6446589993998,42.6991800001445 -73.6461130005768,42.6991739997155 -73.6461610000569,42.699177999993 -73.647337999713,42.6990310000431 -73.6505319999224,42.698651000065 -73.6509409996833,42.6985950000809 -73.6523610002755,42.698477999634 -73.6525590001249,42.6994009997275 -73.6526710000788,42.7000120001323 -73.6527680003772,42.7005500002803 -73.6528640001315,42.7014469997435 -73.652850999925,42.7023759997668 -73.6530730001569,42.7034110002697 -73.6532620001471,42.7041750003339 -73.6531470002446,42.7048539996725 -73.653850999627,42.7090119999058 -73.654968999628,42.7154399999461 -73.6555259998873,42.7189480004284 -73.656216000028,42.7234490002992 -73.6563780002239,42.7256829996097 -73.6561479995128,42.7258220004194 -73.6558270004756,42.7260020001326 -73.6551540001722,42.7263259995956 -73.6547080004316,42.7264879997298 -73.6544099994949,42.7265849997078 -73.6540720004315,42.7266889996203 -73.653036999765,42.7270010002478 -73.6519290001382,42.7273370003493 -73.6512750001185,42.7275340004093 -73.6509569999175,42.7276280001854 -73.650002999856,42.7279229996782 -73.6491509996236,42.7281799997087 -73.6483709995296,42.7284189995944 -73.6464380004257,42.7290209999155 -73.6462979996938,42.7290670002473 -73.6459570002058,42.7292120003616 -73.6456720003724,42.7293600004381 -73.645363000358,42.7295570001746 -73.6450880001067,42.7297709999438 -73.6448600003657,42.7299970000978 -73.6444799998874,42.7304440001647 -73.6442849997838,42.7306230002027 -73.6440769993913,42.7307730001556 -73.6438089995914,42.7309249997648 -73.6435150004119,42.7310499999237 -73.6433420003464,42.7311070001289 -73.6429680005464,42.7311939996215 -73.6390160004313,42.7318879996994 -73.6382410002606,42.732036999615 -73.6351480003123,42.7326609997111 -73.6340389996209,42.7328790002786 -73.633732999928,42.7329230004451 -73.6332699994718,42.7329620003305 -73.63301600006,42.7329720001035 -73.6327019996251,42.7329720002411 -73.6324049994903,42.7329549997146 -73.6319119996119,42.7329070002929 -73.6314740001277,42.7328400001848 -73.6313849993985,42.7329100000768 -73.631137999871,42.7331820004173 -73.6310850002927,42.7332580001952 -73.6310250005166,42.73338299967 -73.6308090000456,42.7340089999983 -73.6307549995306,42.7341229999255 -73.6306339994716,42.7342439999423 -73.630456000101,42.7343349995805 -73.6303960002695,42.7343450000906 -73.6301669998786,42.7343390001273 -73.6297110000018,42.734255000166 -73.629392999743,42.7346250000113 -73.6293529993983,42.7346360002948 -73.6292700004308,42.7346380001769 -73.6292070005578,42.7345690002659 -73.6291719999238,42.7345569995604 -73.6291330005118,42.7345570000668 -73.6289069998449,42.7347410003209 -73.6288750001111,42.734795000186 -73.6288819999131,42.7348489996358 -73.6289570000421,42.7349330003461 -73.6289609996691,42.7349869998904 -73.6289420000278,42.7350160000126 -73.6288570004133,42.7350529999559 -73.6285779997312,42.73509699979 -73.6284170002217,42.7351069999337 -73.6280880003738,42.7350999997262 -73.6279570001756,42.7351230002657 -73.6278900004501,42.7351559997744 -73.6277929994868,42.735243000234 -73.6276549996176,42.7355409996372 -73.6303649996925,42.7363259998651 -73.6321640004151,42.7368610003984 -73.6350269994269,42.7376779998996 -73.6366959999897,42.7381520004418 -73.6367939998013,42.7381100002277 -73.6369590000189,42.738077999975 -73.6371189999477,42.7380759996589 -73.6372559998915,42.7381049999118 -73.6374209994748,42.7381759997893 -73.6375120000556,42.7382280003327 -73.6375659994111,42.7382719997284 -73.6377089995739,42.7384409996564 -73.6377609997431,42.7385649998567 -73.6378460005547,42.7389819999263 -73.6378840002022,42.7392480001452 -73.6379019996594,42.739562000214 -73.6379250006133,42.7396499998024 -73.6379509996631,42.7397009998639 -73.6381280005729,42.7399090003531 -73.6381879995983,42.740041000312 -73.6383030005541,42.7403649997237 -73.6383469995248,42.7406940000763 -73.6383519998983,42.7407859999955 -73.6383650002462,42.7408330001258 -73.6384070004447,42.7409020001139 -73.6385050001572,42.741011000142 -73.6386459997708,42.7411289996857 -73.6388350002375,42.7412789999192 -73.638944999696,42.741472000404 -73.6393179996987,42.742240999753 -73.6394709998142,42.7425380003848 -73.6394879998105,42.742661999923 -73.6394599995227,42.7427509997447 -73.6392400005812,42.7430930001551 -73.6390519994677,42.743442999793 -73.6388590001509,42.7438349997955 -73.6388299996238,42.7439190004235 -73.6388130002629,42.7440879996512 -73.6388429997709,42.744305999704 -73.6389029998353,42.7445829996868 -73.639425999921,42.7444709998938 -73.6396110001551,42.7444159998694 -73.6399690002381,42.744322999763 -73.6402350005055,42.7442879997191 -73.6409490004395,42.7442739996965 -73.6413230002398,42.7442509996541 -73.641522000192,42.7442459997222 -73.6417920002648,42.7442550001338 -73.6419390004813,42.7442770001189 -73.6424600002446,42.7444049996473 -73.6431839998158,42.7445979998889 -73.643274000611,42.7446309999261 -73.64339199973,42.7446950000124 -73.6423069999385,42.7453379996324 -73.6413799998363,42.7458889996634 -73.6407299995899,42.7462740000479 -73.6404550004463,42.7464399996471 -73.6402000005687,42.7465919996139 -73.6402880003854,42.7466550000541 -73.6404400001126,42.7465660000296 -73.641348999916,42.7460509998998 -73.6420199994787,42.7467919996507 -73.6424370004041,42.746557000086 -73.6438399999176,42.7476689999525 -73.6437669995295,42.7479360003016 -73.6425239999619,42.7487170001541 -73.6433939997626,42.7492010001829 -73.6436639997397,42.7491189996212 -73.6449999995685,42.7500220000021 -73.6456560000121,42.7494169997835 -73.6453810004941,42.7515900004053 -73.6454979999226,42.7526099995994 -73.6460719996154,42.7526200001535 -73.6461889998404,42.7528350004317 -73.6468510000968,42.7528730001799 -73.6469120002901,42.752585999624 -73.6481120001637,42.7524830001352 -73.6481009999563,42.7529720001544 -73.6472260005775,42.7531080003677 -73.6474170001464,42.7541279999069 -73.6472899997601,42.7545600002242 -73.6482019996758,42.7547479996222 -73.6465230003654,42.7591960000154 -73.6474849996587,42.7593530002182 -73.6474130001325,42.7594009997392 -73.6473109997523,42.7594599995532 -73.6471799995729,42.7595160001075 -73.6470420000706,42.7595660004467 -73.6465470001754,42.7596999997511 -73.6464109999576,42.7597429997483 -73.6461609998393,42.7598489998259 -73.6461040002538,42.7598269996065 -73.6460129995242,42.7598210004088 -73.6459620000883,42.7598249999389 -73.6459160002463,42.7598180000991 -73.6457020001111,42.7597230004353 -73.6456249994326,42.7597149998448 -73.6454809996396,42.7597679999226 -73.6453849994165,42.7597789997657 -73.6450149996332,42.7597810004453 -73.6448630000564,42.7597949996173 -73.6445470002429,42.7597759999862 -73.6443169995032,42.7597780003905 -73.6440940000859,42.7598119997105 -73.6439080003914,42.7598260002354 -73.6436380002909,42.7598809997355 -73.6435170002196,42.7598839996684 -73.6433589998432,42.7598790002821 -73.6433080003656,42.7598840000145 -73.6432559994636,42.7599000004006 -73.6431839997085,42.7599549997425 -73.6431279994653,42.7600100004217 -73.6430789995327,42.7600379997859 -73.6430200003819,42.7600519999109 -73.6429829995199,42.7600479998309 -73.6429409994481,42.7600320004065 -73.6428759997294,42.7600239997137 -73.6427739997527,42.7600300003735 -73.6424019995932,42.7601329998876 -73.6422309995133,42.7601909996545 -73.6420260003422,42.7602179996618 -73.6418789999788,42.7602170000497 -73.6418019994782,42.7602429998774 -73.6416680002568,42.7603509999659 -73.6415910001828,42.7603979999375 -73.6415619997982,42.7604809996353 -73.6415419995002,42.7605679999768 -73.6414870003169,42.7606460003634 -73.6414489997588,42.7608519997374 -73.6413909997949,42.7609460001473 -73.6413639998214,42.7610229998992 -73.6413409997137,42.7611249997944 -73.6412350004115,42.7612859997795 -73.6411910000425,42.7613350002974 -73.6410969994906,42.7614140001097 -73.6408659993999,42.7616420003436 -73.6405839995103,42.7618439997878 -73.640359000265,42.7619390003339 -73.6402459999014,42.7620199999286 -73.6400639998355,42.7622389996813 -73.6400490001093,42.7624039996751 -73.6400130001258,42.7624989999758 -73.6398009995066,42.762814999757 -73.6397249997142,42.7629880002511 -73.6399759998577,42.7630709998416 -73.6402280003903,42.7631250003098 -73.6404639998928,42.7631429999147 -73.6407939998569,42.7631289998407 -73.6414820000149,42.763075000359 -73.641745999978,42.765036999897 -73.6417800000225,42.7653210004414 -73.6417880004762,42.7655730003571 -73.6417799998275,42.7658170001997 -73.6417319999196,42.7663169998096 -73.64169499961,42.7664649999628 -73.6416399995977,42.7666060002075 -73.6415530001678,42.7667720003066 -73.6412830001403,42.7671520001425 -73.6409459994689,42.7676850003481 -73.6408630003724,42.7678029998266 -73.6407490003107,42.767924999686 -73.6405709996813,42.7680809998856 -73.639926999473,42.7686190003729 -73.6398199993884,42.7687390004153 -73.6396849997273,42.7690129997487 -73.6396219997763,42.7691710003816 -73.6395870001516,42.7693349997583 -73.6395309998994,42.7696699997831 -73.6395129999492,42.7698179997559 -73.6394210005343,42.7701600003906 -73.6393680001117,42.7702559996455 -73.6392750004014,42.7703349997997 -73.6391430000805,42.7703979996009 -73.6390480001583,42.7703710002007 -73.6389410004213,42.7703259997698 -73.6382510000129,42.7700599997834 -73.638002000145,42.769900000132 -73.6374510001034,42.7704239998395 -73.6369700002636,42.7708520002879 -73.6374119998908,42.7711619995522 -73.6375009998893,42.7712349997682 -73.6379010000344,42.7716780001737 -73.638282000139,42.7721519998008 -73.6384299994894,42.772353000014 -73.6390299999392,42.7721280004437 -73.6396010000038,42.7719470004078 -73.6397469997906,42.7722549998527 -73.6399840001203,42.7726620003803 -73.6402750005339,42.7730760002762 -73.6404689999681,42.7733090003201 -73.6413010000796,42.7742380001677 -73.6418120003637,42.7747620003076 -73.6427809994966,42.7756799996891 -73.6429430005599,42.7758710002468 -73.643135000302,42.7761480004393 -73.6433119999702,42.7764809999778 -73.6435000000392,42.7767879999395 -73.6435719994338,42.7768850000801 -73.643703999971,42.7770329998023 -73.6439959994799,42.7773040004218 -73.6443540002764,42.7775640001865 -73.6450110002415,42.7779949999391 -73.6452779994325,42.7781429995945 -73.6452729995084,42.7782460000198 -73.6452949999356,42.7783609996987 -73.6454009996951,42.7786289998265 -73.6455900002908,42.7789769999704 -73.6456339994371,42.7790779999943 -73.6457100003623,42.7792780003029 -73.6457250005368,42.7793799999677 -73.6457229999535,42.779641999955 -73.6456749996932,42.7800759998199 -73.645630000332,42.7803160001656 -73.6455719996294,42.7804620004036 -73.6454909999711,42.7805969996957 -73.6453779995274,42.7807130002048 -73.6448179996937,42.7811599997627 -73.6443099994822,42.7816100004183 -73.6441519994065,42.7817900001941 -73.6440540005757,42.7819390001881 -73.6439889994771,42.7821000004406 -73.6438710005737,42.7826380002572 -73.6438120000267,42.7827659997374 -73.6437690004072,42.7828269997657 -73.6436549998342,42.7829710001504 -73.6433290001,42.7833049998437 -73.6431699995226,42.7834820002088 -73.6428750000381,42.7838630004214 -73.6427220005749,42.7841009997696 -73.6426599998203,42.7842299995544 -73.6425969994034,42.7846389997074 -73.6425339997005,42.7857259999473 -73.6425140000071,42.7858750001899 -73.6436019998392,42.7854790002337 -73.6438350004877,42.7853990003792 -73.644039999764,42.7853480002758 -73.6441849994872,42.7853350001233 -73.6445160001959,42.7853450003967 -73.6451190005963,42.7854139997798 -73.6458169999613,42.7855040004435 -73.6459439997335,42.7855159998183 -73.6461500002179,42.7855170003736 -73.646328999413,42.7854770002038 -73.6467479996179,42.7853579997481 -73.6474919998298,42.7851190000445 -73.6478950001346,42.78497400008 -73.6485980000199,42.784757000442 -73.6492669994041,42.7845750003431 -73.6498740000513,42.7844810001342 -73.6500000002819,42.7844639998781 -73.6500430004618,42.7844630002921 -73.652118999749,42.7865159999973 -73.6544689999519,42.7905920002922 -73.6533060005045,42.7910200000816 -73.6512399996126,42.7917670003153 -73.6507560001939,42.7919429997642 -73.6498079995419,42.7922910003686 -73.6495469995004,42.7924869997531 -73.6492739997574,42.7927139997258 -73.6490179999972,42.7929639999434 -73.6487800004977,42.7932230001998 -73.6486059999059,42.7934159996542 -73.6444550002967,42.7941590000894 -73.6408150005949,42.7946570001657 -73.6402490005265,42.7947340002769 -73.6353260001291,42.7954070001611 -73.6245559997792,42.7963880001185 -73.6207459995233,42.7971430000484 -73.6127290005232,42.7986130002149 -73.6125680005419,42.7986650003773 -73.6124280000171,42.7986999999474 -73.6115649996692,42.7988100002942 -73.6114219994768,42.7988389999112 -73.6111309997397,42.7989240003905 -73.6037679999018,42.7997840004293 -73.5986349995455,42.8003979998989 -73.595933999962,42.8007730000562 -73.5909260005604,42.8013519997469 -73.5886229997063,42.8016139998577 -73.5880980001567,42.8016740003782 -73.5774389996979,42.8029050001932 -73.5753629996485,42.8031440003394 -73.566419999426,42.8041769998365 -73.5481679996753,42.8062929997596 -73.5397820004523,42.8072470002912 -73.5230899994015,42.8091849996273 -73.5121839999248,42.8104399997891 -73.5120689997815,42.8104529999253 -73.5117549998414,42.8104929996728 -73.5085520001721,42.8108620004498 -73.5082760005334,42.8108949996949 -73.5077650003917,42.8109539995793 -73.5070420003584,42.8110400001969 -73.5067239996768,42.8110739995555 -73.5062890002617,42.8111280001985 -73.5060229999434,42.8111590001503 -73.5059440000059,42.8111650004345 -73.4994319994565,42.8116820002244 -73.4961759999935,42.8122070002462 -73.4941109995278,42.8123870001631 -73.4916329995121,42.8126219997758 -73.4812239997307,42.8138690004457 -73.4735249995253,42.8144350004263 -73.4676889994589,42.8155659999483 -73.4650280003806,42.8157940001749 -73.44738400032,42.8178599999201 -73.4362229995087,42.8191640002861 -73.4324060003349,42.8195880003563 -73.4311499994377,42.8197020002721 -73.4170110003422,42.8212850003496 -73.4157249994874,42.8214300004297 -73.4081479996001,42.8222830002305 -73.4014749996705,42.8230339999836 -73.3891819994065,42.8244470004184 -73.3747580001999,42.8260399995676 -73.374550000256,42.8260640003812 -73.3742439995373,42.82609299999 -73.3725250000888,42.8262940004361 -73.3558279996683,42.8282500002832 -73.3361689994696,42.830572 -73.3356970003575,42.8306240002905 -73.3273489995368,42.8315999997483 -73.3251019995496,42.8318640003979 -73.3244470004411,42.8319359998825 -73.3236740001591,42.8320330000894 -73.2971390005742,42.8353069995749 -73.278306000383,42.8375579997755 -73.277644999775,42.8532089995494 -73.2770699994131,42.8668260000578 -73.2771220000763,42.8680059997623 -73.2769810003731,42.8712109998356 -73.276860000008,42.8739570001231 -73.2768560002535,42.8740130004151 -73.276747999481,42.875075000334 -73.2759970001322,42.8926969996006 -73.275810999686,42.8971089997594 -73.2758040005574,42.8972489995875 -73.2758360002265,42.8976460000662 -73.2759610001692,42.9012249997228 -73.2759600002263,42.9012520003841 -73.2757010002443,42.9064939995996 -73.275425999418,42.9147909998821 -73.2753850002492,42.9160169999405 -73.2751410004516,42.9230799997847 -73.2747719994806,42.9338580002235 -73.2747420002945,42.9344330002932 -73.2745780005623,42.9375939999604 -73.2745690002103,42.9377839997778 -73.2745269997022,42.9386190002836 -73.274483999517,42.9398470002126 -73.2744620004692,42.9404569997903 -73.2744049997478,42.9421190000399 -73.2743930004139,42.9424849999165 -73.2742940000554,42.9436520001771</coordinates></LinearRing></outerBoundaryIs></Polygon>
  </Placemark>
</Folder>
</Document></kml>
