<?xml version="1.0" encoding="utf-8" ?>
<kml xmlns="http://www.opengis.net/kml/2.2">
<Document id="root_doc">
<Schema name="shape" id="shape">
	<SimpleField name="District" type="string"></SimpleField>
	<SimpleField name="Code" type="string"></SimpleField>
</Schema>
<Folder><name>shape</name>
  <Placemark>
	<Style><LineStyle><color>ff0000ff</color></LineStyle><PolyStyle><fill>0</fill></PolyStyle></Style>
	<ExtendedData><SchemaData schemaUrl="#shape">
		<SimpleData name="District">New York 15</SimpleData>
		<SimpleData name="Code">NY-15</SimpleData>
	</SchemaData></ExtendedData>
      <Polygon><outerBoundaryIs><LinearRing><coordinates>-73.8303719995175,40.8644690004416 -73.8314740002545,40.8663599997043 -73.8317829994611,40.8669499999507 -73.8321860005335,40.8677259997938 -73.832590000231,40.868501000254 -73.8327299999957,40.868456999853 -73.833600000439,40.8702070002614 -73.8340129999866,40.8711720003724 -73.8343370005169,40.8720269996769 -73.8344940004491,40.8725580000079 -73.834750000389,40.8737429996488 -73.8348809996368,40.8744289995495 -73.834880999983,40.8755050004126 -73.8347889995091,40.8760789998011 -73.8346660005299,40.8766119995747 -73.834502000221,40.8772269995725 -73.8344219995427,40.8774029996281 -73.8339999994274,40.8783879999801 -73.8348209995404,40.8780569999387 -73.8357419995414,40.8797010001188 -73.8366060002417,40.8794209996647 -73.837536999676,40.8791199998191 -73.8377570005699,40.8795089995642 -73.8387430001662,40.8812660002743 -73.8395100004025,40.8826299996328 -73.8404169996728,40.8823999997076 -73.8412709999313,40.8821920003307 -73.842109000112,40.8819770003719 -73.8433720002227,40.8816580001625 -73.8437979996567,40.8810209999332 -73.8445860005593,40.8813579996215 -73.8452330005668,40.8816360002129 -73.8451429994267,40.8817609997158 -73.8463590004383,40.8822059995884 -73.8465759999951,40.8822109995674 -73.8493799994475,40.8834009998906 -73.8495849999372,40.8833450000713 -73.8497350001462,40.8835550000151 -73.8492780004456,40.8842419998644 -73.8488200005101,40.8849200003703 -73.8483640002673,40.8856099997625 -73.8479029997185,40.8862959999132 -73.8474439996181,40.8869779995661 -73.8470490001996,40.8876720000356 -73.8466550004438,40.8883910003494 -73.846262000492,40.889098000442 -73.845905999928,40.8897409998515 -73.8463250003851,40.8898770004031 -73.8471809994727,40.8921279997507 -73.8480629996592,40.8944370003127 -73.848938000509,40.8942070001547 -73.8495140005467,40.8957180002865 -73.8504950004129,40.8982759998699 -73.8496069997152,40.8984709996392 -73.848722000494,40.8986650000866 -73.847854999715,40.8988559999778 -73.8482190000368,40.899827999733 -73.8474240001326,40.9002739996667 -73.8469360001352,40.9015199999905 -73.8468019998057,40.9015519999929 -73.8466279998439,40.9015890001445 -73.8454709994903,40.9018380002015 -73.8459560005672,40.9030879998672 -73.8459850005383,40.9031629998912 -73.8450800004664,40.9033590004276 -73.8441780004868,40.903559000092 -73.8443889995534,40.9040960001521 -73.8444200003368,40.904171999787 -73.844701999483,40.904183000297 -73.8447129994338,40.9046250004335 -73.8447280003325,40.9047319996822 -73.8448469995275,40.905309999981 -73.8453199996441,40.9055820002342 -73.8454029994635,40.9056040004119 -73.8461040002451,40.9057770000237 -73.8462559996102,40.9058420002783 -73.8467990004115,40.9060780002478 -73.847071000314,40.9061730002262 -73.8486830000576,40.9067429995508 -73.8488030004364,40.906792000122 -73.8491260001246,40.9069230000031 -73.850224999881,40.9073679999633 -73.8504520004854,40.9071829996193 -73.850517999467,40.9071240003549 -73.8506610005252,40.906925000439 -73.8510190002234,40.9065020001682 -73.8510570000358,40.9064580002735 -73.8513039996471,40.9065779999627 -73.8515059995367,40.9066450002469 -73.8522039998321,40.9068780000108 -73.8526010002625,40.906977000232 -73.85278999996,40.9070730002841 -73.8535280000462,40.9074649996255 -73.8530689996695,40.9080209998337 -73.8527140001618,40.9084460000011 -73.8523689995638,40.9088800003698 -73.8520779999524,40.9088870001448 -73.8520460005125,40.9089589996789 -73.8518719995752,40.909158999666 -73.8518120003915,40.9092289997872 -73.8514839999445,40.9095919998468 -73.8511230003485,40.9100089999265 -73.8513790004635,40.9100440002159 -73.8521840000042,40.9095149997939 -73.8526779999338,40.9098990002925 -73.8529349994849,40.9099189995452 -73.8537130005806,40.9094469997517 -73.853997000474,40.9092760001087 -73.8542340005204,40.9090099997295 -73.8543419996783,40.9089739998712 -73.8548810003586,40.9082169999951 -73.8547680004391,40.9081589995816 -73.8544849999447,40.9080110001406 -73.8543019999119,40.9080910001306 -73.8542040001716,40.9080669998275 -73.8539829994552,40.9080049996006 -73.8538220003241,40.9077730004381 -73.8538040001963,40.9076809999148 -73.8538019998524,40.9071789996289 -73.8540069995682,40.9068420001632 -73.8541040001392,40.9066790000456 -73.8547040001003,40.9065780002214 -73.8551040002569,40.9063779995949 -73.8555340001443,40.9061439995757 -73.8556870004559,40.906060000242 -73.8561080005878,40.9060600002419 -73.8562269994636,40.9061190002068 -73.8563240000067,40.9061660001407 -73.8563260004738,40.9058009998598 -73.8562789998627,40.9057280002538 -73.8562039994326,40.9054749999409 -73.8561179999466,40.9054540001946 -73.8559590002715,40.9053880003079 -73.8559440000365,40.9052560004182 -73.856177999725,40.9051069996272 -73.8562039995486,40.905090999654 -73.8563939995312,40.9050449996113 -73.8566969996328,40.9049099996583 -73.8569560000408,40.9049530002873 -73.8571359995453,40.904985000366 -73.8573210001455,40.9050170001772 -73.8574490002433,40.9048369997241 -73.8575870002826,40.9046689997325 -73.8574039997777,40.9045789997047 -73.8572320000296,40.9044929999182 -73.8570040004648,40.9043779998418 -73.8570039999131,40.9038200002138 -73.8570000001412,40.903579000273 -73.8571990001449,40.9028779996301 -73.8577069994112,40.9025720001464 -73.8578250000467,40.9025329999229 -73.8582000001211,40.9023790001478 -73.8582209996022,40.9023349997591 -73.8583020003873,40.9020769998747 -73.8584689999153,40.9021600002224 -73.8590140001907,40.9024329995786 -73.8590969999619,40.9024710000655 -73.8591139997301,40.9024719997081 -73.8596039994661,40.9021779999252 -73.8593919997516,40.9018949998133 -73.8593029994107,40.9017780000927 -73.8590029994379,40.901477999656 -73.8590370005383,40.9014699999504 -73.8594040001978,40.9013780002123 -73.8592039994228,40.9008779998133 -73.8593000004386,40.9004940002965 -73.8593100005143,40.9004789997779 -73.8593930005479,40.9003809997129 -73.8596330003874,40.9004580003543 -73.8600059994521,40.9005649999969 -73.8601039999083,40.9005780000427 -73.8602570002808,40.9006159998118 -73.8603209998048,40.9006379996468 -73.8607750005796,40.9007869996461 -73.860955999613,40.9008460001112 -73.8615899994098,40.9010510001132 -73.8620409994132,40.9012030003525 -73.8624009998807,40.9013409997095 -73.8626429999434,40.9014740002988 -73.8628600001509,40.9015249996096 -73.8628790000675,40.901538000143 -73.8646689994074,40.9017930000408 -73.8652560005403,40.9019490002559 -73.8652679998617,40.9019619999696 -73.8656349999116,40.9020860000245 -73.8669519995289,40.9024749998863 -73.8678760000771,40.9029829998349 -73.8690459994873,40.9033330001121 -73.8707309994804,40.9038259999045 -73.8709400003481,40.9038870002118 -73.8727349995022,40.9044150003003 -73.8729129999472,40.9044670002305 -73.8740869998121,40.9048070003101 -73.8746230004324,40.9049600002158 -73.8747969997166,40.9050099998243 -73.8755589995781,40.9052320002549 -73.87559899971,40.9052439999834 -73.8762290001043,40.9054299995596 -73.8764549997022,40.905497000022 -73.8765880003521,40.9055389999946 -73.8776280005669,40.9058539995634 -73.8778550000976,40.905921999715 -73.8780120003177,40.9059649999861 -73.8781889998194,40.9059829997484 -73.8783500004736,40.9059830003015 -73.8792390002445,40.906364999939 -73.8795310002373,40.906440999896 -73.8801110002311,40.9065910003789 -73.8806369995624,40.9067450003541 -73.880928999514,40.9068300004083 -73.8814430000049,40.9070039999401 -73.8818249995958,40.9071339997713 -73.8828290004625,40.9073819999463 -73.882993000075,40.9074230001946 -73.8840540000933,40.9074970001778 -73.8842459997583,40.9075120000862 -73.8848320003248,40.9077230001872 -73.8854010003023,40.907976999982 -73.8860099999562,40.9079789997192 -73.8861650000759,40.9080300003368 -73.8862370003513,40.9080520000329 -73.8883939995386,40.908719999709 -73.8918050004584,40.9097779997942 -73.8919279998615,40.9098089996466 -73.8922050001175,40.9098779997489 -73.8927989995959,40.9100579996258 -73.8965429996612,40.9112930002016 -73.8966339996516,40.9113239996006 -73.8972530002025,40.9116550002892 -73.8973600002353,40.9116720003451 -73.8974240001849,40.9116930004353 -73.8981200001072,40.9117979997001 -73.899504999528,40.9119780001019 -73.8999700005593,40.9121320000407 -73.9006970001596,40.9123809998187 -73.9021059996773,40.9128790003961 -73.9024539997228,40.9129790003106 -73.9038059999714,40.9133529999927 -73.9041940005438,40.9134600004073 -73.9059469995036,40.9139479996433 -73.9083019999348,40.9146090003906 -73.9094710000122,40.9149240002485 -73.9100060004373,40.9150760003962 -73.9102789995963,40.9151869999275 -73.9105160000124,40.9152819998426 -73.910807999857,40.9153720004183 -73.9183170002488,40.9177049998296 -73.918347000401,40.9176300002536 -73.9192099997366,40.9154490003216 -73.9194309996868,40.9148920001877 -73.9199339994242,40.913623000101 -73.9199459997746,40.913592000177 -73.920968000447,40.9110130000257 -73.9212410004802,40.9103229997424 -73.9224670001921,40.9072359997664 -73.9233070005415,40.905062000262 -73.9238419995124,40.9036750003871 -73.9242350000305,40.9027360001783 -73.9249529998439,40.9010180002714 -73.9259220001601,40.8984769995875 -73.9265489998558,40.8968789996631 -73.9271190001688,40.8954959996076 -73.9272419998168,40.8951980004145 -73.9282940000754,40.8925619999943 -73.929187000554,40.8903079996568 -73.9294280000521,40.8896920001326 -73.9294549997538,40.8896219995501 -73.9298210004944,40.8886819999723 -73.9317290000557,40.8855780003447 -73.9325729994535,40.8842100003476 -73.9336519996832,40.8824630003543 -73.9338080002606,40.8822140003824 -73.9337879994303,40.8822069998735 -73.9249739997295,40.8791440003439 -73.9246500004759,40.8790379998606 -73.9245030005626,40.8789739996202 -73.9226019998317,40.8787790001977 -73.9216300000259,40.8783210003574 -73.9198079997651,40.8765769997008 -73.9189319998963,40.8763879998654 -73.9173090002981,40.8760369998335 -73.9151999995426,40.8755810004179 -73.9151680001294,40.8756949999611 -73.9151249999949,40.8758449999734 -73.9149049997889,40.8765780001633 -73.9122049997429,40.8781779996513 -73.9114050003284,40.8792780004226 -73.9103099996986,40.8790470002094 -73.9101029995564,40.8792000003848 -73.9096779997186,40.8795150001885 -73.9103050001823,40.8800520004406 -73.9103630000828,40.8801260003269 -73.9104490004599,40.8802380000259 -73.9104759994939,40.8803270001768 -73.9105369999678,40.8805690004296 -73.9102699996179,40.8807350003692 -73.9093359994215,40.8813460003753 -73.9080119996766,40.8824000003378 -73.906474999848,40.8837319999938 -73.9047209997176,40.8852419995816 -73.9040170003865,40.8847719999287 -73.9033090002109,40.8843010003566 -73.9017939999355,40.88561000033 -73.9016920001114,40.8855259996929 -73.9015399996427,40.8854220002014 -73.9013660000406,40.885325000184 -73.9011890005758,40.8852470001977 -73.9010140003955,40.8851860003091 -73.900647000329,40.8850990002095 -73.9010429996479,40.8843710004173 -73.8996890003479,40.8839589997302 -73.8989589998003,40.8845919997257 -73.8982589997794,40.8853060002674 -73.8973830004388,40.8860870002716 -73.8965799994541,40.8859379997485 -73.8976259997642,40.8851520000663 -73.8984649995595,40.8843250002078 -73.8979670003063,40.8840340004065 -73.8965960000794,40.8850090000196 -73.8964280000549,40.8851170004039 -73.8962229998579,40.8851960004165 -73.8960009997064,40.8852619997723 -73.8957539995924,40.8853160000518 -73.8953909994586,40.885362000233 -73.8951450001006,40.8853520002976 -73.8949220002031,40.8853520004033 -73.8947839998633,40.8854310002582 -73.8947240001091,40.8855570000058 -73.8945289999777,40.8855039996545 -73.8928860000861,40.8852639999516 -73.8917660004351,40.8850500001493 -73.890805999447,40.8848680004063 -73.8898469997094,40.8846849997096 -73.8888960002565,40.8845040003799 -73.8904249994583,40.8825099998897 -73.8886349998687,40.8827650002404 -73.8880970001267,40.8828550002422 -73.8878320000282,40.8829060003836 -73.8875729999998,40.8829060003503 -73.8872470001764,40.8828440004073 -73.8869669998485,40.8828140000422 -73.8870110003694,40.8824719995956 -73.8859359995166,40.8804810001555 -73.8858260003207,40.8799080001045 -73.8857739997425,40.879599999896 -73.8856560004582,40.8788899997661 -73.8852650004274,40.8792279996084 -73.8846610004124,40.8797489997024 -73.8843320001994,40.8793399998783 -73.8842289995484,40.8787219998218 -73.8841119995024,40.8782639999027 -73.8843039996281,40.8783429999423 -73.8844709999732,40.8783589996545 -73.8846049995274,40.8783539998825 -73.8847099998509,40.8782950001307 -73.8838300003343,40.8767830003633 -73.8834239999877,40.8757420004471 -73.8834359994664,40.8753839998226 -73.8834399997708,40.8747939996743 -73.8833999997082,40.8739469995826 -73.8829570000276,40.8730519999354 -73.8824700002152,40.8721279999768 -73.8817540005843,40.8723489995862 -73.8813939995106,40.8712080002138 -73.8811420004308,40.8708440003586 -73.8809109994955,40.8704880002783 -73.8806949994158,40.8698199997302 -73.8803749994177,40.8691939996863 -73.8814689995688,40.8685729997532 -73.8818409995036,40.8683700003117 -73.8828429997614,40.8677359998938 -73.8836250004667,40.8672580002983 -73.8844290004756,40.8668009999358 -73.8851400001887,40.8663830003958 -73.88528300001,40.8663009999748 -73.8859369997965,40.865924000265 -73.8868329997434,40.8653900001453 -73.8881220002681,40.8642550002975 -73.8894529998794,40.863091999818 -73.8901049994123,40.8626159998613 -73.8912920003449,40.8617650000601 -73.8914470004558,40.8616339998731 -73.8924279997428,40.8606570000633 -73.8925630000747,40.8605230002236 -73.8932149996175,40.8598740003084 -73.8940419999673,40.8602789998663 -73.8946939997412,40.859425999594 -73.8957400001682,40.8581389995666 -73.8955809994177,40.8580219999657 -73.8955090001252,40.8579130002323 -73.89550900021,40.8578290004094 -73.8955569997076,40.8577449998924 -73.8958229999353,40.8573220002538 -73.8958829994314,40.8572019996204 -73.8958710003568,40.8570929997183 -73.8958260004907,40.8570260000049 -73.896125999688,40.8569150004458 -73.8961670001874,40.8568430000835 -73.8961970001182,40.8567929997008 -73.8968740001939,40.8570610004385 -73.8972349999614,40.8563819996667 -73.8972629996714,40.8563299998688 -73.8973069997899,40.8565100002986 -73.8975129995041,40.8565820003244 -73.8981039998917,40.8567879996838 -73.8981719994053,40.856812000394 -73.8990670005773,40.857118999786 -73.8997769997493,40.8573609998884 -73.9001379996068,40.8574849998566 -73.9009389999347,40.8577590001566 -73.9017620000432,40.856387999654 -73.9027790004611,40.8567339997194 -73.9036149998115,40.8570209997825 -73.9043049996348,40.8558880001001 -73.9052220005807,40.8562039996717 -73.9055700001531,40.8557870000798 -73.907333000051,40.8538160000691 -73.9084179996137,40.8526439999236 -73.9092149999391,40.8518009996148 -73.9095309996539,40.8519019997834 -73.9098640005738,40.8519579996986 -73.9101750001117,40.8519829997374 -73.9107769999431,40.8519390003119 -73.9110250000885,40.8519059999622 -73.9113220003975,40.8518049999036 -73.9114529997917,40.8517399996246 -73.9115359996761,40.8516919997048 -73.9118440000162,40.8514450002507 -73.9119469996307,40.8513529997128 -73.9121130000799,40.851091999767 -73.912171999656,40.8509429996944 -73.9122120000545,40.8507809998924 -73.9122909998555,40.8506100001791 -73.9124820004344,40.8503779996063 -73.9127310005755,40.850170000178 -73.9128750003349,40.8501250001703 -73.9139680001139,40.8486090000221 -73.9144260000626,40.847964000122 -73.9161740005842,40.8482889999536 -73.9161420004838,40.8488780003315 -73.9161270004944,40.8490059997911 -73.9160509994349,40.8500429995888 -73.9172859998297,40.8491889997487 -73.9184089996811,40.8494399996343 -73.9192410002248,40.8484230000013 -73.919679999605,40.8479020003631 -73.9204819999442,40.8482640004378 -73.9212779994927,40.8486480000071 -73.9203189997971,40.8498040002279 -73.9212819999666,40.849992000376 -73.9216330003459,40.8500569996627 -73.9222880005114,40.8502770004396 -73.9224199999498,40.8501230000714 -73.9228099996097,40.8502209996694 -73.9233049997205,40.8503409997551 -73.923903999858,40.8504880000286 -73.925036000469,40.8491799999216 -73.9272959995645,40.8465569996206 -73.927397000017,40.846435999599 -73.9280320003064,40.8456700001458 -73.9281059996994,40.8455790000503 -73.9281499998977,40.8455069997051 -73.9282530003535,40.8453350001616 -73.9290059994266,40.8440790002633 -73.9295030005297,40.8423809996476 -73.929635000018,40.8422559999994 -73.9296950000477,40.842194999723 -73.9295790002135,40.8420469995836 -73.9297270005135,40.8418490003603 -73.9300390003494,40.8412500000076 -73.9303679998484,40.8406499997082 -73.9304060000005,40.8402790001159 -73.9306059997513,40.8396789999987 -73.9330059999812,40.8356789996608 -73.9331440002476,40.8348150003875 -73.9334590002477,40.8331840004484 -73.9334169999458,40.8313770003866 -73.9332630000132,40.8295040000548 -73.9331929996874,40.8291610003757 -73.9331819996133,40.8289850003267 -73.9331600003062,40.8288860003978 -73.9331399999513,40.8286290002469 -73.9330739996959,40.8282749996001 -73.9330620000445,40.8282019999347 -73.9330470002982,40.8279949995981 -73.9330329996398,40.8279130001653 -73.9330210002175,40.8278340000791 -73.9330029998539,40.8276760004318 -73.9328979997995,40.8265579997797 -73.9328250003606,40.826078000161 -73.9328130004077,40.8259410002041 -73.9327929998833,40.8258299998004 -73.9327809995231,40.8257149998576 -73.9327490005371,40.8254920001707 -73.9327489994695,40.8253859997011 -73.9327359996948,40.8252899997776 -73.9327280004773,40.8251830001581 -73.9327189994622,40.8251159997552 -73.9326610004145,40.8245379997581 -73.9326429998478,40.8243560001006 -73.9326320005152,40.8241339999679 -73.9325910004996,40.8236659996509 -73.932567999471,40.8234880002101 -73.9325669999341,40.8232500001655 -73.9325379998687,40.8230510000325 -73.932519999967,40.822800000449 -73.9324909996815,40.8225539995524 -73.9324679996887,40.8222030004203 -73.9324250000254,40.8215609998244 -73.9324009996692,40.821192999931 -73.9323330004552,40.8196539997429 -73.9323249999585,40.8194630003732 -73.9322629999075,40.8180020003898 -73.9323330002499,40.8150999996989 -73.9323329995551,40.8149230001481 -73.9323559994913,40.8146799997539 -73.932364999408,40.8145909999768 -73.9323680005659,40.8143989996453 -73.9323900005113,40.8142540002643 -73.932409999561,40.8140599997307 -73.932417000103,40.8140249997065 -73.9324249998682,40.8135659999598 -73.9324929999092,40.812883999974 -73.932602000354,40.8119879996283 -73.9326049998908,40.8115170003269 -73.9326300005475,40.8106060002278 -73.9326149997244,40.8100150003926 -73.9325860002148,40.8096759999654 -73.9325699997677,40.8092559999813 -73.9324769995453,40.808863999688 -73.9323459996878,40.8085860000099 -73.9321119999592,40.8081819998057 -73.9318250005364,40.8079019996381 -73.931800999433,40.8078760001428 -73.9309380001179,40.8082529999911 -73.9301079995002,40.8088769999298 -73.9295219996162,40.8093220001327 -73.9294399994418,40.8093840001135 -73.9293320001254,40.8094710000282 -73.928625000075,40.8089480004344 -73.9267899997477,40.8078000001806 -73.9266699996066,40.8077530000321 -73.9248260002196,40.8070450000547 -73.9244649999742,40.8068890002758 -73.9242650005705,40.8071749996671 -73.923837000561,40.8078089997671 -73.9233750004205,40.8084319997571 -73.9228859995288,40.8091060002632 -73.9224000000572,40.8097799995977 -73.9219500001369,40.8104050001187 -73.921485999717,40.8110349999375 -73.9212520001853,40.8113560002123 -73.9210349999865,40.811651999697 -73.9175989998712,40.8103510004411 -73.9172259995569,40.8110020000065 -73.9168380004012,40.811656000446 -73.9148470004022,40.810993999716 -73.9144739997346,40.8116509996425 -73.9140980004769,40.8123010003248 -73.9137159996329,40.8129529997697 -73.9133369997111,40.8136110004193 -73.9129539999775,40.814268999873 -73.9118119998747,40.813882999622 -73.9109480004464,40.8136210003396 -73.9100190003287,40.8134319998448 -73.9095210003646,40.8148250000521 -73.9091320000899,40.8159410003001 -73.9082249995102,40.8162030004236 -73.9075890002937,40.8165959999844 -73.906650000537,40.8171790002064 -73.9063050001377,40.8173709998534 -73.905313000082,40.8179249996768 -73.9050069998434,40.8178660001694 -73.9035929997661,40.8175789996399 -73.9025790004621,40.817369999588 -73.9021069998402,40.8185050002591 -73.9019280003184,40.8189240003678 -73.90183199956,40.8191469999327 -73.9016680003712,40.8195339999365 -73.9016019999962,40.8196949998693 -73.9008519995845,40.8200590002074 -73.9006459996541,40.8201639997783 -73.8998600001226,40.820562999914 -73.898985000224,40.8210380002445 -73.8978639995133,40.8215979998185 -73.8968780002008,40.8221179998826 -73.8968640004843,40.823492000237 -73.8968609994078,40.8238479999656 -73.8968389998462,40.8259909996624 -73.89582399987,40.825995000395 -73.8962219999379,40.8271699998418 -73.8952919999568,40.8281430000587 -73.8952259996469,40.8282129999771 -73.895057999621,40.8283879997004 -73.894913999735,40.8283059999855 -73.8938430000563,40.8283920001991 -73.8929030001903,40.8284670001161 -73.8918909996977,40.8285470002834 -73.8908780004607,40.828629999725 -73.8899349994466,40.8287059996349 -73.8899120000971,40.8301239996591 -73.8890929995493,40.8315270000569 -73.8889359994396,40.8317980002856 -73.8879479998515,40.8334470000634 -73.8869629997526,40.8350959998829 -73.8859639994694,40.8367690002624 -73.8851070002331,40.8364749996755 -73.8848169997244,40.8369770004304 -73.8837389998547,40.8388460001829 -73.8835649999062,40.8389859996532 -73.883468000438,40.8390569997027 -73.883811000286,40.8394689996574 -73.8829070001485,40.8396030003639 -73.8824940002006,40.8395760001733 -73.8820940002788,40.8395869996333 -73.881493999537,40.8396929998172 -73.8804230004831,40.8400710000049 -73.8801630001312,40.8399980002402 -73.8797299994955,40.8400419997855 -73.8786599999226,40.8400199996154 -73.8783640003832,40.8399970000826 -73.8779140003616,40.8399710001631 -73.8774150004237,40.8399879998863 -73.8769079999924,40.8407550001709 -73.8765020002842,40.841400999583 -73.8760849997807,40.8420650004332 -73.874590999953,40.841521000238 -73.8741659996672,40.8413660001769 -73.8728079999263,40.8408690002863 -73.872252999488,40.8416010001924 -73.8715339999814,40.8425139997276 -73.8709949995626,40.8431120001775 -73.8703010005826,40.8435490002374 -73.8695950005883,40.8439809995939 -73.8688919996235,40.8444099999133 -73.8681269995575,40.8447870001053 -73.8680189999492,40.8448410003551 -73.8677880001022,40.8448750002818 -73.866878999671,40.8450660000751 -73.8661190000581,40.8452230002095 -73.8651940003876,40.8454149995685 -73.8643230005782,40.8455959998475 -73.863451000322,40.8457779997954 -73.8625849996072,40.8459609999529 -73.861706999628,40.8461399998351 -73.861443000063,40.8454100003107 -73.8611950003499,40.8447140001642 -73.8586540004606,40.8452859996859 -73.8590119997779,40.8459150001716 -73.8594400004963,40.846658999687 -73.8587019996032,40.846999999886 -73.8578950000414,40.847364000147 -73.8562789998227,40.8480929996715 -73.8554680002038,40.8484579997906 -73.8552100001609,40.8485730002358 -73.8546630003051,40.8488209998561 -73.853852999627,40.8491840004095 -73.8530459997809,40.8495469998373 -73.8522420001359,40.8499109999093 -73.8513679995442,40.850304000019 -73.8504990003421,40.8506960001358 -73.8496890002978,40.8510590000019 -73.8501090001674,40.8515989995887 -73.8494220003329,40.8521189998315 -73.8487419999683,40.8526439995561 -73.8481099995256,40.8526120000997 -73.848062000551,40.8532389997424 -73.8480109999392,40.8539510004353 -73.8480030004413,40.854290999958 -73.848031000532,40.8544040001313 -73.8480800002316,40.8545099998581 -73.8482880005045,40.8547309996773 -73.8489009996686,40.8552890000917 -73.8501780004735,40.8544739999569 -73.8506400001969,40.8550739999181 -73.8494830003238,40.8558149998827 -73.8500960003457,40.8563469998608 -73.8493859997889,40.8568569997061 -73.8493590000015,40.8574969996969 -73.8493539994569,40.8576329997062 -73.8493380001036,40.8581599997399 -73.8493089999784,40.8587179996411 -73.8483369996153,40.8587019997616 -73.8482969996014,40.8598109999523 -73.8473600000685,40.8597939999588 -73.8464219999594,40.8597749996418 -73.8454819996364,40.859702999903 -73.8445379997818,40.8596320000922 -73.8430030005101,40.8595020001153 -73.8431980003167,40.8608969996709 -73.8434339996392,40.8627679996526 -73.8417649995637,40.8627370003151 -73.8408229994855,40.8627189996387 -73.8407470000604,40.8651620000577 -73.8406440002244,40.8675540002506 -73.8397429997072,40.8670879998965 -73.8392199998494,40.8668210002304 -73.8387520001424,40.8665719999196 -73.8378440004135,40.8660989995901 -73.8369709995601,40.8656430002708 -73.8364310005456,40.8653560003544 -73.8359070001049,40.8650770001074 -73.8316019998593,40.8626280002837 -73.8295939997568,40.8621729999483 -73.8298090004192,40.8625829998663 -73.8305740003674,40.8643740000762 -73.8303719995175,40.8644690004416</coordinates></LinearRing></outerBoundaryIs></Polygon>
  </Placemark>
</Folder>
</Document></kml>
