<?xml version="1.0" encoding="utf-8" ?>
<kml xmlns="http://www.opengis.net/kml/2.2">
<Document id="root_doc">
<Schema name="shape" id="shape">
	<SimpleField name="District" type="string"></SimpleField>
	<SimpleField name="Code" type="string"></SimpleField>
</Schema>
<Folder><name>shape</name>
  <Placemark>
	<Style><LineStyle><color>ff0000ff</color></LineStyle><PolyStyle><fill>0</fill></PolyStyle></Style>
	<ExtendedData><SchemaData schemaUrl="#shape">
		<SimpleData name="District">New York 26</SimpleData>
		<SimpleData name="Code">NY-26</SimpleData>
	</SchemaData></ExtendedData>
      <Polygon><outerBoundaryIs><LinearRing><coordinates>-78.8250490004786,43.1330960001081 -78.8253520002247,43.133079999789 -78.8255279997245,43.1330649998732 -78.8259549998196,43.1330289997468 -78.826151000158,43.1330009996389 -78.8265499996555,43.1329469995938 -78.8269560001713,43.1328659996824 -78.8270370002364,43.132851000279 -78.8274239997367,43.1327559998811 -78.8295110004134,43.1327619998516 -78.8382809995309,43.1327889998857 -78.8416009997035,43.1327110002523 -78.8515630003339,43.1324810001191 -78.8548840001746,43.1324049998233 -78.8558070004823,43.1323939999469 -78.8585789996428,43.1323650003064 -78.8591840000377,43.1323589996526 -78.8595030005764,43.1323550000006 -78.8609780002406,43.132338000269 -78.861248999577,43.1323359996167 -78.8624639998962,43.1323240002889 -78.8654040000725,43.1322740000585 -78.8655609999825,43.1322719997013 -78.8668800005883,43.1322589995573 -78.867691999668,43.1322470000045 -78.8690250005215,43.1322299995968 -78.8699530004819,43.1322190002801 -78.8721039999482,43.1322180002771 -78.8754599998299,43.132207000186 -78.8776059996772,43.1322000001689 -78.879070999494,43.1321960003433 -78.8811960005756,43.1321920000545 -78.8827199995751,43.1321749998008 -78.8834649996179,43.1321709998978 -78.8849310001348,43.1321660002181 -78.8857979996988,43.132171999917 -78.8884000000574,43.1321919997167 -78.8892680003147,43.1321989995456 -78.8923379997868,43.1321799996463 -78.8933420003653,43.1321730000634 -78.9015510001053,43.1321239998524 -78.9046220006342,43.1321060004192 -78.9050760003339,43.1321029997806 -78.9055290005922,43.1320999999856 -78.9064970004174,43.1320929995649 -78.9121219996167,43.1320550002246 -78.9139979995104,43.1320430003604 -78.9173880000047,43.1320679995883 -78.9275609994727,43.1321459997344 -78.9309520000455,43.1321720003097 -78.9319410006059,43.1321870000426 -78.9356260001871,43.1322999998473 -78.9360560002686,43.1323139996434 -78.9422240004499,43.1325039998243 -78.9447660003823,43.1325210002708 -78.9452789998554,43.1325179998028 -78.9468329995854,43.1325120001326 -78.9507470002379,43.1324320004001 -78.9508259996569,43.1323910000503 -78.9510020005061,43.1323919999346 -78.9510970001963,43.1323949997107 -78.951492999729,43.1324110003326 -78.9659550004766,43.1323309998817 -78.9663640006438,43.1323179996802 -78.9675709995809,43.1322990000382 -78.9679759998309,43.1322929999022 -78.9688379997249,43.1322659996432 -78.9714260004743,43.1321860002861 -78.9722889998739,43.1321599997703 -78.9727670006411,43.1321559999974 -78.9734620006374,43.1321520002382 -78.9742040000725,43.1321419999501 -78.9746830002313,43.1321370002991 -78.9763560004484,43.1320529999423 -78.9770590002046,43.132039999745 -78.979045000252,43.1320070003883 -78.9937960002143,43.1317559999885 -78.993941999893,43.1317740003531 -78.9941039996899,43.1317719999918 -78.9950339995298,43.1317669997532 -78.9953450005458,43.1317660000764 -78.9956450004098,43.1317630002203 -78.9965489999981,43.1317559996907 -78.996850000442,43.1317539997512 -78.9970970001563,43.1317520004471 -78.9978380005061,43.131749000123 -78.9980859996076,43.1317479999945 -78.9986820000807,43.13174499983 -79.0000020005978,43.1317399995467 -79.0004700004494,43.1317410000669 -79.0009410000565,43.1317440004068 -79.0010630002852,43.1317759996806 -79.0016569997104,43.1317499998268 -79.0034430000177,43.1316730001727 -79.004038000589,43.1316479999178 -79.0044470002343,43.1316340004348 -79.0056739999064,43.1315959996755 -79.006083999876,43.1315840003163 -79.0065820006411,43.1315959999382 -79.008076000613,43.1316329995929 -79.0085739999361,43.1316459998309 -79.0096110003046,43.1316469998806 -79.0106250004821,43.1316480002708 -79.0167780004012,43.1316560001522 -79.0188300000158,43.1316589997646 -79.0188639998868,43.1316560002581 -79.0189699994719,43.1316469996065 -79.019005000419,43.1316450002326 -79.019136000033,43.1316779995864 -79.0193250002577,43.131727000048 -79.0195320002367,43.1317789997338 -79.0196640003201,43.1318129995681 -79.0240380001114,43.1318110000613 -79.0262619997147,43.1319729996099 -79.0266039998279,43.1319829999687 -79.0268940000518,43.1319900002179 -79.0276370006359,43.1320369996608 -79.0297180003476,43.1321049996649 -79.030756000185,43.1321389997753 -79.0347130002379,43.1322679997265 -79.0373840005468,43.132356000225 -79.0377760001072,43.1323740000634 -79.0379679998621,43.1323740001585 -79.039723000069,43.1323830001143 -79.0403080001779,43.1323859997862 -79.0404209995568,43.1323859997008 -79.0406220006647,43.1323879998222 -79.0407629995901,43.1323889996622 -79.0408770004487,43.1323899999912 -79.0410850003853,43.1323939998707 -79.041711999846,43.1324089999733 -79.0419210001453,43.132414000123 -79.044411999999,43.1320059999057 -79.0458060005492,43.1319350001917 -79.0468640002313,43.1320289999354 -79.0470080005889,43.1320950001218 -79.0473240003802,43.1320950003219 -79.0487430000553,43.1320979998186 -79.0489649995976,43.1320989996736 -79.0492159999602,43.1320989999203 -79.0495790001188,43.1320889996855 -79.0506700000626,43.1320629996778 -79.051033999903,43.132055000427 -79.0512380000961,43.1320550000395 -79.0518499995218,43.1320550003254 -79.0520550003506,43.1320549998949 -79.0537720003744,43.1297299997804 -79.0567670001505,43.1268550001089 -79.0572850002751,43.1267460002627 -79.0596599996246,43.126248000219 -79.0695559994645,43.1202549997039 -79.062222999927,43.1155330002902 -79.0619570002898,43.1153620000499 -79.060199999857,43.1136040001226 -79.0592670000238,43.1121549995621 -79.058262000065,43.109278999603 -79.0582570003759,43.1092559997299 -79.0582320005207,43.1091489999423 -79.058184000015,43.1089440002653 -79.0581400003924,43.1087619999102 -79.0581099999903,43.1086329996182 -79.0580880006791,43.1085439999661 -79.0580670004524,43.1084549999317 -79.0580370002349,43.1082009998166 -79.0579609998104,43.1069570003655 -79.0584730003264,43.1059400002253 -79.0622869998479,43.0983759996454 -79.0635589999555,43.0958549995716 -79.0641959995975,43.0945789997588 -79.0659609996693,43.0910519996985 -79.0662219998503,43.0908410002438 -79.0666760005754,43.0904759998004 -79.0672219995281,43.0900360001419 -79.0673330003485,43.0899470001414 -79.0678520001227,43.0893999996064 -79.0691510004354,43.0880299995702 -79.0740029999276,43.0830119997282 -79.0753670004883,43.0813549997194 -79.0744589996621,43.0778630001879 -79.0455669999684,43.0725620002683 -79.0397650004728,43.0714619997048 -79.0327710002127,43.0702159999612 -79.0286540004188,43.0694830003503 -79.0268630001661,43.0691640000003 -79.0253360001189,43.0689220001075 -79.0207550004287,43.0681990004244 -79.0192280005489,43.0679579996479 -79.0071299995203,43.0657569996459 -78.9994350002184,43.0560570003407 -79.0051389997145,43.0470560001621 -79.0117470001807,43.0289559995695 -79.0232559999179,43.0163560004327 -79.0208750003964,43.000716999863 -79.0208410000116,43.0004949997158 -79.0199640003264,42.9947560000635 -79.0115630004659,42.9852559999992 -78.9832570005515,42.9724600001902 -78.975062000596,42.9687560003114 -78.9725240003975,42.9668040002516 -78.9724620000656,42.9667559999816 -78.9617609995829,42.9577559996424 -78.9323600003919,42.9558570000829 -78.9219600002369,42.9489569996377 -78.9211950006007,42.9484390001933 -78.9188590001582,42.9468570001239 -78.9156590002187,42.9422569995838 -78.9142469998628,42.9403319999248 -78.9132659997169,42.9389940002813 -78.9123589997938,42.9377570000157 -78.9091590002977,42.9332569998074 -78.9077230000045,42.9295560003583 -78.9056590002119,42.9233570003797 -78.9057590006116,42.9211569995949 -78.90575899984,42.9130569995827 -78.9057579996161,42.9080490003508 -78.9057689994893,42.9069420004304 -78.9057579998982,42.9060500004056 -78.9057580006462,42.8999569999781 -78.9062200000171,42.8990319997243 -78.9097579998017,42.8919569997387 -78.9124480005517,42.886555000419 -78.9153589997732,42.8807570003457 -78.9305589998322,42.8501049998583 -78.9568770006256,42.8327099996621 -78.9452510003479,42.8325949999289 -78.9379560000228,42.832657000166 -78.9305480004639,42.8326509998529 -78.9248889999602,42.8326440002519 -78.8729440005315,42.8323269998961 -78.8706089998273,42.8323079999015 -78.8701959999888,42.8323049999922 -78.8689650002031,42.8322989997474 -78.8689940002221,42.8321430001925 -78.8690649999189,42.8316780000781 -78.8690279994616,42.831359000125 -78.8687709995305,42.8309220004355 -78.8685749997732,42.8306770001404 -78.8682669999437,42.8304809996772 -78.8680420001818,42.8302469999336 -78.8678889995882,42.8301080002778 -78.8678550001603,42.8299759997653 -78.8678940004122,42.829905000046 -78.8680670000421,42.8298299999273 -78.8691350006149,42.8294989997989 -78.8696920003603,42.8292929995947 -78.8701450002141,42.8290739997139 -78.8705549996852,42.8288000000357 -78.8709290001965,42.8284369997712 -78.8713019996899,42.828151000164 -78.871490000517,42.8281049995527 -78.8718889999864,42.8282249996726 -78.8722140006279,42.828366999632 -78.8724879998199,42.828459000275 -78.8726140000386,42.8284769997367 -78.8726669997085,42.828456000347 -78.8726539997717,42.8283899999454 -78.872487000428,42.8281730000337 -78.8723750000977,42.8279139999924 -78.8723059994905,42.8276880000662 -78.8722639999393,42.8269730001757 -78.8722050003049,42.8266649997819 -78.8723009995632,42.8264030002548 -78.8724660005348,42.8260369999708 -78.8725529994757,42.8258740001003 -78.8725159999367,42.8255440003226 -78.8723690003,42.8251740002205 -78.8722540001603,42.8246789996788 -78.8720439995401,42.8241319997223 -78.8719550001992,42.8235109997637 -78.8718720005749,42.8229879999642 -78.8718050001402,42.8226789997257 -78.8717679999145,42.8223769995882 -78.8717030004444,42.8222719997594 -78.871478000422,42.8220160003632 -78.8712899996963,42.8218100000169 -78.8710979999805,42.8214290001593 -78.8708340002956,42.8209420003875 -78.8706319999758,42.8206759997833 -78.8704290000237,42.8204259999742 -78.8702950000094,42.8201330002598 -78.8699529997256,42.819206000353 -78.8697349996445,42.8186710001518 -78.8695690004545,42.8181689996226 -78.8694259994487,42.8179029996665 -78.8692140001435,42.8174280000663 -78.8688790005361,42.8168090001862 -78.8686290004631,42.81639299963 -78.8684079995789,42.8159620002197 -78.8682679997875,42.8156250003274 -78.8677760003423,42.8150199999745 -78.8673760004461,42.8146190000513 -78.8669999996719,42.8141359997042 -78.8665669997249,42.8135590000249 -78.8662350000003,42.812836000029 -78.8659349995996,42.8123149996557 -78.8656340006422,42.8118120001948 -78.8653560001884,42.8112920002253 -78.8652050003591,42.8111029999699 -78.8651010004677,42.8110579995699 -78.8649889996725,42.8109699999355 -78.8649840001391,42.8108699997776 -78.8650339998552,42.8107490001473 -78.8650369994617,42.8106340002584 -78.8649770004799,42.8103590001825 -78.8645059997639,42.8095070002803 -78.8643160000708,42.8090919995527 -78.8640810003229,42.8086389997564 -78.863879000093,42.8083609997084 -78.863581000416,42.8080500001956 -78.863438999829,42.8077729998522 -78.8633409999495,42.8075199996857 -78.86301300042,42.8069110001687 -78.8627190005774,42.8061660000083 -78.8625690006532,42.8058890004145 -78.8624420005733,42.8056130001116 -78.8623749995783,42.8053789997451 -78.8593799998095,42.8053320001819 -78.8563860005154,42.8052840003556 -78.8558590000626,42.8052749998276 -78.8545020004926,42.8052540003584 -78.8535670003185,42.805238999916 -78.8532290005351,42.8052330000868 -78.8526760002636,42.80522499968 -78.8518340005548,42.8052110002838 -78.8514330000034,42.8052049997561 -78.8509219995787,42.8051969996037 -78.8504490001568,42.8051889996077 -78.8500869998005,42.8051830000449 -78.8495859997285,42.8051750002099 -78.8492840003751,42.8051709999796 -78.8487589996794,42.8051620001257 -78.8484270005763,42.8051569995777 -78.8481599997787,42.8051589998416 -78.8478920002401,42.8051600003517 -78.8461589998157,42.8051690002768 -78.8426210002782,42.8049909998579 -78.8419549996859,42.8049580001968 -78.8411709996079,42.8049720000008 -78.840290999555,42.8049870001989 -78.8384460003001,42.8050140000996 -78.8366020001219,42.8050419999684 -78.8365459997147,42.8050419998921 -78.8360579998541,42.8050500002906 -78.8355709995344,42.8050589996114 -78.8343800002823,42.8050520003094 -78.8322159998698,42.8049620003718 -78.8317999999752,42.8049509996312 -78.828796000425,42.804861999804 -78.8239469994623,42.8049279997858 -78.8229419998988,42.8049119997508 -78.8204440003223,42.8048719995452 -78.8194939999063,42.8048559997334 -78.8170910005264,42.804816000278 -78.8139480006503,42.8047399998973 -78.8132310006411,42.8047180000102 -78.8129620000067,42.8047119998776 -78.8122179998114,42.8046960000615 -78.811704000272,42.8046850004414 -78.8114160001188,42.8046789997464 -78.810948999735,42.8046560000177 -78.8104670005986,42.8045299997697 -78.8101249996792,42.8046560001321 -78.8097659996153,42.8046420003442 -78.8097260005654,42.8046410001489 -78.8066170000452,42.8045729998898 -78.8065709996618,42.8045720002916 -78.804888999799,42.8045390001088 -78.8038190004939,42.8045130002297 -78.8036779999699,42.8045099996224 -78.8025749996868,42.8044900001448 -78.8006319999958,42.8044459997674 -78.7990829996727,42.8044109997626 -78.7980059998539,42.8043909997733 -78.7972600001708,42.8043780002821 -78.7965580001359,42.8043639996074 -78.7950009997275,42.8043350001112 -78.7947750002191,42.8043299996201 -78.7934309998657,42.8043060000207 -78.7927490000045,42.8042920002583 -78.7891379995531,42.8042210000069 -78.7844509995668,42.8041560000744 -78.7834250002517,42.8041449996631 -78.783006000394,42.8041400003178 -78.7821460003966,42.8041299998819 -78.7813400006611,42.8041240003196 -78.7812440001842,42.8041220004074 -78.7801439999262,42.8041189999261 -78.7798550002337,42.8040949996499 -78.7793760006046,42.8040259997598 -78.7782669998106,42.8040420004121 -78.7781780005353,42.8040310004002 -78.7753689994339,42.8040309996486 -78.7717119999571,42.8040190003968 -78.7695459996688,42.80400099995 -78.769301999545,42.8040150003073 -78.7687300001032,42.8040490003788 -78.7681110000754,42.8040349997996 -78.7674550001512,42.8040210002886 -78.7664400002627,42.8039649999186 -78.7660519994265,42.8039579996708 -78.7648280001889,42.8039609997974 -78.7618610000355,42.8039889999402 -78.7553760003116,42.8039410004296 -78.7534360003726,42.8039189999091 -78.7517530002978,42.8039099998763 -78.749592999541,42.8038999995828 -78.7481360004192,42.8038969996186 -78.7449650006045,42.8038899995794 -78.7429929998318,42.803883000056 -78.7384109999742,42.8038620001338 -78.7384090000018,42.8041050001323 -78.7384020000533,42.8050009995583 -78.7384010005204,42.8056160004071 -78.738398000255,42.8080849999205 -78.7383949994889,42.8090299998792 -78.7383929998436,42.8098320002498 -78.7383880003802,42.8112830003795 -78.7367470005889,42.8112810000585 -78.7351019995909,42.8112799999965 -78.7288739998981,42.8112760000507 -78.7281249994783,42.8112749996701 -78.7264060000425,42.811271999898 -78.7258200006547,42.8112720003306 -78.7241169997467,42.8112710000715 -78.7235499995424,42.8112700000076 -78.7229620002198,42.8112679997783 -78.7219160006422,42.8112650001861 -78.7155190001157,42.8112450000147 -78.7151650004224,42.8112450001912 -78.7136789996377,42.8112419996413 -78.7131229996113,42.8112419995783 -78.712863999746,42.8112410002949 -78.7112010003087,42.8112359997481 -78.7099129996496,42.8112320000958 -78.7080559994659,42.8112239995974 -78.7075810005414,42.8112220004313 -78.7067940005597,42.8112230004319 -78.7051310004869,42.8112150003759 -78.7013520005957,42.8111949998663 -78.7008019997747,42.8111909998839 -78.6978990005093,42.8111969995482 -78.6976829997485,42.8111980003563 -78.6969149995098,42.8111659999319 -78.6969129994118,42.8115949996868 -78.696900999831,42.8126500001227 -78.6968839994694,42.8129400002485 -78.6968560005232,42.8134000000379 -78.6968439996109,42.8135249998168 -78.6968519999921,42.8136779999015 -78.6968900000708,42.8143889999544 -78.6968299997626,42.8153600001136 -78.6968310001804,42.8161550000097 -78.6969270003298,42.818952999607 -78.6969339999674,42.8216080003539 -78.6969320004903,42.82527100009 -78.6969329995246,42.8269740001267 -78.6969339999152,42.8274309998292 -78.6969470001338,42.830313000233 -78.6969540004979,42.8319059998387 -78.6969670006085,42.8326390001823 -78.6969699999563,42.8328009998835 -78.696978999473,42.8330930004673 -78.6969699998951,42.833275000444 -78.6969419997331,42.8338660001021 -78.696933999603,42.8340290000933 -78.6969299996429,42.8343880004121 -78.6969219995842,42.8352410003584 -78.6969200003226,42.8359580001336 -78.6969189998134,42.8366609997892 -78.6969179999767,42.8368830002665 -78.6969180005584,42.8369189997061 -78.6969149997431,42.8384210002825 -78.6969139995468,42.8391639996403 -78.6969139997196,42.8393039996963 -78.6969139996322,42.839551999906 -78.6969099994286,42.8418339998849 -78.6969019994509,42.8429570003599 -78.696898000043,42.8435820001572 -78.696900000499,42.8445679995574 -78.6969030000111,42.8461009998959 -78.6969030002373,42.8461349995451 -78.6969129997258,42.8490119997256 -78.6969160001232,42.8505400003664 -78.6969170004881,42.8508799995422 -78.69692000024,42.8514270004208 -78.6969209996345,42.8515979999442 -78.6969239995595,42.8520330003348 -78.6969320002967,42.8534599996345 -78.6969330006555,42.8535720001292 -78.6969390000288,42.8544130000654 -78.6969459998385,42.8555909997367 -78.6969560000636,42.8572230003299 -78.6969600002981,42.8584939997486 -78.6969610004817,42.8591330000277 -78.6969629999897,42.8594500003593 -78.6969630002241,42.8594969997858 -78.6969560005096,42.86003399963 -78.696962000198,42.8620890002765 -78.6969469996066,42.8636440001207 -78.6969469999846,42.8636639995526 -78.6969540002174,42.8650000001572 -78.6969510005085,42.8661619996172 -78.6969499994971,42.8664600003906 -78.6969450005363,42.8681169999286 -78.6969410003884,42.8698550000633 -78.6969379998434,42.8704430003964 -78.6969359997741,42.8709910000996 -78.6969340004016,42.8716279995447 -78.6969320005178,42.8721099998067 -78.6969280004539,42.8740999998834 -78.6969270003137,42.8745090002408 -78.6969219999472,42.8763079995551 -78.6969269996291,42.8769439998087 -78.6969289998313,42.8771380002453 -78.6969330001814,42.8778669996042 -78.6969360000518,42.8789609998397 -78.6969400003693,42.8797579999415 -78.6969460005283,42.8802699995467 -78.696934000166,42.8818529996949 -78.6969149999958,42.8846429997017 -78.6969120003702,42.885002000043 -78.6969170006001,42.8855039995924 -78.6969340004733,42.8869800000706 -78.696937000375,42.8872520000183 -78.6969360002014,42.8875360000053 -78.6969350001091,42.8878199999815 -78.6969339997055,42.8879880004121 -78.6969339994847,42.8881570003416 -78.6969309999046,42.8889279995689 -78.6969299997041,42.8891460002546 -78.6969319997344,42.8897199996877 -78.6969330004507,42.8902339999175 -78.6969340002577,42.8907480001494 -78.6969349998616,42.8909289995675 -78.6969420001968,42.8913040003291 -78.6969550004469,42.8919680004207 -78.6969620003243,42.8923229999685 -78.6969590003256,42.892366999824 -78.6969330004699,42.8927520003645 -78.6969300003023,42.8930459997281 -78.6969299998563,42.8932019997978 -78.6969299997534,42.8932729997736 -78.6969309997621,42.8939559996606 -78.6969310004253,42.8947460004086 -78.6969310003701,42.8948559997032 -78.69693100053,42.8953929999687 -78.6969309996477,42.8954299995688 -78.6969280003896,42.8958989996852 -78.6969260001325,42.8987959997796 -78.6969119994499,42.899746000362 -78.6969100004533,42.900842000175 -78.6969109996914,42.9019309996556 -78.6969090000635,42.9028279996327 -78.6969120001267,42.9038380000995 -78.6969119997447,42.9048049996403 -78.696914000267,42.9056220004232 -78.6969250002214,42.9060369996473 -78.6969280002326,42.9062080001428 -78.6969290000479,42.9063029998715 -78.6969319998126,42.9064550004413 -78.6969360005131,42.9066890000353 -78.6969320000779,42.9079970000308 -78.6969329995666,42.9086020003492 -78.6969339994179,42.9092919996593 -78.6969329998556,42.9096609998253 -78.696932999468,42.9099829999893 -78.69693199999,42.9101110004119 -78.6969319997189,42.9101479999364 -78.6969279996209,42.9106590004509 -78.6969280004118,42.9109399997214 -78.69692399998,42.9119219995628 -78.6969210001076,42.9128169996997 -78.6969170002178,42.9137339996751 -78.6969150004039,42.9138689995728 -78.6969180002196,42.9147029998525 -78.6969069998187,42.9151649997868 -78.6969030004219,42.9153990003649 -78.6968980003578,42.9156979996303 -78.6968969995098,42.9159120002338 -78.6968919998201,42.9168610003945 -78.6968910006196,42.9172000003619 -78.6968899995267,42.9173499998302 -78.6969119994863,42.9186039998287 -78.696908999792,42.9195439996412 -78.6969089995324,42.9202969997709 -78.6969089997789,42.9210740004583 -78.696909000116,42.921377999749 -78.6969110003271,42.9224119997392 -78.6969140002911,42.9230110000423 -78.6969119994953,42.9238290002644 -78.6969119998659,42.9240610002944 -78.6969209995409,42.9245970002204 -78.6969170004018,42.9254089999499 -78.6969149994243,42.9257899997886 -78.6969140006435,42.9262200002818 -78.696917999753,42.9268329996127 -78.6969219997036,42.9273799998825 -78.696925000177,42.9278470000783 -78.6969360003095,42.9290619995759 -78.6969380000265,42.9299840001172 -78.6969390000697,42.9306560001507 -78.6969349999114,42.9342399997646 -78.6969350000827,42.9343149998328 -78.6969339994437,42.9355359996009 -78.6969549994927,42.9367300001562 -78.6969749994609,42.9379329998074 -78.6969880004184,42.938678999859 -78.6969540001959,42.94017899984 -78.696937000624,42.9412270000628 -78.6969449999687,42.9425390003263 -78.6969409995478,42.944815999834 -78.6969400001124,42.9455049996859 -78.696931999952,42.947002999888 -78.6969279994641,42.9476619995918 -78.69692299953,42.9487280003342 -78.6969249995605,42.9492929996414 -78.6969260002916,42.949682000403 -78.6969259994823,42.9497170000481 -78.6969249999635,42.949866000445 -78.696924999538,42.9498980000068 -78.6970069996577,42.9503429995645 -78.6970279995201,42.950775000356 -78.6970270006573,42.9510400004135 -78.6970240003487,42.9512550004047 -78.6970219998005,42.9517110000622 -78.697021999905,42.9519379996196 -78.6970209999045,42.9524239999936 -78.6970149997397,42.9563819996534 -78.6970160002078,42.9564319996455 -78.6970170001391,42.9564659998915 -78.6969480002277,42.9593010003721 -78.6968820005018,42.9623070004128 -78.6968750004076,42.9632020001581 -78.6969189996333,42.9652640002497 -78.6969199997562,42.9653000002027 -78.6969220001394,42.965403999601 -78.6969280005098,42.9687979998911 -78.6969239998443,42.971021000243 -78.6969209998393,42.9717069998588 -78.6969159996714,42.9729310001134 -78.6969210003375,42.9741190001489 -78.696929999546,42.9748300003482 -78.6969299994974,42.9752889999976 -78.6969309998704,42.9759400000615 -78.6969300004787,42.9763170002717 -78.6968749997094,42.9769940001526 -78.6968990002508,42.9781919997591 -78.6969210003193,42.9792140002982 -78.6969170001586,42.9805630001148 -78.6969250004034,42.981467999746 -78.696949999647,42.9892890002375 -78.6969499999962,42.9893590000798 -78.6969460002551,42.9914580002492 -78.6969449996787,42.9916080003649 -78.6969429998493,42.9927429996368 -78.6969339997339,42.9949680002094 -78.6969340000727,42.995028000424 -78.6969299995527,42.9959740001585 -78.6969289999546,42.9962499998214 -78.6969260003068,42.9970970003443 -78.6969179997641,42.9989810003598 -78.6969199996633,42.999797000141 -78.6969200003905,43.000010999824 -78.696920999938,43.0002389995648 -78.69692100005,43.0004640000585 -78.6969269996672,43.0029229996229 -78.6969239996688,43.0048329999049 -78.6969229995743,43.0053270001951 -78.6969270001506,43.0071940003165 -78.6969369997942,43.0111239997223 -78.6969420006461,43.012868000308 -78.6969410004899,43.0133330000037 -78.6969350003243,43.0147950001659 -78.6969500002199,43.0165630002992 -78.6969539995181,43.0169120003603 -78.6969520001922,43.0171129999194 -78.6969449996888,43.0176980000907 -78.6969380000546,43.0184669999091 -78.696938000052,43.0185170004268 -78.6969370005569,43.0186039999643 -78.6969350003656,43.0187050002849 -78.6969359996261,43.022258000437 -78.6969359996809,43.0229629999628 -78.6969359996667,43.0232110000008 -78.6969360000521,43.0235910003095 -78.6969370004175,43.0242890002861 -78.6969370006062,43.0261170004066 -78.6969219997498,43.0274000001162 -78.6969370002667,43.030334000049 -78.6969350002249,43.0313479999101 -78.6969459994191,43.0333709996632 -78.6969459997022,43.0333999997839 -78.6969509995243,43.0342509997949 -78.6969500005311,43.03479399958 -78.6969489998876,43.0351630004433 -78.696948999885,43.0352030004287 -78.6969420003291,43.038409000141 -78.6969419998841,43.038607000286 -78.6969349995427,43.0400610003978 -78.6969179997073,43.0439920003537 -78.6969120001413,43.045138000318 -78.6969099994678,43.0465839999925 -78.6969100005523,43.0470650004247 -78.6969079999686,43.0483899997042 -78.6969010000433,43.0527149996422 -78.696904999954,43.054711000434 -78.6969129994688,43.0577259999022 -78.696926999816,43.0583309998361 -78.6969359994493,43.0587220001168 -78.6969330001501,43.0592340004455 -78.6969140000579,43.0622149996503 -78.6969089996462,43.0630410004086 -78.6968950004917,43.0659649998939 -78.6968960002924,43.067772999559 -78.6969050000126,43.0713449999458 -78.6968970005936,43.0730730001526 -78.6968850002707,43.0739229998016 -78.6968670004944,43.0800889997827 -78.6968660001651,43.0823440002033 -78.6968660005442,43.0827639998003 -78.6968660004149,43.0838599999432 -78.696865000207,43.0850960000366 -78.6969040002105,43.0862870002606 -78.6969060001232,43.0863369996585 -78.697296000081,43.0863299996909 -78.6974260002195,43.0863439999532 -78.6981789994266,43.0865649998415 -78.699019999731,43.0868230001484 -78.6990890003873,43.0868420000265 -78.699478000515,43.0868839995781 -78.6996990003497,43.0868610002259 -78.7011410000171,43.0866660003125 -78.7020569999333,43.0866050002858 -78.7023930001685,43.0865939995683 -78.7026819994577,43.086601000197 -78.7030789999123,43.0866430001401 -78.7033459996879,43.0866969998947 -78.7040629995935,43.0868759997616 -78.7044050003441,43.0869209995817 -78.7055130003799,43.0870089999096 -78.7058049995733,43.0870320002112 -78.7070240003191,43.0869830002693 -78.7073210004515,43.0869480002279 -78.7075109998328,43.08689100045 -78.7077659997837,43.0867139999136 -78.7078929994629,43.086554999757 -78.7079620002803,43.0864029999858 -78.7079989995542,43.0862519998421 -78.7080000005968,43.0860440003894 -78.7080150006204,43.0856110003402 -78.7080199996576,43.0850619999431 -78.7080309997596,43.0848770000487 -78.708053999727,43.0847209996883 -78.7081929997457,43.0842080001611 -78.7083510003514,43.0838929996591 -78.7086290003735,43.0834230003629 -78.708833999523,43.0831799997839 -78.70904800029,43.0829340001673 -78.7094879998053,43.0825809998599 -78.7096249997438,43.0825199996493 -78.711057999853,43.0822640003824 -78.711205000522,43.0822490001476 -78.7113569997885,43.0822600002773 -78.7115479995653,43.0822979996769 -78.7117460004341,43.0823519995888 -78.7135160002424,43.0830150003881 -78.7137760002997,43.0831030003162 -78.7141799995665,43.0831990002724 -78.7144790005234,43.0832360000677 -78.7147670004275,43.0832369998417 -78.715217999827,43.0831830003358 -78.7154999996522,43.0830920001818 -78.7157350003875,43.0829959998763 -78.7159420006124,43.0828899998389 -78.716094999467,43.0827869998 -78.716438000578,43.0825160001558 -78.7164989998539,43.0824549999459 -78.7167279996183,43.0822230004595 -78.7170709994694,43.0818600002969 -78.7171329996145,43.0818019996322 -78.7173769998136,43.0816459998512 -78.7177659999854,43.0814479999038 -78.7180329998657,43.0813290001842 -78.7183149998586,43.0812260002016 -78.7189030005283,43.0810780002961 -78.7190479997784,43.0810550004054 -78.7192100002487,43.0810680001353 -78.7193679996037,43.0810889999729 -78.719879000522,43.0811999996516 -78.7203369996584,43.0813640002828 -78.7204490003448,43.081437999848 -78.720566000624,43.0815090003681 -78.720665000531,43.081608000323 -78.7208019995661,43.0818250004047 -78.7214579999484,43.0831789997778 -78.7217480005352,43.0836410001898 -78.7220080004829,43.0839420000212 -78.7221300005406,43.084079999825 -78.7222979999481,43.0842290000531 -78.7223820002134,43.0842859996191 -78.7224500006193,43.0843279997838 -78.7228239998151,43.0844840003803 -78.7229970000802,43.0845970002343 -78.7236250006544,43.0851940003872 -78.72381600013,43.0853459997997 -78.7240139998902,43.0854609997758 -78.724250999734,43.0855450000685 -78.724509999483,43.0856209997633 -78.7267070006333,43.0860900002301 -78.7269210005401,43.08613999986 -78.7272419999121,43.0862009996642 -78.7274559994609,43.086222999598 -78.7276469999172,43.0862199997858 -78.7279820000586,43.0861740004205 -78.7282860000872,43.0860789997248 -78.7294770006138,43.0854989996301 -78.7300800004062,43.0852619996166 -78.7307740000893,43.0850070002178 -78.7311780005072,43.0849040000978 -78.7324979999724,43.084598999774 -78.7329710001201,43.0844540001087 -78.7336059998547,43.084219000121 -78.7349549998342,43.0831900000798 -78.7351679995553,43.0830309996031 -78.7357480003326,43.0824699998776 -78.7361570002195,43.0817970003136 -78.7363769997268,43.081231999723 -78.736700000343,43.0802849995776 -78.7376630003092,43.0782559998387 -78.7399489998071,43.0761060003068 -78.7412489999086,43.0748540000208 -78.7411760001042,43.0743380002174 -78.7415170002633,43.07369099974 -78.7422789998593,43.0722080000084 -78.7425080001912,43.0717700000678 -78.7431850002456,43.0709499998062 -78.7440149998065,43.070375999836 -78.744930999794,43.0699209997257 -78.7453539996379,43.0697859997601 -78.7461969995174,43.06961400026 -78.7471179996835,43.0694349999367 -78.7476559997107,43.0696549995657 -78.751256999624,43.0692559995999 -78.7537399995331,43.0694589996633 -78.7554869995528,43.070076999582 -78.7576529997859,43.0708600000704 -78.7591410003462,43.0709279998053 -78.7600000003307,43.0708730002316 -78.7610400001789,43.0707150003194 -78.7619220003784,43.0704939995916 -78.7635820005012,43.0703379997873 -78.7653199998652,43.0702669996509 -78.7658859999193,43.0702259998288 -78.7669949997303,43.0702040002892 -78.7680940003944,43.070103000196 -78.7682920000027,43.0701389999226 -78.7690270000961,43.0700269999435 -78.7707840001277,43.0695389997379 -78.7710570006558,43.0694220003554 -78.7723699994865,43.0685449996374 -78.7728110003535,43.0681829997315 -78.773074000415,43.0678119995966 -78.7738899998774,43.0670980001733 -78.7742719998148,43.0668179999835 -78.7776439999517,43.065496000222 -78.7785800002391,43.0654149996303 -78.7823870003847,43.0658710000264 -78.783668999612,43.0661840001725 -78.7860849997508,43.0665080001493 -78.7864699995609,43.0665599998012 -78.7868510004317,43.0665569995654 -78.7893479996561,43.0664419997752 -78.7903029999911,43.0663439996372 -78.7967100000728,43.0661109999829 -78.7974819999818,43.0661599995768 -78.7975049996821,43.0661609999679 -78.7985249997678,43.0661760003057 -78.7995710005372,43.0664349997074 -78.8007590002792,43.06627200044 -78.8020509997099,43.0657809998842 -78.8045150003074,43.0644259996959 -78.8061430003817,43.0631809996421 -78.8068169995958,43.0622969999233 -78.807122000376,43.0611390000546 -78.807076000007,43.0602430000104 -78.8069119998404,43.0594570000796 -78.8064830000658,43.0585719997744 -78.8050499997915,43.0572459996606 -78.804403000081,43.0557960000476 -78.8046240006181,43.0551870002553 -78.8068209995372,43.0536259998339 -78.8073499995031,43.0535549999021 -78.8095650002542,43.052910000404 -78.8103039995431,43.0525959996535 -78.8108910004102,43.0524459998498 -78.8138449998419,43.0516650001375 -78.8195419996483,43.0515900001122 -78.8219989996614,43.0515609996517 -78.8223569996128,43.0515570000164 -78.8223369999111,43.0515870001101 -78.8222800003294,43.0516789996881 -78.8222609995003,43.0517099999747 -78.8222850006272,43.0518569998752 -78.8223599996712,43.0522999998753 -78.8223850003263,43.0524479999274 -78.8224009997023,43.0524809996783 -78.8224180003586,43.0525800003543 -78.822427999786,43.05347399996 -78.8224630004877,43.0565679998632 -78.8224750002768,43.0576000000884 -78.822494999609,43.0589890000184 -78.8225009996452,43.0592360001048 -78.8225789995502,43.0622900000181 -78.8226220005601,43.0641449999622 -78.8226600002782,43.0657820001891 -78.8226630002563,43.066022000204 -78.822671000399,43.0665680000462 -78.8226790004929,43.0670689997839 -78.8227460001478,43.068925999681 -78.8227679997398,43.0695339998998 -78.8227760002424,43.0697129996146 -78.8227790003725,43.0697820001865 -78.8227829996602,43.0698710003733 -78.8228410003147,43.071385999588 -78.8230070003943,43.076673000402 -78.8230229995326,43.077156000277 -78.8230740003649,43.0786060003996 -78.8230790001478,43.0787340003543 -78.8230999996187,43.0790889996244 -78.8231069996571,43.0792809996043 -78.8231280003474,43.0798570003998 -78.8231350003205,43.0800499997651 -78.8231630005082,43.0807090001398 -78.823249999849,43.0826859996544 -78.8232800001892,43.0833459998226 -78.8232850005302,43.0834599999862 -78.8233000004734,43.0838019996032 -78.8233050006007,43.0839170000677 -78.8238749997882,43.0833139998983 -78.8255890002018,43.0815059999286 -78.8261599997786,43.0809040002209 -78.826479000248,43.0805240003519 -78.8274400001533,43.0793840001361 -78.8277610006626,43.0790050002314 -78.8278830003782,43.0790030004036 -78.828208999968,43.0789969995862 -78.8293699997247,43.0789760002126 -78.8295430004433,43.0789729998068 -78.8296229998095,43.078971000248 -78.8296209997124,43.078790999755 -78.8296199995041,43.0786789996625 -78.8296619997997,43.0785869995887 -78.8306759998719,43.0774569996904 -78.8307579999063,43.077399000098 -78.8308839997904,43.0773549998198 -78.8310590006298,43.077336000005 -78.8319319997093,43.0773359999169 -78.8357630002487,43.0773260001554 -78.8357740002252,43.0777269996067 -78.8358060002868,43.0788629996412 -78.8358410005632,43.079951999989 -78.8359349994939,43.082836999578 -78.8359469994755,43.0832209997469 -78.8359830001856,43.0843109995939 -78.8359860003917,43.0844000002224 -78.8359949997793,43.0846670003432 -78.8359989997394,43.0847570001172 -78.8360119994498,43.0852219998648 -78.8360509998285,43.0866190004232 -78.8360639999726,43.0870850003614 -78.8361529999247,43.0902670002555 -78.8361719997259,43.0908489997688 -78.8363220002686,43.0953540003923 -78.8364009996386,43.0980269997865 -78.8364910001873,43.1004400000532 -78.8365780005329,43.1021389997769 -78.8367719996917,43.1059010000952 -78.8368500003727,43.1075719999177 -78.836871000024,43.10787199961 -78.8369540003436,43.1089969996171 -78.8369980005757,43.1099479997344 -78.8371279995224,43.1123210000695 -78.8372029995943,43.1137869998747 -78.8373040000751,43.115758999831 -78.8373089997236,43.1158669998326 -78.8373259996942,43.1161910001508 -78.8373279997411,43.1162230000703 -78.8373319997817,43.1163000001556 -78.8373639995845,43.1168900003403 -78.8374619996382,43.1186619997431 -78.837495000232,43.1192529997398 -78.8375059995664,43.1194970004436 -78.8375419998985,43.1202280004149 -78.8375540002029,43.1204730001776 -78.8375689995032,43.1207599998468 -78.8375819995427,43.1210039999324 -78.8376159996948,43.1216229996552 -78.8376320004208,43.1219110001543 -78.835856000098,43.1219759997489 -78.8350260005746,43.1220000003816 -78.8335640002148,43.1220450002698 -78.8322069998584,43.1220989998422 -78.831337999633,43.1221280001821 -78.828180000351,43.1222390000411 -78.8272110006298,43.1222670003643 -78.8266599997514,43.1222829996141 -78.8246059998826,43.1223510001421 -78.8246579997703,43.1234920002162 -78.8246959998465,43.1243210000565 -78.8247029998279,43.1244990003031 -78.8249650003092,43.1309460003404 -78.8250060000492,43.1319389996633 -78.8250119996352,43.132076000427 -78.8250289998099,43.1325670003312 -78.8250490004786,43.1330960001081</coordinates></LinearRing></outerBoundaryIs></Polygon>
  </Placemark>
</Folder>
</Document></kml>
