<?xml version="1.0" encoding="utf-8" ?>
<kml xmlns="http://www.opengis.net/kml/2.2">
<Document id="root_doc">
<Schema name="shape" id="shape">
	<SimpleField name="District" type="string"></SimpleField>
	<SimpleField name="Code" type="string"></SimpleField>
</Schema>
<Folder><name>shape</name>
  <Placemark>
	<Style><LineStyle><color>ff0000ff</color></LineStyle><PolyStyle><fill>0</fill></PolyStyle></Style>
	<ExtendedData><SchemaData schemaUrl="#shape">
		<SimpleData name="District">New York 3</SimpleData>
		<SimpleData name="Code">NY-3</SimpleData>
	</SchemaData></ExtendedData>
      <Polygon><outerBoundaryIs><LinearRing><coordinates>-73.4386170002351,40.7512869998912 -73.4394339996924,40.7556899996734 -73.4393929998511,40.755703999575 -73.4395290004427,40.7563820002247 -73.4396689995476,40.757408999558 -73.4401460005309,40.7599750003123 -73.4402219995464,40.7604150004014 -73.4405200003081,40.761639000163 -73.4406089998652,40.7621390002939 -73.440967000303,40.7643990000107 -73.4419670003893,40.7698989997338 -73.4425489996843,40.7728420003743 -73.4431499999654,40.7759039998339 -73.4432639998495,40.7764979995636 -73.4435149994695,40.7783169995932 -73.4441660005225,40.7820009997682 -73.4443719996217,40.7826200000664 -73.4448100003366,40.783902000421 -73.4448799996368,40.7845099996764 -73.4449420002978,40.7848980001165 -73.4450189998583,40.7853249995745 -73.4450249996599,40.7854570002046 -73.4451130005006,40.7855570004336 -73.445306000371,40.7859300002625 -73.4454110001161,40.7865259999004 -73.4460570005227,40.7901540003769 -73.4461019997964,40.7910699999156 -73.446454999746,40.7929720002998 -73.4466999996906,40.7944519996559 -73.4469310000225,40.7958809997111 -73.448666000561,40.8044189996755 -73.4487630005119,40.8049989996704 -73.4487679997265,40.8053179998216 -73.4497659995059,40.8103979995774 -73.4500050000071,40.8115999996019 -73.450252000298,40.812654999619 -73.4503839997715,40.8135089998012 -73.4506329997637,40.814890999557 -73.4514540005559,40.8188550000353 -73.4516230005975,40.8197299997901 -73.4509950000845,40.8198309995846 -73.4491980005208,40.8201370001607 -73.4469619994363,40.8205340000349 -73.4460609998813,40.8209189999287 -73.4454350002376,40.8212549995862 -73.4450320000953,40.8217919995999 -73.4445660003306,40.8225060004158 -73.4440239994684,40.823329999753 -73.4433910001835,40.8243060002799 -73.4430170003101,40.8248559999204 -73.4428109998444,40.8251299995848 -73.4425590000903,40.8254239998345 -73.4422860000808,40.8256800002184 -73.4417730002639,40.8260650002173 -73.4415229999091,40.8262250001942 -73.4409880000096,40.826522999879 -73.4405219997113,40.826727999731 -73.4393850003967,40.8270679997218 -73.4388809997493,40.8271980004361 -73.4381879995841,40.8273580003255 -73.4369889998613,40.8275109998711 -73.4343110004368,40.8278650003609 -73.4341060003797,40.8278810000886 -73.4321840000473,40.8281439997008 -73.4306029997867,40.8283569999896 -73.4281390000098,40.8286700001708 -73.4276350006018,40.8287159996029 -73.4270940000601,40.8287470001731 -73.4219669998311,40.8287000001556 -73.4210899999857,40.8286769995734 -73.4211509995801,40.8295779998875 -73.4211350004705,40.829890000066 -73.4210599995468,40.8305079996926 -73.4209519999352,40.8312759999749 -73.4208450005151,40.8318820003686 -73.4206689997687,40.8327430000541 -73.4204569999115,40.8337509996744 -73.4201349994787,40.8346210001783 -73.4202049997966,40.8347459999851 -73.4202730001944,40.8353159997179 -73.4203020004412,40.8357079996354 -73.4200819998923,40.8364789998572 -73.4200589997652,40.8367149995642 -73.4200819994725,40.8370820002424 -73.4201730005283,40.8373329996258 -73.420202999507,40.8375270003679 -73.4202120003679,40.8380610002352 -73.4202500000183,40.8388749998353 -73.4202649999068,40.8395230003759 -73.421012999594,40.8429299997817 -73.4189070001845,40.8432259995772 -73.417211999513,40.8434829997646 -73.4135810004369,40.8438259999193 -73.4123829995019,40.843942999833 -73.4119409996855,40.8439739995959 -73.411794999799,40.8440059997039 -73.4113360000327,40.8441700000139 -73.4106310005101,40.8444810004451 -73.4093630001943,40.8450119997569 -73.4091869997797,40.845089000076 -73.4069980003031,40.8460229999764 -73.4067979994792,40.8456840004202 -73.4046920001911,40.8464160000698 -73.4015800004506,40.8474910003141 -73.4003519995267,40.8479190002309 -73.4006249999272,40.8482349997539 -73.4007410005098,40.8484029998518 -73.3990319997066,40.8484649996417 -73.3976740005677,40.848498000191 -73.3974669995359,40.8484949997532 -73.3958420003055,40.8485259997201 -73.3936150000749,40.8489380001258 -73.392455000021,40.8489249997902 -73.3908909998868,40.8487460002583 -73.3897620004633,40.8485979995766 -73.3889150000477,40.8485059998313 -73.3871830003761,40.8482919997075 -73.3858780000309,40.8480179997041 -73.3850920004246,40.8489980000343 -73.3837870002103,40.8505849999395 -73.3827490004998,40.8518709999476 -73.3845269999561,40.852662000111 -73.3855830000202,40.8530979999073 -73.3860150005431,40.8533200002989 -73.3869680004165,40.8538450001265 -73.3878770001663,40.8544039999833 -73.3891059995514,40.8551560001461 -73.3895859998097,40.8554719997914 -73.3900059995224,40.8558340002418 -73.3905929996037,40.8562999998022 -73.3912799995642,40.8568639997649 -73.3926680004438,40.8579899999321 -73.393134000358,40.8583049997078 -73.3939860002327,40.8588670000878 -73.3941169999857,40.8589479996455 -73.3943989995231,40.8590979998422 -73.3946949994175,40.8592249996833 -73.3950449999654,40.8593449998684 -73.3951349994347,40.8593479998904 -73.3956429997816,40.8594899999687 -73.3971400001526,40.8599169996615 -73.3976460003367,40.8600909998918 -73.3980999997421,40.8602760003437 -73.3983430002355,40.860397000316 -73.3984339996008,40.8604639995859 -73.3988650000034,40.8607330000941 -73.3989950001391,40.8608360001686 -73.3993030005336,40.8611340003775 -73.3996369997243,40.8614969997558 -73.399831000078,40.8616849995862 -73.3998430002151,40.8617439996727 -73.4003259997649,40.8622110000855 -73.4006890002391,40.8625869998977 -73.4012670004607,40.8631509997741 -73.4018240003899,40.8637189998038 -73.402381000062,40.8642719998101 -73.4027999998025,40.8646989997168 -73.4010910004214,40.8649739999308 -73.3992970002678,40.8660340004432 -73.398948000557,40.8663130001931 -73.3985810001577,40.8665649998264 -73.3982830002229,40.8667630001512 -73.397360999873,40.8672280001171 -73.3970089995264,40.8673620001184 -73.3964599998753,40.8675560001356 -73.3961479994471,40.8676940001191 -73.395797000342,40.8679040003205 -73.3951330005771,40.8682550003756 -73.3946899994712,40.8683920001126 -73.3942249999818,40.868480000354 -73.3937369995182,40.868585999563 -73.3930989997702,40.8708789995597 -73.3914550003404,40.8722900002348 -73.3910359998986,40.8731739996712 -73.3906000005311,40.8744069998854 -73.3918599998444,40.8794199999938 -73.3918520001018,40.8796350000752 -73.3918130000042,40.8797859998773 -73.3916919994775,40.8798929999548 -73.3915389996043,40.8799500001333 -73.3910719995064,40.8800420001298 -73.3915100004565,40.8810089997796 -73.3903800005412,40.8817970002408 -73.3900970001858,40.8819869996656 -73.3896089997208,40.8822060001707 -73.3892809996899,40.8823460003683 -73.3905170000367,40.88224700009 -73.3913780004443,40.8821550002271 -73.39208899965,40.8820710002438 -73.3915000004756,40.8823550003877 -73.3898969999576,40.8831890002907 -73.3904629995798,40.8881980003253 -73.391099999929,40.8926820003453 -73.3911440001099,40.8937149997867 -73.3916180005042,40.8980989995768 -73.3918799998499,40.8989450002178 -73.392202000526,40.9001619996102 -73.3920040003485,40.900092000007 -73.3915230004359,40.9003930001738 -73.391415999489,40.9004850002319 -73.3913169999841,40.9006760003472 -73.3910270005135,40.9010420003239 -73.39077900006,40.9012150000673 -73.391735000185,40.9028059995894 -73.3911560002759,40.9030729999479 -73.3905160002393,40.9035469999188 -73.3894200004067,40.9048540000635 -73.388539000177,40.9061820003056 -73.3896619999317,40.9067980003597 -73.3922639995577,40.9073970004302 -73.3916629995437,40.9080979998796 -73.3881389999087,40.9114630003153 -73.3959910005376,40.9142560002344 -73.3969090000878,40.9142129996403 -73.3986879994479,40.9134739999453 -73.4014689996219,40.9114580000656 -73.4141470004759,40.9158030002193 -73.4272640004386,40.9202970001988 -73.4291639998592,40.919397999759 -73.4294109998761,40.9195399997052 -73.4291370003472,40.9206380003535 -73.4287619995718,40.9212980002561 -73.4296949995863,40.9238719999426 -73.4288480003536,40.9272670001653 -73.4293879999193,40.928442000049 -73.4292490004421,40.9285940002566 -73.4294479999279,40.9339930002396 -73.4296149994298,40.9378089998999 -73.4308079998847,40.9643110002481 -73.4313060002356,40.9753659999127 -73.4318060000614,40.9864870003141 -73.4319189997299,40.9890090003691 -73.4324729994534,40.9888909996411 -73.4346900005225,40.9884249998806 -73.4362170004626,40.9881019999051 -73.4423289996636,40.9868149996399 -73.4451549998695,40.9862179996093 -73.4536330001456,40.9844310001344 -73.4564599994213,40.9838359995794 -73.464379999755,40.9821660004421 -73.4881400001813,40.977158000268 -73.496061000142,40.97548899983 -73.4995649994239,40.9747449998655 -73.5128649996731,40.9719870002367 -73.5170669997038,40.9711160001634 -73.5192059995318,40.9706710003492 -73.5256259996637,40.969340000439 -73.5277659996154,40.9688970004422 -73.5310510003847,40.968207000107 -73.5409059997154,40.9661390003018 -73.5441919994782,40.9654500002442 -73.5460880005582,40.9650509996069 -73.5517779998974,40.9638580000779 -73.5551120004955,40.9631579999294 -73.559424999705,40.9622530003046 -73.5608629999228,40.9619520000246 -73.5638500005772,40.9613240002362 -73.5736969994869,40.9592579997249 -73.584001999843,40.9570959997999 -73.5874380000721,40.9563759997731 -73.590073000475,40.9558220004145 -73.5906689999735,40.9556979998276 -73.5979759999315,40.9541410001774 -73.6006100003649,40.9535799998268 -73.6083369995381,40.9519010002984 -73.6104269999738,40.9514600000305 -73.6128850005359,40.9509429998475 -73.6130900005119,40.9508210000513 -73.6194459996155,40.9470890000008 -73.6229549999338,40.9450279999813 -73.6281490004172,40.9419780002943 -73.6944479999821,40.9030499997346 -73.6989719995531,40.9003939995789 -73.7096739996422,40.8941730000172 -73.718500000142,40.8890439998637 -73.7313899994842,40.8815529998586 -73.7405969999066,40.8762029998893 -73.7424989997347,40.8750990002119 -73.7480040003143,40.8718739998618 -73.748059999498,40.871721000291 -73.7537320003451,40.8565559998381 -73.7578009995205,40.8456789998396 -73.761640000137,40.8423720000418 -73.7621739998223,40.8419110001292 -73.7665009995288,40.8381819997263 -73.7734289994908,40.832213999677 -73.7749769995572,40.8308789997546 -73.7801930003118,40.8263999998019 -73.7789579994339,40.8117129996299 -73.7795559997302,40.8112469997017 -73.7826759995099,40.8053860004424 -73.7847450003153,40.802592000347 -73.7873160002951,40.8008530003349 -73.7879179999053,40.8003619997715 -73.7900200001402,40.8002299995527 -73.7933710000986,40.8003870003397 -73.7935589998717,40.8003799995962 -73.7971329995316,40.8014099996806 -73.7997449994794,40.8021989998564 -73.8045429996136,40.8035539999953 -73.8112989997469,40.8053970004317 -73.8174180002119,40.8057900000783 -73.8234379998,40.8048100000397 -73.8275830004772,40.8039359997069 -73.8240880005811,40.7980480000104 -73.8238370001671,40.7975890003192 -73.823541000529,40.7971309996537 -73.8229699997684,40.7962129995764 -73.8252290005773,40.7957259999183 -73.8257250000861,40.7956089996624 -73.8240390000905,40.7930460001015 -73.8237319995609,40.7927870002844 -73.8235519999021,40.7921079998339 -73.8235339998482,40.7917109996137 -73.8234669995663,40.7911150003614 -73.8234040000433,40.7906190004495 -73.8235110001235,40.7893890002641 -73.8235740001172,40.7890819997237 -73.8238679998683,40.7878699996096 -73.8241700005212,40.7867460000236 -73.824287000404,40.7863569999505 -73.8244049995497,40.7858870001358 -73.8245219999674,40.7852249998238 -73.8246559998066,40.784431000074 -73.8248589998079,40.7831780004387 -73.8249069998191,40.7829329996866 -73.8250209995284,40.7824829998667 -73.8251499998106,40.7820710001014 -73.8252849998007,40.7816969996944 -73.8262350001821,40.7799209999402 -73.8259290001705,40.7798079998159 -73.825667000042,40.7797299998491 -73.8260160004873,40.7790939996139 -73.8258170004085,40.7790229999287 -73.8248890004749,40.7787140004113 -73.8238180005548,40.7783599996213 -73.8237620005115,40.7785030004085 -73.8223919998696,40.778364000183 -73.8214779997167,40.7783099997815 -73.8215630001917,40.7776330003194 -73.8216699996356,40.7768630002245 -73.8217449994522,40.7759729996192 -73.8218010002347,40.7752590001201 -73.821866000063,40.7745169999775 -73.8218660001499,40.7723520003604 -73.8173529997327,40.7723559999721 -73.8172930000934,40.771477999906 -73.8173169998925,40.7702890000985 -73.8157300003273,40.7702470000042 -73.8155829995068,40.7689610003722 -73.8145399994563,40.7688789998372 -73.8130570002169,40.7687550000622 -73.8114420004697,40.7686329997811 -73.8104720005882,40.7685569995748 -73.8108170003143,40.7660269996766 -73.8088910004722,40.765874000189 -73.8070289995724,40.7657280000175 -73.807334999839,40.7634979997492 -73.8046310003466,40.7625889997637 -73.8037410003367,40.7621330002265 -73.8036400003947,40.7620370000605 -73.8028959998864,40.7614619997009 -73.8030730000448,40.7601260002604 -73.8021530003104,40.7599869998801 -73.8012499994868,40.7598280000341 -73.8012379994132,40.7599010004156 -73.8008339998305,40.7599709998555 -73.8011910001506,40.7601980002255 -73.8010080005322,40.7614510001094 -73.8000740000182,40.7613449999733 -73.7991440002548,40.7612629996453 -73.7991260002176,40.7614249998707 -73.7982040001012,40.7613470001388 -73.793443000353,40.7611850000045 -73.7899150003993,40.7614420004405 -73.7852740000677,40.7618419995981 -73.7842310001099,40.7619240000774 -73.7830769996972,40.7620289997721 -73.7822320000509,40.7621310002062 -73.7813199999809,40.7621880002196 -73.7804050003678,40.7622949997543 -73.7803090002175,40.7622919996531 -73.7793490005914,40.7623629998983 -73.7790310001245,40.7623799997603 -73.7791360001063,40.7626510004492 -73.7793369994763,40.7630310000404 -73.7800199998458,40.7643009999218 -73.7799000002799,40.7644760002351 -73.7806660001368,40.7666220003549 -73.7802880001941,40.7658859999079 -73.7793960005746,40.7661559998673 -73.7776560001901,40.7666930002958 -73.7759160002671,40.7672279997112 -73.7741749997293,40.7677610000911 -73.7727320002868,40.7650549996049 -73.7719160005497,40.7635080004334 -73.7709689996682,40.7635999999489 -73.7707690001004,40.7631929996582 -73.7674839999365,40.7635150001968 -73.7655770005705,40.7637010001244 -73.7618599998672,40.7640649999436 -73.7612409997918,40.7641670000985 -73.7600770003285,40.7642289996533 -73.7586249996255,40.7643829999578 -73.7584380004893,40.7639279997725 -73.7583119998091,40.7637019996815 -73.7581559999652,40.763461000289 -73.7579980000068,40.7632439997678 -73.7578210004766,40.7630289997303 -73.7574079999484,40.76258700043 -73.7571630000169,40.762349000394 -73.7581149994407,40.7620540003149 -73.7579070002555,40.7618319997074 -73.7577629994236,40.7615139998559 -73.7575620004565,40.761254000411 -73.7573780005343,40.7611309998768 -73.7571679998379,40.7610400002442 -73.7569680003506,40.7609719998484 -73.7566999998883,40.7609100001541 -73.7564850005486,40.7608839997377 -73.7556969999106,40.7608439996756 -73.755083999468,40.7607559998128 -73.7540710005515,40.7604440004056 -73.7538530005043,40.7604650004093 -73.7528300002094,40.7601589996543 -73.7516519996253,40.7597939996517 -73.751280999831,40.7596669997614 -73.7508780004082,40.7595099996864 -73.7505400002983,40.759364000307 -73.7502160004098,40.759209000043 -73.7498590005584,40.7590130004376 -73.7496530002025,40.7588909996165 -73.7490019997178,40.7584800001952 -73.7484600001376,40.7580649995789 -73.7474070001384,40.7570410001989 -73.7469579999709,40.7565289997844 -73.7465569995632,40.7560989999567 -73.7464289997023,40.7559750002844 -73.7456930001917,40.7551109998005 -73.7444090002269,40.7535630000923 -73.7440539994782,40.7531440001609 -73.7430500001982,40.7519260002583 -73.7425229997207,40.7513370000027 -73.7420739998894,40.7509280002537 -73.7418149999695,40.7506840000595 -73.7414909996519,40.7504329999237 -73.740754999456,40.7498920000274 -73.7389069997318,40.7487439997653 -73.7382900005764,40.7483500001799 -73.7378069997623,40.7479799999654 -73.7373400004054,40.7475989998059 -73.7368779994609,40.7471950002055 -73.736458999539,40.746802000293 -73.7360450002574,40.746388000307 -73.7358250005893,40.7461739997698 -73.7355939999078,40.7459660003238 -73.7353519994818,40.7457650000383 -73.7350379999582,40.7455260003373 -73.7350610005645,40.7453329999128 -73.7350460004408,40.7451179999382 -73.7350179999589,40.7448880000467 -73.734950999711,40.7446380002733 -73.7348870000556,40.7444530003777 -73.7347739999197,40.7441850002581 -73.7343620002151,40.7436280001364 -73.7349280003324,40.7431520002471 -73.7354579995267,40.7426729996318 -73.7363840005669,40.7419120003594 -73.7370479998783,40.7414629995639 -73.7384450001159,40.740614999903 -73.7391280005667,40.7400220002917 -73.7396610000773,40.7394309996347 -73.7398309996773,40.7391799997315 -73.7398300000721,40.7390540002483 -73.7402910005827,40.7385169998324 -73.7415970002364,40.7369080004028 -73.7423600004956,40.7361409999205 -73.7430649994222,40.7354649997474 -73.7438440003716,40.7348070002341 -73.7446720005452,40.7341789999706 -73.7448959998564,40.7340049999889 -73.7455229999491,40.7335390004159 -73.7460640000717,40.7331319999384 -73.7467380001328,40.7325829997309 -73.7473379997477,40.7320360002122 -73.748748999748,40.7307860001692 -73.7496209995232,40.7300049997815 -73.7500449999205,40.7296670001172 -73.7506580002811,40.7291950000947 -73.7513300003193,40.7287450001763 -73.7519589997022,40.7283769999602 -73.7526370004214,40.7279880004393 -73.7524850005479,40.7278519998995 -73.75359499946,40.7273289997586 -73.754016000474,40.7271389995738 -73.7545760004352,40.7268999997735 -73.7548990001102,40.7267820000533 -73.756076000364,40.7263750000599 -73.7564530002,40.7262510000624 -73.7567100005955,40.7261789995872 -73.7567519997192,40.7259729995807 -73.7567720005166,40.7257960000869 -73.7567509997412,40.7256909995594 -73.756694999912,40.7255520001399 -73.7565699998541,40.725407000055 -73.7564230003336,40.7253030003153 -73.7555079997317,40.7248940001951 -73.7552440001663,40.7247829998882 -73.7550859999419,40.7244899999271 -73.7549690001173,40.7241599997296 -73.7540870000159,40.7246949996349 -73.7526289999054,40.7235129995838 -73.7534580001196,40.7229290003866 -73.752278999947,40.7219689999835 -73.749906000197,40.7200459998072 -73.7491260002707,40.7205889997638 -73.7488809998304,40.7201370003564 -73.7480299997478,40.7204040000118 -73.7483859998435,40.7210169996089 -73.7476949998028,40.7214249998939 -73.7469719996259,40.7217749996355 -73.7468259997173,40.7218289995987 -73.7462049997247,40.7220759996566 -73.7454799995611,40.7225290003083 -73.7447480000622,40.7229820003821 -73.7435699998447,40.7218680003018 -73.7443249996299,40.7214410000959 -73.7432330002565,40.7204170002958 -73.7428159994331,40.720030000324 -73.741960999466,40.720356999955 -73.7408189997278,40.7187539998046 -73.7398399997978,40.7173089997807 -73.7388720001255,40.7175349997594 -73.7379109996551,40.7177219997999 -73.7373289994456,40.7178409998161 -73.7369579994922,40.7179310002784 -73.7361329999729,40.7181720004476 -73.7353039999507,40.7184979995715 -73.734383000426,40.7189310002946 -73.7331869996196,40.7195740003787 -73.7325659996458,40.7203050003305 -73.732373999902,40.7204019997488 -73.7310129996527,40.7215870000668 -73.7306549999535,40.7219240002277 -73.7303260000153,40.7221569998861 -73.7295029997407,40.7225950000781 -73.7292340000374,40.7227049995676 -73.7287830001515,40.7228760000815 -73.728065999917,40.7231290000662 -73.7272129998757,40.7234530003442 -73.7269320000865,40.7235690003658 -73.7264530000394,40.7237559996434 -73.7260320003943,40.7239119998773 -73.725526000414,40.7240759998392 -73.7248480002699,40.7242590002886 -73.7244039995996,40.7243949995482 -73.723745000482,40.7245750001227 -73.7234310000809,40.7246490000168 -73.7225759998155,40.7248790002446 -73.7213410004569,40.7252250000167 -73.7199880004952,40.7255970001125 -73.7175270002573,40.7262419999791 -73.7168989998171,40.7263870002681 -73.7164940004629,40.7264539996569 -73.7158649995596,40.7265410001747 -73.7148790000462,40.7266580002101 -73.7140749994022,40.7267600003554 -73.7117800003289,40.7270589998977 -73.7104990001107,40.7272270002649 -73.7096790000574,40.7273999999311 -73.7076599996967,40.7278300001269 -73.7076469997195,40.7277960003877 -73.7067380005284,40.7279700003091 -73.7049820001126,40.7283509997341 -73.70407499956,40.7285380000275 -73.7034089997431,40.7286839998161 -73.7031699994455,40.7287260002512 -73.7018210004094,40.7290029999085 -73.7012929994161,40.7291169998553 -73.6998520001578,40.7294100001382 -73.6953019995845,40.7303509999269 -73.6948180001193,40.730453000053 -73.6934520003024,40.7307630003277 -73.6925100001015,40.7307550003385 -73.6920760002903,40.7308110004366 -73.6916329998329,40.7309150003197 -73.6911749998114,40.7310159997803 -73.6907649995763,40.7310540000601 -73.6902799997511,40.7311179997283 -73.6898649997792,40.73121099973 -73.6893749999501,40.7313109999699 -73.6889790000574,40.7313489997401 -73.688564999524,40.7314030004427 -73.6880639996503,40.7314490004386 -73.6875749996874,40.7315169996748 -73.6871570005452,40.7316390003693 -73.6871320003711,40.7316729997754 -73.6866989999212,40.7317840001659 -73.6866700004354,40.7316579998251 -73.6862260005829,40.7317590001655 -73.6852929996875,40.7318660003852 -73.6852349996523,40.7318339997619 -73.6851930001914,40.7317450002999 -73.6846619998399,40.7318730003084 -73.6846669999828,40.7319120001854 -73.6843280004084,40.7320019998295 -73.6837480003574,40.7321119996261 -73.6835049998421,40.7321699996969 -73.6834529998648,40.7321670003875 -73.6831710004004,40.7322019998715 -73.6820700001824,40.7324000000721 -73.6810909995446,40.7324760000721 -73.6810609997142,40.7323300002313 -73.6796979994767,40.7326549999502 -73.6792939996771,40.7327989998428 -73.6779020002939,40.7329519995922 -73.6774690002165,40.7330019997763 -73.677020999776,40.7330990001187 -73.6761350004731,40.733230999901 -73.6756729999591,40.7332840000281 -73.6753660000927,40.7333639998181 -73.674255000183,40.7335890001778 -73.6730409998934,40.7337699999283 -73.6726330003669,40.7338410001572 -73.6711990005804,40.7341350001606 -73.6711820000469,40.7340050003407 -73.6710870001491,40.7339949999516 -73.6704449996694,40.734095999547 -73.6699980002719,40.7341820002501 -73.6694739999243,40.7342620001879 -73.668487000193,40.734417999805 -73.6677710001892,40.7345150002951 -73.6674020004918,40.7345959998772 -73.6668070004799,40.7346850003564 -73.666609999641,40.7347060000072 -73.6659030001924,40.7348340002995 -73.6649569994883,40.7349729999281 -73.6647349994873,40.7350260000752 -73.6637520002569,40.7351599999143 -73.6634669994217,40.7352030004026 -73.6632609996707,40.7352489997974 -73.6621550005192,40.7354259999923 -73.6614190004051,40.7355580001375 -73.66088599966,40.7356479998912 -73.6590850002064,40.7359459998733 -73.6585770004747,40.7360629997809 -73.6577910001339,40.7361910002899 -73.6576040003154,40.7362070003527 -73.6567879995824,40.7363239999543 -73.6562380002475,40.7363949998576 -73.6553349995013,40.7365260001102 -73.6517629997723,40.7370569997789 -73.6512989999357,40.737127999756 -73.6511019998434,40.7369309996229 -73.6509970003336,40.7368479996652 -73.6503739997001,40.7369270003557 -73.6501019999338,40.736992999907 -73.6497780000257,40.7370539997927 -73.6483479999107,40.7373139995638 -73.6465929995405,40.7376309997939 -73.6459240000951,40.7377490003525 -73.6456379997395,40.7378090003127 -73.6450530004367,40.7379169996057 -73.6447399999706,40.7379689998688 -73.6438559999722,40.7381249996126 -73.6429660003242,40.7382899996434 -73.6411740000405,40.7386099998001 -73.6405050003759,40.7387329999454 -73.6391999995244,40.7389800001442 -73.6376499994414,40.7392390003944 -73.6367190004982,40.7393819995606 -73.6363779995464,40.7394550003736 -73.6343280003641,40.7398739995703 -73.6339519996169,40.7399459997576 -73.633814000533,40.7399649995583 -73.6331099998181,40.7400889998441 -73.6328899998303,40.7401380003407 -73.6311609996895,40.7404400004085 -73.62435299963,40.7416690003918 -73.6236610005738,40.7417879998308 -73.6227779995571,40.7419319999825 -73.6171010002706,40.7430040003947 -73.6146409995144,40.7431600004372 -73.6128479997621,40.7433989999368 -73.6124239996349,40.743493000367 -73.6120770004365,40.7435939996208 -73.6113620005867,40.7437070002533 -73.6111520001857,40.7437330003514 -73.6108090002411,40.7437950003778 -73.6105749995455,40.7438489999865 -73.6085190002901,40.7442799998622 -73.6075489994066,40.7444510000755 -73.6072429999139,40.7445210001392 -73.6063459999413,40.744714999976 -73.6034490005603,40.745269000139 -73.6031849999927,40.7453290003623 -73.6030009997455,40.745344000359 -73.6022890004095,40.7454190003715 -73.6019250003126,40.7454530002896 -73.6014339996827,40.7455169995692 -73.6012860005587,40.7455280001856 -73.5999449999114,40.7457540003703 -73.5991509995256,40.7458930002893 -73.5987419997726,40.745972000301 -73.5974060005447,40.7462490001824 -73.595178999461,40.7467029995732 -73.5933330004207,40.7470840003251 -73.5930360005311,40.7471569999303 -73.5925450005701,40.747231999952 -73.5919659994644,40.7472769996264 -73.5912960002181,40.7473100000194 -73.5901340000414,40.7473030002408 -73.589037000134,40.7473069997711 -73.5888490002027,40.7473179997577 -73.5885629995682,40.7473579999809 -73.5881730003313,40.7474529997323 -73.5876970001575,40.747550000333 -73.5865720001954,40.7478689999 -73.5857470002634,40.748088999731 -73.5817859994752,40.749073999807 -73.5809760004487,40.7492549999833 -73.5799929996955,40.749443000003 -73.5798090000686,40.7494950002116 -73.5794870002332,40.7495590002084 -73.5779429999207,40.7498509998484 -73.5770219999274,40.7500209996153 -73.5745260004008,40.7504679996457 -73.574088999963,40.7505409998558 -73.5739290000762,40.7505580002351 -73.5733229994601,40.7506450002195 -73.5728419996826,40.750733999777 -73.5715960000559,40.7509300001004 -73.5708730001717,40.7510650002086 -73.5701210003976,40.7512400004049 -73.5697600005002,40.7513400001466 -73.5696090000173,40.7513900004332 -73.5694450003235,40.7514279998793 -73.5687669997803,40.7516690000711 -73.5662840003709,40.7525859998396 -73.5659130000694,40.7527160001547 -73.5654440004482,40.7528710002546 -73.5640370001657,40.7533130000817 -73.5630839994381,40.7536100000433 -73.5628109996808,40.753701999726 -73.5626490000407,40.7537429996805 -73.5609200002372,40.7542669997859 -73.5598350004679,40.7545689997227 -73.559176000011,40.754724999643 -73.5582969997317,40.7549110001842 -73.5547609996528,40.7556520001603 -73.5532129994303,40.7559489996507 -73.5530669997198,40.7555159999746 -73.5530149994174,40.7553440003755 -73.552945000174,40.7549869998841 -73.5529080003032,40.7546579998689 -73.5529030002883,40.7543059996498 -73.5529339996736,40.7539219997494 -73.5530410004771,40.7530879999019 -73.5530440003936,40.752824000089 -73.5530209997418,40.7523090004347 -73.5529289997203,40.7514299996997 -73.5528289997738,40.7507479996481 -73.5525130000964,40.7484150001401 -73.5523799998292,40.7475380001478 -73.5521859994379,40.7459909996879 -73.5519390002993,40.7441249996476 -73.5519189997352,40.7439269995759 -73.5519129995677,40.7436639998913 -73.5519439999425,40.7433569999803 -73.5520039998201,40.7430819998641 -73.5521100002362,40.7427639996626 -73.5521970005003,40.7425849999773 -73.5524990005527,40.7419239996631 -73.5526269996964,40.7416030003628 -73.5528249994662,40.740754000265 -73.5529919995867,40.7399619996177 -73.5531399996164,40.7391980002477 -73.5533510004263,40.738040999735 -73.5541040000903,40.7343900002186 -73.55417099954,40.7339850002308 -73.5512709997342,40.7339979996061 -73.551335999938,40.7337349998633 -73.5457709996415,40.7337560004154 -73.5461129994196,40.7341079998312 -73.5461110005905,40.734130999658 -73.5456939996551,40.7340150000937 -73.5449159998125,40.7338749999865 -73.5442029994122,40.7338380002574 -73.542954999763,40.7337930003454 -73.5425550003864,40.7326979999365 -73.5419830003461,40.7313559996377 -73.5414279995157,40.7301680004384 -73.5409000004212,40.7291099996897 -73.5403709998454,40.7281210002648 -73.5397359994975,40.726999000107 -73.5393759996915,40.7264050001 -73.5391719995185,40.7260780002491 -73.5388690004685,40.7255790002301 -73.5385379996411,40.7250620003811 -73.5384469997421,40.724907999954 -73.5380319998795,40.7243369997549 -73.5371689994802,40.7243749995667 -73.536391999539,40.7244159996632 -73.5345969994686,40.7245040000473 -73.5308780000333,40.7246670001792 -73.5280779995777,40.7247909995568 -73.5253220003475,40.7249160003365 -73.5252759998879,40.7245000002377 -73.5252419996833,40.724074000277 -73.5252070001706,40.7239099997512 -73.5250660002966,40.7234970004204 -73.5248609998602,40.7229690000359 -73.5248399996863,40.7228599996572 -73.5248969996247,40.7219540000551 -73.5248719995491,40.7203780004327 -73.5247900000765,40.7198640004442 -73.5247229999879,40.7194779999353 -73.5247530000239,40.7178910001269 -73.5246999997474,40.7176600002014 -73.5246179998943,40.7175280002217 -73.5245039997274,40.7173960000472 -73.5242459994736,40.7171309995931 -73.524152999665,40.7169660001986 -73.5241110004622,40.7168129997039 -73.5240390005009,40.7157090001887 -73.5240299999168,40.7155059998544 -73.5240880002577,40.7150330003771 -73.5241749997827,40.7144690002293 -73.5244840003566,40.7129929996928 -73.5244750005915,40.7127519998612 -73.5244490000714,40.7126469998372 -73.5271490001817,40.7126750004518 -73.5274310004977,40.712632000111 -73.5269419996481,40.7117830003422 -73.526551000099,40.7111189997228 -73.5259459995917,40.7113219996647 -73.5258309999317,40.7113300003211 -73.5257009998697,40.7112830004127 -73.5256010005677,40.7111810000506 -73.5246889997,40.7096130001404 -73.5246210002683,40.7095029996611 -73.5244890003793,40.7093760003543 -73.5243660002734,40.7093180001913 -73.5241790003458,40.7092700004523 -73.5238619996311,40.7092060002955 -73.5237609996162,40.7091970001394 -73.5234769998959,40.709232999935 -73.5232200000171,40.7087940002762 -73.523174000429,40.708662000348 -73.5231669994579,40.7085300003628 -73.5232060000182,40.7083380004449 -73.5223640005747,40.708148000223 -73.5224139995642,40.7079999998126 -73.5226210004826,40.7074859998794 -73.5197460004542,40.7068249999605 -73.5194149998148,40.7067360002758 -73.5178599999279,40.7062519996334 -73.5169480000519,40.7060059999883 -73.5147640001455,40.7054319996273 -73.514373000468,40.7053419999202 -73.5139830004297,40.7052410000865 -73.5130369995028,40.7049090003827 -73.5125040003221,40.7047009999744 -73.5073249999751,40.7028609997205 -73.5054729994648,40.7021750000099 -73.5051219998624,40.7026739998608 -73.5048739999493,40.7030180002767 -73.5047819994413,40.7031040001297 -73.5047320001809,40.703225999575 -73.5046010004194,40.7034119998563 -73.5044250003519,40.7036860002985 -73.5041839996197,40.7040750004044 -73.5037889995111,40.7047750003118 -73.5037060003511,40.7049349997047 -73.5031660005579,40.7049239999625 -73.5023390004023,40.7049730000007 -73.50178299944,40.7049970002435 -73.4985880004643,40.7051270000327 -73.4980750003232,40.7051520002774 -73.4964019995685,40.7052219996436 -73.4943649999469,40.7053040002197 -73.4922490001104,40.7053839995583 -73.4923420003485,40.7038589996289 -73.4923729996818,40.7030630003366 -73.4923989994958,40.7025869999413 -73.4924850001839,40.7013099999338 -73.4920150004604,40.7013069996122 -73.4911350000306,40.70133400005 -73.490892999899,40.701354999851 -73.4903790002481,40.7014150003692 -73.4899360001974,40.7014480001965 -73.4888750002461,40.7016089998078 -73.4881669996974,40.7017509997944 -73.4875160000634,40.7019100004414 -73.4871620003272,40.7020299997694 -73.4861500000054,40.7022829995521 -73.4859329997483,40.7023420000429 -73.4856770002854,40.7024259997548 -73.4851809994832,40.7025640001395 -73.484789999982,40.7026569998187 -73.4845669997,40.7026959999641 -73.4842450004079,40.7027660003991 -73.4842640004751,40.7030690002145 -73.4846090002688,40.7048869997515 -73.4846270000795,40.7051220003133 -73.4846730004692,40.7052210001969 -73.4850679998232,40.7071000003538 -73.4852770000327,40.7077039998865 -73.4853330004827,40.7082499996996 -73.4852569999172,40.7084290000159 -73.4853980004083,40.7086940003695 -73.4853419997982,40.7091339997753 -73.4856249998286,40.7105539998178 -73.4860349994413,40.7105080004234 -73.4862070005375,40.7114800000616 -73.4862099997486,40.7118550000644 -73.4859030000073,40.7118500000837 -73.4854479999643,40.7119119997645 -73.4845309999519,40.7120089996834 -73.4844159995237,40.712028000379 -73.4840830000354,40.7121140001129 -73.4838380000757,40.712153999655 -73.4831589995524,40.7121729995984 -73.4826220002358,40.7122040004158 -73.4826830001196,40.7127770004164 -73.4827230000379,40.7128219998247 -73.4827039998551,40.7131920001343 -73.4827279997527,40.7134339996452 -73.4827259996119,40.7135760004024 -73.4827650002843,40.7137520002664 -73.4828049994789,40.7142509999009 -73.4831450000271,40.7154229995639 -73.4831830000611,40.7155239999683 -73.4833699998767,40.7161259996678 -73.483391999668,40.7162229999797 -73.4834720003723,40.7167770001918 -73.483498999809,40.7170280001992 -73.48245000031,40.7170270004218 -73.4800749996215,40.7171130001171 -73.4781969995887,40.7171620003237 -73.477550999987,40.7171759999232 -73.4768720003983,40.7172019998143 -73.4765619997908,40.7171880000257 -73.4762659996247,40.717210999868 -73.475010999953,40.7172389996942 -73.470175999856,40.7172809997107 -73.4698980003429,40.7172799996656 -73.468436999687,40.7172930003972 -73.4679149998267,40.7172959998516 -73.465930000169,40.7173119997219 -73.4654750001816,40.7173170002237 -73.4639529999493,40.7173250001018 -73.4615470002928,40.7173410001045 -73.4614750002359,40.7173330003893 -73.4612780003323,40.7173480003349 -73.4610450005291,40.7173959997425 -73.460540000584,40.7174669998584 -73.4602779998208,40.7176259998372 -73.460170000419,40.7176809997355 -73.4599159996083,40.7178410001299 -73.4594359996807,40.7182760004064 -73.4591830002831,40.7179200000365 -73.4589510005482,40.717562000441 -73.4586950004162,40.7171109999809 -73.4584930005483,40.7166710003694 -73.4584180001581,40.7165199995887 -73.4582769998938,40.7161760003121 -73.4581859996049,40.7158789997656 -73.458076999995,40.7154500003388 -73.4578590001181,40.714790000283 -73.457625999534,40.7141849997038 -73.4573819995573,40.7136129999485 -73.4569839998989,40.7127769996198 -73.4567499994241,40.7123370004155 -73.4563730002167,40.7116869997785 -73.4558209996475,40.7108169995915 -73.4554960004632,40.7103550001017 -73.4548500002192,40.7095060000766 -73.4543430004302,40.7089000003049 -73.4540890000695,40.7086130004447 -73.4535930003456,40.7080820001335 -73.45334199962,40.7079030002896 -73.4530269995575,40.7075839996327 -73.4528329996787,40.7074270004186 -73.4525250003373,40.7072329999451 -73.4522799996391,40.7071169996228 -73.4520789999236,40.7070360002484 -73.4514369998398,40.7068569997865 -73.4514430003055,40.7067940003729 -73.4506889996904,40.7063920002323 -73.4507189999191,40.7058490003342 -73.4507450004723,40.7056079998104 -73.4498149999345,40.705169000212 -73.4437929995202,40.7045200001426 -73.4428680000865,40.7045289998037 -73.4429369999119,40.7047519998915 -73.4430569999583,40.7050329998844 -73.4430690003989,40.705275000342 -73.4418949998012,40.7052720003568 -73.4410350003924,40.7052870001189 -73.440326000346,40.7053059996914 -73.439664000305,40.705334999744 -73.438725999857,40.7053909996098 -73.4375420003646,40.7054839996319 -73.4367190005085,40.7055649999792 -73.4354479995062,40.7057179998746 -73.4347979994869,40.7058139997389 -73.4322040000664,40.7062459999696 -73.4319880001017,40.7062860004479 -73.431756000407,40.7063419996592 -73.4311059994807,40.7064539997032 -73.4307420005716,40.7065310003734 -73.4304730005611,40.7065709998218 -73.4302869999468,40.7066150002288 -73.4302959998317,40.7067520002326 -73.4305700003983,40.7082780000067 -73.4308249996178,40.7095089999286 -73.4309800002363,40.7103150001766 -73.4311869995748,40.7114790002497 -73.4313259994759,40.7121570003884 -73.4314409999948,40.7128260001484 -73.4315480002325,40.7133589999395 -73.4316350000754,40.7138780002388 -73.4318230001547,40.7148289997299 -73.4320200000846,40.7158849996464 -73.4322279997791,40.717085999931 -73.4324049999025,40.7179409998844 -73.4325240002763,40.718584999748 -73.432587999931,40.7189000001186 -73.4328040003649,40.7200710004363 -73.4334710004317,40.7236129999051 -73.4337240005567,40.7249389999023 -73.4338770003013,40.7257569996427 -73.433922999459,40.7260449995486 -73.4341669996874,40.7273230003425 -73.4345209994548,40.72919100009 -73.4347700004474,40.7305329995901 -73.4349759996991,40.7315879999899 -73.4355349997131,40.7345600003835 -73.4355819998203,40.734634999838 -73.4356470003185,40.7350840004247 -73.4357120005189,40.7354550002833 -73.4358780004216,40.7363230001109 -73.436010000168,40.7370280003003 -73.4361920004148,40.7379790003053 -73.4362870005063,40.7384970002859 -73.4364980001581,40.7396120002889 -73.4366829996024,40.7406270003376 -73.4368170003298,40.7414209997129 -73.4369899997995,40.7423340003445 -73.4376450005786,40.7458060003411 -73.4378519995116,40.7469079997187 -73.4380250005055,40.7478139997292 -73.438180000463,40.7487160002348 -73.4382389995994,40.7490399997127 -73.4386170002351,40.7512869998912</coordinates></LinearRing></outerBoundaryIs></Polygon>
  </Placemark>
</Folder>
</Document></kml>
