<?xml version="1.0" encoding="utf-8" ?>
<kml xmlns="http://www.opengis.net/kml/2.2">
<Document id="root_doc">
<Schema name="shape" id="shape">
	<SimpleField name="District" type="string"></SimpleField>
	<SimpleField name="Code" type="string"></SimpleField>
</Schema>
<Folder><name>shape</name>
  <Placemark>
	<Style><LineStyle><color>ff0000ff</color></LineStyle><PolyStyle><fill>0</fill></PolyStyle></Style>
	<ExtendedData><SchemaData schemaUrl="#shape">
		<SimpleData name="District">New York 5</SimpleData>
		<SimpleData name="Code">NY-5</SimpleData>
	</SchemaData></ExtendedData>
      <Polygon><outerBoundaryIs><LinearRing><coordinates>-73.7567100005955,40.7261789995872 -73.7575259999426,40.7259480000933 -73.7580629994801,40.7258620000828 -73.7591140004995,40.7257319998484 -73.7597220001,40.7257189997117 -73.7599369998256,40.7257220000111 -73.7604259999248,40.7257439995493 -73.7610509994752,40.7258170002558 -73.7620629997597,40.7259860001766 -73.760818000218,40.7259619997516 -73.7617899997941,40.7260830003784 -73.762028000191,40.7261100003686 -73.7638969998946,40.726364000444 -73.7644150001253,40.7264409996088 -73.7646999994898,40.7264790000794 -73.7650419999402,40.7264880002353 -73.7654570000612,40.7264740000058 -73.7662439995137,40.7264029997611 -73.7671829994182,40.7262640004074 -73.769240999796,40.7259030000153 -73.7702889999779,40.7256340002878 -73.7710580003449,40.7254849999108 -73.7719840003825,40.7252289998661 -73.7727430000273,40.7250350003647 -73.7735900001832,40.7247420003538 -73.7742629998449,40.7244159998817 -73.7749170003284,40.7240880002105 -73.7760559996351,40.7233560001638 -73.776238000523,40.7233049996379 -73.7764500001161,40.7232610001548 -73.776665999764,40.7232310002364 -73.7768850002486,40.723215000082 -73.7771029995886,40.7232129996112 -73.7773190002786,40.7232240000454 -73.77787599957,40.7230369996807 -73.7780380000945,40.7232840001018 -73.7778170002636,40.7233390000987 -73.7775830003852,40.7234179998915 -73.7773899999817,40.723498000151 -73.7771820001955,40.7236070003384 -73.7769900001338,40.7237310001566 -73.776831999756,40.7238509999345 -73.7766659995677,40.7240090002511 -73.7765460002563,40.7241450003875 -73.7764219998284,40.7243229999985 -73.7763380005958,40.7244689997848 -73.7752340000125,40.7252380000152 -73.7755610002195,40.7259699999443 -73.7759619998091,40.726813000071 -73.7767279997734,40.7284300004104 -73.7775749999592,40.7301930004299 -73.7784859995421,40.7299439999522 -73.7802480003016,40.7294599998175 -73.7794099994358,40.7276920001093 -73.7803370001707,40.7274390002286 -73.7807989997355,40.7284249999009 -73.7811610003681,40.7292130000104 -73.7836010000409,40.7284130002078 -73.784821000228,40.7280149996106 -73.7865500001141,40.7274450001311 -73.7882499999423,40.7268869998512 -73.7894589995578,40.7264929998725 -73.7899800000507,40.7263169996836 -73.7908450001071,40.726036000335 -73.7917450000426,40.7257759999422 -73.7933349994518,40.7252840002925 -73.794223999811,40.7249819999597 -73.7951159996278,40.724676000006 -73.798471999559,40.7235300002926 -73.7978279994999,40.7220310002529 -73.7972329997993,40.7206089998271 -73.7980989995154,40.7203449997089 -73.7990009995764,40.7201450001508 -73.7984919997654,40.7187069999613 -73.7980960002828,40.7175430000958 -73.7980550005097,40.7174309998253 -73.7969699999985,40.7177230000004 -73.7963819999557,40.7178970004172 -73.7956480003882,40.7181339996991 -73.7949610002452,40.7182129996678 -73.7926100002639,40.718717000255 -73.7920140000329,40.7188839996063 -73.7919199999066,40.7189140000671 -73.7917290002096,40.7189379998092 -73.7914389999998,40.7189449997907 -73.7911680004346,40.7189159996862 -73.7908959995984,40.7188760000389 -73.7912629997193,40.7186690003018 -73.7911599996495,40.7185579995574 -73.7910350003323,40.718457999935 -73.790889999877,40.718374000325 -73.7907289999279,40.7183099999588 -73.7905559994819,40.7182670000664 -73.790299999928,40.7182600004261 -73.7901729997946,40.7182469998266 -73.7899230003347,40.7182039999076 -73.7896820000629,40.71813899987 -73.7894530005479,40.7180519997224 -73.7892399994907,40.7179449998934 -73.7890449999169,40.717818999796 -73.7889550000354,40.7177499999144 -73.788792999438,40.7175989996584 -73.7886560000568,40.7174350003344 -73.7885459999557,40.717259000411 -73.7887069999771,40.7171849999706 -73.7888790004438,40.717121999557 -73.789058000096,40.7170720002421 -73.7892419997286,40.7170340000098 -73.7894299994453,40.7170099999204 -73.7896180003258,40.7169990004288 -73.7896240000075,40.7168170004025 -73.7896520000397,40.7166339996324 -73.7896999998181,40.7164520004053 -73.789767999713,40.7162729998577 -73.7898570004396,40.7160990001987 -73.7899650003389,40.7159320000739 -73.7900900001309,40.7157739999533 -73.7902300005834,40.715627000308 -73.7904130005494,40.7154659998749 -73.7906089998944,40.7153129996707 -73.7908190000303,40.7151719999331 -73.791040999669,40.715040999582 -73.7912729997136,40.7149219999958 -73.7914160000385,40.7148379997883 -73.7915479995747,40.7147379997421 -73.7916639998186,40.7146219998139 -73.7917600002451,40.7144940002353 -73.7918319995574,40.7143570004028 -73.7918800001486,40.7142150001087 -73.791901000006,40.714071000184 -73.7918980003888,40.713929000251 -73.791871000176,40.7137930000197 -73.792000000332,40.7139840001203 -73.7921490003606,40.7141689998878 -73.7923169997396,40.7143449997951 -73.7925020004352,40.7145109996465 -73.7927049999489,40.7146650000244 -73.7929210001489,40.7148059999815 -73.7931489996985,40.7149329998549 -73.7933329999518,40.7152779998041 -73.7937399995376,40.7160989999877 -73.7946179995307,40.7158510003974 -73.7949460003679,40.7165179999535 -73.7958250003371,40.7162670000464 -73.7947359997648,40.7140570003545 -73.7939030000845,40.7123699995853 -73.7947549996359,40.7120670000612 -73.7956119996232,40.7138070001811 -73.7969120003351,40.7134359997411 -73.7970899995035,40.7133550003034 -73.7971639994233,40.7132959999363 -73.7972620002352,40.7131570001935 -73.7983349995337,40.7129080003934 -73.7990209999408,40.7135139999997 -73.800394000114,40.7129410003518 -73.801242000583,40.71250299984 -73.8013840004459,40.7126739998453 -73.8025929994923,40.7125389999796 -73.802427999613,40.7120409995929 -73.8034929996612,40.7110709998312 -73.8042510000747,40.7103900000286 -73.804841000552,40.7093379996678 -73.8050120003766,40.709472999846 -73.8076220005738,40.7087310002915 -73.8099829997822,40.7080700004168 -73.8096889999395,40.7073770000837 -73.8093479997315,40.7066849996204 -73.8120119995082,40.705944999987 -73.8121549999666,40.7070459998511 -73.8124310002463,40.7090929997339 -73.8133270003996,40.7090270001135 -73.8163650003951,40.7087999999054 -73.8165239994691,40.7087950000697 -73.816683999528,40.7088030003962 -73.8168400003388,40.7088250000064 -73.8170540002408,40.7089000002216 -73.8172600001968,40.7089899999383 -73.8174540002049,40.7090949996574 -73.8176339995501,40.7092129997981 -73.8177979998488,40.7093419999102 -73.8183979999015,40.7097889996216 -73.8189339998654,40.7101189996252 -73.8191800004152,40.7102460000494 -73.819427000341,40.7092080000674 -73.8201029997243,40.7095989999907 -73.8203179998728,40.7097149998393 -73.8206620004687,40.7098689996261 -73.8211669995672,40.7103969997769 -73.822737000405,40.7117329997393 -73.8234260003175,40.7122840002293 -73.8239550003005,40.7128530002861 -73.8239480002593,40.7129060001617 -73.8240400005356,40.7132119998384 -73.8241960003563,40.7136480003331 -73.8242829997109,40.7138259998245 -73.8245799997548,40.7142850002439 -73.8247729995649,40.7145929997878 -73.8254410003983,40.7155559995775 -73.825570000311,40.7157839995805 -73.8257050000757,40.7160630002652 -73.8262019995262,40.7157570001497 -73.8263959995529,40.7156549997575 -73.8269760002843,40.7153909995653 -73.8271389997752,40.7153419999656 -73.8284959997491,40.7150139997093 -73.8292559997561,40.7147570000134 -73.8298960000716,40.714571000101 -73.8309820003894,40.7143100001607 -73.8313109996728,40.7144740003189 -73.8313850005285,40.7145289999815 -73.832230999839,40.7151199997371 -73.833146999655,40.7144340004101 -73.8330349999888,40.7143069999821 -73.8325600005821,40.71379400007 -73.8337630000455,40.7131300004223 -73.8343419994963,40.7127549998438 -73.8349259999577,40.7124739999845 -73.8361149994189,40.7118249998421 -73.8364089997108,40.7116419998204 -73.8367159997993,40.7114699996027 -73.8370369999671,40.7113119999572 -73.8373679997436,40.7111670001766 -73.8377089996293,40.7110360001149 -73.8380579998233,40.7109210001406 -73.8397320002392,40.7104000003696 -73.8406919998521,40.7101530002826 -73.8430159994245,40.7091759997672 -73.843950000277,40.7089369995587 -73.8456800000225,40.7084800002988 -73.8466340005542,40.7083959996786 -73.8476259995791,40.7084100001842 -73.8485760004376,40.7085070002063 -73.8495170005752,40.70839200032 -73.8505330001925,40.7080670002259 -73.8510990001381,40.7079009996123 -73.8527659994281,40.7074420000922 -73.8536499994832,40.707623000438 -73.8566769997018,40.7076919996993 -73.8559400002007,40.7063949996313 -73.8571720003614,40.7059890002962 -73.8582149994864,40.7056019998819 -73.8574310003628,40.70503499974 -73.8596140003386,40.7040710001346 -73.8591440001945,40.7034850002202 -73.8599750004566,40.7031089998458 -73.8585319996619,40.702949999898 -73.8582879998029,40.7029109999206 -73.8579530001174,40.702880000361 -73.8570399997827,40.7027879996223 -73.8561449995966,40.702686000421 -73.8552930005344,40.702596000169 -73.8552919998001,40.7018439995777 -73.8552450001839,40.7014789999942 -73.8551340005403,40.7012650001022 -73.8549200004998,40.7009750002757 -73.8547339998935,40.700784000387 -73.8545659997425,40.7005940003864 -73.8544139994331,40.700442999698 -73.8537750000594,40.6999099997058 -73.8532859994938,40.6992870002841 -73.852711000262,40.6984150003312 -73.8526240000056,40.6981139996771 -73.8526080005741,40.6979599999439 -73.8526099998278,40.6978049999061 -73.8526639995062,40.6975720000763 -73.8518380002747,40.6976820004322 -73.8516989995329,40.6969839997055 -73.8515480002407,40.6963090004304 -73.8495910005507,40.6965620000399 -73.8494380003165,40.6958820000301 -73.8492910000773,40.6952039999806 -73.8491319999947,40.6945060002126 -73.8495619995828,40.6944220000984 -73.8483599997878,40.6919550002617 -73.8474859999891,40.6922180002086 -73.8468470005156,40.6909179996616 -73.84650799941,40.690222000128 -73.8476899995688,40.6898890003845 -73.8474330004966,40.6893710001267 -73.8462539997442,40.6897079999978 -73.8459549994999,40.6890710002832 -73.8458849998403,40.6889130003471 -73.8470510003828,40.6885859998157 -73.8478839997528,40.6883229999317 -73.847964999901,40.6884850001174 -73.8482319994947,40.6889929996756 -73.8492879996282,40.688690999851 -73.8493980002983,40.6885209996999 -73.8489850003331,40.6880380004488 -73.8496610004746,40.6878309996762 -73.8505709998888,40.6876610004274 -73.8499469997722,40.6863999998922 -73.8493689996061,40.6852270002817 -73.8502479995088,40.6849770001853 -73.8494220002509,40.6832950000461 -73.8511289998623,40.6828089997667 -73.8519789995235,40.6825640000169 -73.8516390005869,40.6818859999276 -73.8513180003245,40.6812400003121 -73.8506599996295,40.6798919999992 -73.8515949998689,40.6798330000363 -73.850635999774,40.6778759996842 -73.8515340000915,40.6777489997456 -73.8509230001357,40.6764959999912 -73.8506480003022,40.6758510000089 -73.8504519996456,40.6748000003255 -73.8514730003189,40.6750630003854 -73.8512969999946,40.6741620001357 -73.8522530000118,40.6740269998617 -73.8518509998041,40.6724919996425 -73.8528379996627,40.6722790001069 -73.8516350001913,40.6719299997052 -73.8509649996019,40.6717200002496 -73.8511230005108,40.6710779998514 -73.8529690000316,40.6708080002025 -73.8533050004754,40.6707279996545 -73.8544089999395,40.670584000417 -73.8553369994178,40.6703939996687 -73.8553550000682,40.6704589995661 -73.8562709996659,40.6703340000311 -73.8563030004831,40.6704500003656 -73.8572820004913,40.6703119996713 -73.8568470004283,40.6686029999557 -73.8564249996147,40.6670329999823 -73.8560629999362,40.6655109998205 -73.8556849999277,40.6638669997705 -73.8565910004804,40.6637469996379 -73.8575359996474,40.6635979997987 -73.8584300003932,40.6634530003134 -73.8583699998898,40.6631819999966 -73.8580249994701,40.6617210001788 -73.8576150004267,40.6601189999191 -73.8585139994741,40.6598990000907 -73.8593870003202,40.6597730004254 -73.8603600004866,40.659646000285 -73.8612220001895,40.6592210004007 -73.8615079997526,40.6590500001084 -73.8631710001388,40.6582770003638 -73.8624380002398,40.6572579996315 -73.8621930001728,40.6568290003663 -73.8609639994502,40.6551800000063 -73.8604829997785,40.6546589997059 -73.8599069996521,40.6542290001779 -73.8597549999216,40.6541039997412 -73.858980000272,40.6526749999479 -73.8569620005279,40.6505840004055 -73.8566519998428,40.6501290001595 -73.856148000323,40.6491979998363 -73.8549380003515,40.6426499998668 -73.8483379998568,40.643521000043 -73.8429550001712,40.6381399997777 -73.8382980001444,40.6334850002293 -73.8376519999427,40.6328400000651 -73.8362379996044,40.6311109997125 -73.8353760000627,40.6303150003992 -73.8330410003213,40.6282610000858 -73.8333929995081,40.6276739996219 -73.8334219996131,40.6267819998926 -73.833699999887,40.620922000414 -73.8340539997852,40.6134550004063 -73.8342830005467,40.6091860001492 -73.834462999841,40.6071930000957 -73.8358760003549,40.6056370000386 -73.842017000465,40.598313000192 -73.8444370004512,40.5958549995643 -73.8466799999409,40.5932090004197 -73.8473860003418,40.5920280002592 -73.8498519994435,40.5886689999415 -73.8535220004819,40.58659199978 -73.8551059995989,40.5858990003298 -73.8594919998235,40.5839380003038 -73.8656070005484,40.5812049997923 -73.8673740000346,40.5802989999279 -73.8692319998112,40.5793420000677 -73.8714180003262,40.5785349996553 -73.8792219996836,40.5746559997178 -73.885069000335,40.5737490002748 -73.8862920001454,40.5735050000089 -73.8905179995133,40.5727049999038 -73.9028739994316,40.5716999998718 -73.9038709997918,40.5716190002175 -73.9049079994696,40.5714069997717 -73.918486999876,40.5692840002033 -73.9262360005729,40.56807200005 -73.9280700001178,40.5677859999029 -73.9333630003872,40.5669289999324 -73.9348939997425,40.566651999679 -73.9450040003789,40.5653130000201 -73.9507030003696,40.5644270002061 -73.9516699999093,40.5643119996741 -73.9523089996969,40.5642079999535 -73.9592809997377,40.563079000115 -73.9597150001498,40.5630130000411 -73.9970869996407,40.5572829997257 -74.036293000377,40.5510420000439 -74.0363000004636,40.5509050003298 -74.036672000212,40.5483699998625 -74.0374939995839,40.5427900002103 -74.0381309998782,40.5382939995841 -74.042278999557,40.5080849997629 -74.0135219996345,40.5130060002878 -73.9778740004441,40.5190950002251 -73.9477939997848,40.5083900000447 -73.9021399996375,40.4921210004257 -73.8896450004371,40.4865109999794 -73.8866520005075,40.4897939999212 -73.8822719996202,40.4952100004301 -73.8818390001722,40.4956899997011 -73.8767779997501,40.5011270002577 -73.8700290005432,40.5024859998254 -73.8606089995166,40.508386000325 -73.8548430003408,40.5119999997495 -73.8378160004316,40.5184529997635 -73.8298750001626,40.5214639998943 -73.8261579999739,40.5228739999272 -73.8189190003325,40.5245049996066 -73.8042419996157,40.5278149999086 -73.7928549994718,40.5303819999994 -73.7839690004813,40.5323869998874 -73.7729640005011,40.5333709999439 -73.7687810003553,40.5337469999391 -73.7687390003565,40.5338730003331 -73.7676299996608,40.5371520000695 -73.7672720000958,40.5381110001685 -73.7649319995874,40.5444019996489 -73.7622340000412,40.5502029997225 -73.7582559996007,40.555363999854 -73.7580469999319,40.5572680003545 -73.7569089999993,40.567652000056 -73.7557009995762,40.5786880004027 -73.7555019998345,40.5853870001996 -73.7551830003253,40.5856489996783 -73.7523710005799,40.5879650001391 -73.7521210001365,40.588181999859 -73.7509780000666,40.5890489999541 -73.7477489995034,40.5915030000496 -73.7444689997047,40.5929040001777 -73.7432370003603,40.5928389996098 -73.7400189999495,40.5929059997619 -73.7384679995248,40.5929370003491 -73.7371850004863,40.5929650002579 -73.7374139997551,40.5934249997572 -73.7375209994762,40.5939200002646 -73.7376039998996,40.5942089995921 -73.737636999951,40.5944149999257 -73.7380780001469,40.5945859997795 -73.7384630005488,40.5958659998291 -73.7384659995736,40.5964539996972 -73.7384490001746,40.596982000445 -73.738446999467,40.5974809998633 -73.738437999527,40.5978150000206 -73.7384050002868,40.5981869999245 -73.7383710002497,40.5994900004493 -73.7382890002499,40.601622000195 -73.7382689996523,40.6023069997442 -73.7382650001419,40.6025570002227 -73.7383580000337,40.6026599999246 -73.7384629998671,40.6028359996741 -73.7385190004291,40.603128000158 -73.7392350005246,40.6040280004055 -73.7394630000867,40.604234999799 -73.7402909996093,40.6045979999873 -73.7411480002983,40.6054599995618 -73.7417719998984,40.60602100034 -73.7420739994758,40.6062659996631 -73.7424640001734,40.6065939997751 -73.7431679994511,40.6071769998791 -73.7432920001805,40.6072510003264 -73.7435510000551,40.6074519995864 -73.7432039994264,40.6077049998687 -73.7430699999621,40.607886000019 -73.7431459995752,40.6079569999221 -73.7430589994774,40.6079980002992 -73.7432150002403,40.6082339997489 -73.7436230002544,40.6088690002469 -73.7436759996808,40.6089560000319 -73.7444509995545,40.6101690004042 -73.7451689997191,40.6113000003905 -73.7454920003396,40.6118050000987 -73.7455300005014,40.6118710002776 -73.7467470001988,40.6114029999203 -73.7468549998911,40.6115740004313 -73.746942000201,40.6117750001509 -73.7471190003942,40.6120360000396 -73.7471939999101,40.6119979996143 -73.7474950000591,40.6118879996757 -73.7476140001342,40.6119979996185 -73.7479929994121,40.6123100003799 -73.7482159994081,40.612011000168 -73.7491200005623,40.6117940000169 -73.750087999793,40.6116410000027 -73.7534580005922,40.6105199995767 -73.7547319994628,40.6104049999311 -73.754947000427,40.6104969997314 -73.7551969999949,40.6105939995634 -73.7572349998408,40.6109930001194 -73.7575460003233,40.6110370001749 -73.7593340004768,40.6112580003938 -73.7600210003493,40.6113489996982 -73.7620839997395,40.6127320002299 -73.7652440004559,40.6149420002005 -73.7667190004689,40.6150039999762 -73.7667569996348,40.615283999596 -73.7674589994089,40.620511000305 -73.7675710000394,40.6214770000113 -73.7685529994476,40.6231550000236 -73.7685839994639,40.6233130002211 -73.7686430003662,40.623431000334 -73.7686680005703,40.6235889995843 -73.7687620004625,40.6237609995715 -73.7687569999356,40.6238199997234 -73.7688380001178,40.6239520001925 -73.7688049997025,40.6240270000063 -73.7688299996279,40.6241000003382 -73.7687769996157,40.6241950001967 -73.7687839998724,40.6242890002299 -73.7687609996773,40.6243520001176 -73.7687090003201,40.6243859995978 -73.7686489994505,40.6244660003497 -73.76860400056,40.6247330001676 -73.7685000003293,40.6248969998829 -73.7683259996809,40.6250970003767 -73.7682500003094,40.6253979998715 -73.7681540004291,40.6254489999287 -73.7679329998771,40.6257549996507 -73.7677819994155,40.6259120002607 -73.7677580003809,40.6261130004437 -73.7677080003385,40.6262080002511 -73.7675070002168,40.626468999762 -73.767425000267,40.6266059996517 -73.7480010000578,40.6346309997634 -73.746021999821,40.6352120002541 -73.7441769997489,40.6373560000774 -73.7432949996344,40.6380480001212 -73.7423610004367,40.6380929996988 -73.7415009994818,40.6378500001674 -73.7412009998392,40.6375900002442 -73.7411869994361,40.6374119996448 -73.7412699996406,40.637257000248 -73.7420810005099,40.6363809998892 -73.7425309997718,40.6357149996853 -73.7425799995437,40.6356480003535 -73.7426730002203,40.6354080003025 -73.7426500001993,40.6350450001154 -73.7422370005009,40.6348509998267 -73.7416779998686,40.6348379999174 -73.7410949996476,40.634930999633 -73.7399600002707,40.6351439999027 -73.7394709996637,40.6357060001756 -73.7402839998989,40.6371750002844 -73.7410320004327,40.638476000248 -73.741263000022,40.6389050004254 -73.7415340003786,40.6392300000063 -73.7422830003836,40.6401210000536 -73.7414280002926,40.6405019998894 -73.7420509998044,40.6414740003374 -73.7416609995345,40.6421979996518 -73.7416229994577,40.6427160001778 -73.7414399998928,40.6460860001108 -73.7414370000858,40.6468890003923 -73.7390450001023,40.6482010000378 -73.7367349994101,40.6491000001468 -73.7351349997246,40.6497319996589 -73.7343879999792,40.649820999631 -73.7322080005602,40.6500909996207 -73.731427000555,40.6501710003742 -73.731055000227,40.6502310004052 -73.7300039999453,40.6504800004246 -73.7297389998673,40.6505579999908 -73.7294970005157,40.6506359998114 -73.7289910004204,40.6508389996177 -73.7287029998862,40.6509160003922 -73.7285300001551,40.6509729998009 -73.727023999433,40.6514980001484 -73.7268730001534,40.6515409999728 -73.726670999486,40.6516850001344 -73.726430000041,40.6517910000464 -73.7261889997026,40.6518609998998 -73.7259460005333,40.651960999628 -73.7256820003989,40.6520579996573 -73.7252480001425,40.6521929999149 -73.7250519998076,40.6523410001438 -73.7249840002976,40.6526780000271 -73.7248209995165,40.6530199997973 -73.7248739995158,40.6534469996812 -73.7247869999791,40.6540010001262 -73.7253349996398,40.6553239996348 -73.7257589995952,40.656998000014 -73.7259270002345,40.6577310002711 -73.7262110001441,40.6584789999259 -73.7264439999408,40.6591619998288 -73.7268100000487,40.6597949999148 -73.7272080001513,40.6604219997426 -73.7275920002409,40.6610940004255 -73.7279309995915,40.6617489996232 -73.7281530005657,40.6624540002341 -73.7283310005671,40.6630439996661 -73.7280850005653,40.6630710004471 -73.7278140002466,40.6632239999467 -73.7277630003365,40.6639850004216 -73.7278400000102,40.6650529995828 -73.7279539997284,40.6653439999698 -73.7282239996473,40.665965000192 -73.7282720005428,40.6664399998914 -73.7282220000684,40.6673140002108 -73.7282640001073,40.6680729998286 -73.7281779995529,40.6687190002032 -73.728095000177,40.6694419996254 -73.7279370004885,40.6705459996578 -73.7279409995274,40.6708090002892 -73.7279050005077,40.6708399997533 -73.7278869995968,40.6710500001685 -73.7278549996256,40.6712610002902 -73.7278130004141,40.6716119998821 -73.7277260003879,40.6722799996506 -73.7275279997638,40.6738710001545 -73.7275470004872,40.6740839999656 -73.7275419999184,40.6741600001576 -73.7274410003492,40.6744290004485 -73.7271410003494,40.675095999847 -73.7265429995336,40.676486999842 -73.7264560001085,40.6767480000656 -73.726355000049,40.676973000397 -73.7261979998499,40.6773810001546 -73.726010999515,40.6780779996203 -73.7256300002595,40.6795879996591 -73.7256869996281,40.6802499995614 -73.7257539997724,40.6809460002589 -73.7258240003407,40.6816360001353 -73.7259069997694,40.6826570001831 -73.7258610004275,40.6832229999242 -73.7258430000082,40.6835749998035 -73.7257979999001,40.6843540004402 -73.7258779998872,40.6855139997897 -73.7259109995681,40.6860849997393 -73.7259959997981,40.6869319996927 -73.7260890000547,40.687773999821 -73.726174999768,40.6886500003485 -73.726200000209,40.6889840000736 -73.726216999647,40.6893059996971 -73.7262589998771,40.6902690002671 -73.7262580004454,40.690610999813 -73.7262629995491,40.6907729996208 -73.7265030000375,40.6968859999505 -73.7265110003849,40.6977810000739 -73.7265439998675,40.6989830001743 -73.7266539999538,40.7011120000937 -73.726738000226,40.7015880002152 -73.7267830003788,40.7019869998246 -73.7267280003627,40.7021459998089 -73.7267810004089,40.703144999872 -73.7268949996603,40.705800000085 -73.7270470003592,40.7094969997221 -73.7268960000125,40.7099760004313 -73.726970999502,40.7107150003106 -73.7270860005616,40.7112590004491 -73.7273170003455,40.7122160000656 -73.7273639995846,40.7123920001224 -73.7283130004642,40.7159980002223 -73.728500999677,40.7167059998625 -73.7291760004695,40.7191670003668 -73.7296610001167,40.7204830004253 -73.7303260000153,40.7221569998861 -73.7306549999535,40.7219240002277 -73.7310129996527,40.7215870000668 -73.732373999902,40.7204019997488 -73.7325659996458,40.7203050003305 -73.7331869996196,40.7195740003787 -73.734383000426,40.7189310002946 -73.7353039999507,40.7184979995715 -73.7361329999729,40.7181720004476 -73.7369579994922,40.7179310002784 -73.7373289994456,40.7178409998161 -73.7379109996551,40.7177219997999 -73.7388720001255,40.7175349997594 -73.7398399997978,40.7173089997807 -73.7408189997278,40.7187539998046 -73.741960999466,40.720356999955 -73.7428159994331,40.720030000324 -73.7432330002565,40.7204170002958 -73.7443249996299,40.7214410000959 -73.7435699998447,40.7218680003018 -73.7447480000622,40.7229820003821 -73.7454799995611,40.7225290003083 -73.7462049997247,40.7220759996566 -73.7468259997173,40.7218289995987 -73.7469719996259,40.7217749996355 -73.7476949998028,40.7214249998939 -73.7483859998435,40.7210169996089 -73.7480299997478,40.7204040000118 -73.7488809998304,40.7201370003564 -73.7491260002707,40.7205889997638 -73.749906000197,40.7200459998072 -73.752278999947,40.7219689999835 -73.7534580001196,40.7229290003866 -73.7526289999054,40.7235129995838 -73.7540870000159,40.7246949996349 -73.7549690001173,40.7241599997296 -73.7550859999419,40.7244899999271 -73.7552440001663,40.7247829998882 -73.7555079997317,40.7248940001951 -73.7564230003336,40.7253030003153 -73.7565699998541,40.725407000055 -73.756694999912,40.7255520001399 -73.7567509997412,40.7256909995594 -73.7567720005166,40.7257960000869 -73.7567519997192,40.7259729995807 -73.7567100005955,40.7261789995872</coordinates></LinearRing></outerBoundaryIs></Polygon>
  </Placemark>
</Folder>
</Document></kml>
