<?xml version="1.0" encoding="utf-8" ?>
<kml xmlns="http://www.opengis.net/kml/2.2">
<Document id="root_doc">
<Schema name="shape" id="shape">
	<SimpleField name="District" type="string"></SimpleField>
	<SimpleField name="Code" type="string"></SimpleField>
</Schema>
<Folder><name>shape</name>
  <Placemark>
	<Style><LineStyle><color>ff0000ff</color></LineStyle><PolyStyle><fill>0</fill></PolyStyle></Style>
	<ExtendedData><SchemaData schemaUrl="#shape">
		<SimpleData name="District">New York 6</SimpleData>
		<SimpleData name="Code">NY-6</SimpleData>
	</SchemaData></ExtendedData>
      <Polygon><outerBoundaryIs><LinearRing><coordinates>-73.7567100005955,40.7261789995872 -73.7564530002,40.7262510000624 -73.756076000364,40.7263750000599 -73.7548990001102,40.7267820000533 -73.7545760004352,40.7268999997735 -73.754016000474,40.7271389995738 -73.75359499946,40.7273289997586 -73.7524850005479,40.7278519998995 -73.7526370004214,40.7279880004393 -73.7519589997022,40.7283769999602 -73.7513300003193,40.7287450001763 -73.7506580002811,40.7291950000947 -73.7500449999205,40.7296670001172 -73.7496209995232,40.7300049997815 -73.748748999748,40.7307860001692 -73.7473379997477,40.7320360002122 -73.7467380001328,40.7325829997309 -73.7460640000717,40.7331319999384 -73.7455229999491,40.7335390004159 -73.7448959998564,40.7340049999889 -73.7446720005452,40.7341789999706 -73.7438440003716,40.7348070002341 -73.7430649994222,40.7354649997474 -73.7423600004956,40.7361409999205 -73.7415970002364,40.7369080004028 -73.7402910005827,40.7385169998324 -73.7398300000721,40.7390540002483 -73.7398309996773,40.7391799997315 -73.7396610000773,40.7394309996347 -73.7391280005667,40.7400220002917 -73.7384450001159,40.740614999903 -73.7370479998783,40.7414629995639 -73.7363840005669,40.7419120003594 -73.7354579995267,40.7426729996318 -73.7349280003324,40.7431520002471 -73.7343620002151,40.7436280001364 -73.7347739999197,40.7441850002581 -73.7348870000556,40.7444530003777 -73.734950999711,40.7446380002733 -73.7350179999589,40.7448880000467 -73.7350460004408,40.7451179999382 -73.7350610005645,40.7453329999128 -73.7350379999582,40.7455260003373 -73.7353519994818,40.7457650000383 -73.7355939999078,40.7459660003238 -73.7358250005893,40.7461739997698 -73.7360450002574,40.746388000307 -73.736458999539,40.746802000293 -73.7368779994609,40.7471950002055 -73.7373400004054,40.7475989998059 -73.7378069997623,40.7479799999654 -73.7382900005764,40.7483500001799 -73.7389069997318,40.7487439997653 -73.740754999456,40.7498920000274 -73.7414909996519,40.7504329999237 -73.7418149999695,40.7506840000595 -73.7420739998894,40.7509280002537 -73.7425229997207,40.7513370000027 -73.7430500001982,40.7519260002583 -73.7440539994782,40.7531440001609 -73.7444090002269,40.7535630000923 -73.7456930001917,40.7551109998005 -73.7464289997023,40.7559750002844 -73.7465569995632,40.7560989999567 -73.7469579999709,40.7565289997844 -73.7474070001384,40.7570410001989 -73.7484600001376,40.7580649995789 -73.7490019997178,40.7584800001952 -73.7496530002025,40.7588909996165 -73.7498590005584,40.7590130004376 -73.7502160004098,40.759209000043 -73.7505400002983,40.759364000307 -73.7508780004082,40.7595099996864 -73.751280999831,40.7596669997614 -73.7516519996253,40.7597939996517 -73.7528300002094,40.7601589996543 -73.7538530005043,40.7604650004093 -73.7540710005515,40.7604440004056 -73.755083999468,40.7607559998128 -73.7556969999106,40.7608439996756 -73.7564850005486,40.7608839997377 -73.7566999998883,40.7609100001541 -73.7569680003506,40.7609719998484 -73.7571679998379,40.7610400002442 -73.7573780005343,40.7611309998768 -73.7575620004565,40.761254000411 -73.7577629994236,40.7615139998559 -73.7579070002555,40.7618319997074 -73.7581149994407,40.7620540003149 -73.7571630000169,40.762349000394 -73.7574079999484,40.76258700043 -73.7578210004766,40.7630289997303 -73.7579980000068,40.7632439997678 -73.7581559999652,40.763461000289 -73.7583119998091,40.7637019996815 -73.7584380004893,40.7639279997725 -73.7586249996255,40.7643829999578 -73.7600770003285,40.7642289996533 -73.7612409997918,40.7641670000985 -73.7618599998672,40.7640649999436 -73.7655770005705,40.7637010001244 -73.7674839999365,40.7635150001968 -73.7707690001004,40.7631929996582 -73.7709689996682,40.7635999999489 -73.7719160005497,40.7635080004334 -73.7727320002868,40.7650549996049 -73.7741749997293,40.7677610000911 -73.7759160002671,40.7672279997112 -73.7776560001901,40.7666930002958 -73.7793960005746,40.7661559998673 -73.7802880001941,40.7658859999079 -73.7806660001368,40.7666220003549 -73.7799000002799,40.7644760002351 -73.7800199998458,40.7643009999218 -73.7793369994763,40.7630310000404 -73.7791360001063,40.7626510004492 -73.7790310001245,40.7623799997603 -73.7793490005914,40.7623629998983 -73.7803090002175,40.7622919996531 -73.7804050003678,40.7622949997543 -73.7813199999809,40.7621880002196 -73.7822320000509,40.7621310002062 -73.7830769996972,40.7620289997721 -73.7842310001099,40.7619240000774 -73.7852740000677,40.7618419995981 -73.7899150003993,40.7614420004405 -73.793443000353,40.7611850000045 -73.7982040001012,40.7613470001388 -73.7991260002176,40.7614249998707 -73.7991440002548,40.7612629996453 -73.8000740000182,40.7613449999733 -73.8010080005322,40.7614510001094 -73.8011910001506,40.7601980002255 -73.8008339998305,40.7599709998555 -73.8012379994132,40.7599010004156 -73.8012499994868,40.7598280000341 -73.8021530003104,40.7599869998801 -73.8030730000448,40.7601260002604 -73.8028959998864,40.7614619997009 -73.8036400003947,40.7620370000605 -73.8037410003367,40.7621330002265 -73.8046310003466,40.7625889997637 -73.807334999839,40.7634979997492 -73.8070289995724,40.7657280000175 -73.8088910004722,40.765874000189 -73.8108170003143,40.7660269996766 -73.8104720005882,40.7685569995748 -73.8114420004697,40.7686329997811 -73.8130570002169,40.7687550000622 -73.8145399994563,40.7688789998372 -73.8155829995068,40.7689610003722 -73.8157300003273,40.7702470000042 -73.8173169998925,40.7702890000985 -73.8172930000934,40.771477999906 -73.8173529997327,40.7723559999721 -73.8218660001499,40.7723520003604 -73.821866000063,40.7745169999775 -73.8218010002347,40.7752590001201 -73.8217449994522,40.7759729996192 -73.8216699996356,40.7768630002245 -73.8215630001917,40.7776330003194 -73.8214779997167,40.7783099997815 -73.8223919998696,40.778364000183 -73.8237620005115,40.7785030004085 -73.8238180005548,40.7783599996213 -73.8248890004749,40.7787140004113 -73.8258170004085,40.7790229999287 -73.8260160004873,40.7790939996139 -73.825667000042,40.7797299998491 -73.8259290001705,40.7798079998159 -73.8262350001821,40.7799209999402 -73.8262979994837,40.779802999647 -73.8282390001749,40.7764599996984 -73.8285279997435,40.7760070002156 -73.828882999644,40.77542699957 -73.8291850001794,40.7750179998596 -73.829278999957,40.7748820002642 -73.8295120005141,40.7745690001762 -73.8298520004949,40.774163000107 -73.8301570000599,40.7738250001363 -73.8305399996496,40.7734370001115 -73.8310000003958,40.773046999835 -73.8315929995506,40.7725599997921 -73.8318330000345,40.7723879999205 -73.8324380004701,40.7720140001614 -73.8331329995616,40.7716099997846 -73.8334280001403,40.7714339999093 -73.834375999445,40.770891999875 -73.8351780000801,40.7703460004051 -73.8362689996915,40.7696099997039 -73.8367320001429,40.769221999903 -73.8372919998273,40.7686890002343 -73.8381639999794,40.7677249995514 -73.8387100002706,40.7668950003981 -73.8388290003094,40.7667250000643 -73.8393189998718,40.7660539997406 -73.8391210003761,40.7659829996742 -73.8394169995871,40.7654280002513 -73.8395380000716,40.7652240001878 -73.8396569995173,40.7649939998386 -73.8400990002342,40.7642110000206 -73.8401089999791,40.7641619997158 -73.8400889994402,40.763643999683 -73.8400480002349,40.763416000117 -73.8399830005727,40.7631889997107 -73.8398960001311,40.7629650003616 -73.8397879994335,40.7627480000706 -73.8396909998204,40.7625869998034 -73.8399229999776,40.7625750001047 -73.8408740004252,40.7625590000737 -73.8417619998735,40.7626650002515 -73.8419679997633,40.7626859996484 -73.8422330003499,40.7625519995727 -73.8425700004616,40.762404999574 -73.8429329999114,40.7623360003283 -73.8433489999184,40.7622069996737 -73.843718999566,40.7620710001369 -73.8440850001973,40.7619080000933 -73.8444579994517,40.7617049998707 -73.8446900002226,40.7615490003867 -73.8453630004,40.7611220001049 -73.8459749994867,40.7607170003447 -73.845852000489,40.7604550003676 -73.8463390000107,40.7601900000358 -73.8476309997013,40.759279000262 -73.8479669998428,40.7590850003202 -73.8483129995884,40.758901000257 -73.848668000319,40.7587269999293 -73.849031000387,40.7585640000013 -73.8494029998081,40.7584119995595 -73.8497659997932,40.7582800004214 -73.850502000419,40.758033999701 -73.8512499997312,40.7578089995538 -73.8515620002503,40.7577290002947 -73.8516280005205,40.7577050003613 -73.8521909996443,40.7575669995511 -73.8524099996053,40.7575340000339 -73.8527230002283,40.7575310001232 -73.8529330002405,40.7575600001789 -73.8532329996266,40.757643000276 -73.8534179997124,40.7577240003347 -73.8536859998133,40.757876999579 -73.854389000282,40.7582499998795 -73.8544959995911,40.7582789996591 -73.8542080000238,40.7578670001657 -73.8538200004574,40.757186000231 -73.8537160000312,40.7569739997626 -73.8535379995119,40.7565549998405 -73.8533510003934,40.7560130002642 -73.8531870004104,40.7553980000149 -73.8530080001816,40.7545550003093 -73.8526169999749,40.7534050003069 -73.8522050000028,40.7526610001416 -73.8521700002493,40.7525820000675 -73.8508639998547,40.7499960004415 -73.8544209996674,40.7488049999597 -73.8544769996752,40.7489530002201 -73.8573960003555,40.7480679999236 -73.8603200000324,40.7471959999371 -73.8625310001252,40.7465339999969 -73.8628589996218,40.7471570001322 -73.8631010004043,40.7476309995808 -73.8634970000224,40.7475170003517 -73.8637030005172,40.746906000319 -73.8664140002808,40.7460999997491 -73.8692879995423,40.7452420000114 -73.8696309997025,40.7459079999495 -73.8715949995756,40.7453250003855 -73.8717709995658,40.7461039998007 -73.8719639996334,40.7469840002617 -73.8720679997395,40.7474809997942 -73.8722199994278,40.7481569998026 -73.8723729994181,40.7488519998661 -73.8727739996567,40.7488129997283 -73.8737010002004,40.7487170004336 -73.8746289998023,40.7486140003132 -73.8762519998374,40.7484390003883 -73.8784059999489,40.7482160000266 -73.879277999888,40.7481240002557 -73.8798389995567,40.7480620003101 -73.8813040001305,40.7479090001378 -73.8829990002327,40.7477340004212 -73.8839359994273,40.7476299998892 -73.8857869996848,40.7474400003912 -73.8867170003467,40.7473410003043 -73.8876470004228,40.7472449997013 -73.8886780003451,40.7471339995866 -73.8887559997136,40.7475429996851 -73.8890740004922,40.7492470000847 -73.88990299979,40.7491639999967 -73.8908239997856,40.7490610004031 -73.8917990005233,40.7489600002011 -73.8927080003773,40.7488629996109 -73.8936070003012,40.7487710001266 -73.8939760000384,40.7508110002827 -73.8943299999058,40.7527560003376 -73.894661000575,40.7545830002873 -73.8950520005377,40.7567109997271 -73.8959759996943,40.7566079998858 -73.8962619998463,40.758158999581 -73.8971910003125,40.75805999981 -73.8992120004564,40.7578479996221 -73.8997029995126,40.7577829997638 -73.8998320004877,40.7577830000377 -73.9005190001323,40.7577080002023 -73.9008149994995,40.7576789997321 -73.9018989995731,40.7575639998691 -73.9027859997656,40.7574719998273 -73.9036779999501,40.7573770001316 -73.9048469999144,40.757255000387 -73.9064679995268,40.7570820001576 -73.9061889996071,40.7555320000035 -73.9052939998506,40.7556279997213 -73.9051540002471,40.7548580003362 -73.9058449999574,40.7536479995672 -73.9058309995448,40.7535249997395 -73.9058639998375,40.7534040003823 -73.9060750002151,40.7529130000004 -73.9052500005166,40.7525650004127 -73.9061099999261,40.7506240001124 -73.9069999998468,40.7508530004284 -73.9075090002935,40.7497670002033 -73.9083189999386,40.7501190001002 -73.9083930003519,40.7499460004036 -73.9077040005778,40.7492970002908 -73.9080159995371,40.748590000135 -73.9089010003328,40.7488280000297 -73.9095539995194,40.7473949998723 -73.909919000266,40.7477639995876 -73.9119299995795,40.7479880002013 -73.9117299995582,40.7484349997405 -73.9116420002964,40.7486850003655 -73.9118880001834,40.748715000157 -73.9128100002513,40.7488180003406 -73.9133729995522,40.7460310004151 -73.9152320004753,40.7462460000342 -73.9153069996876,40.7458640004342 -73.9155660002335,40.7445790004297 -73.9158469994604,40.7431389995815 -73.9158779995049,40.7429980003537 -73.9149489997976,40.7429079995878 -73.9140090004434,40.7427950002028 -73.9128050002213,40.7426589997482 -73.9129199994723,40.7424129997644 -73.9129499995836,40.7423070003485 -73.9110880004473,40.7420779999239 -73.9101920004078,40.7419720003904 -73.9083390000695,40.7417570000393 -73.9075560005796,40.7416589997646 -73.9063390001068,40.7415290003316 -73.9046190003495,40.7413320003516 -73.9037270001983,40.7412319999324 -73.9032290001396,40.74116299973 -73.9037990001509,40.7399000003746 -73.9032609994434,40.7398819997829 -73.9037700000581,40.7385480000993 -73.9036840000334,40.7382670002985 -73.9036480000662,40.738217000408 -73.9036580003206,40.7381419995698 -73.902941000372,40.7384029996634 -73.902668999832,40.7384920003898 -73.901642000309,40.7387449997457 -73.9008029997313,40.7391579996418 -73.9008279997589,40.7390450003724 -73.9018090003269,40.7385640004081 -73.9017850002418,40.7384879996765 -73.9008420005078,40.7384630001437 -73.9009009996347,40.737036999784 -73.9009549994711,40.7356340003407 -73.9010800001455,40.733908000053 -73.9012980005572,40.7336399999203 -73.9025970000246,40.7321039997019 -73.904218000111,40.7301270000553 -73.9051809996182,40.7289569996081 -73.9055759997237,40.728634999701 -73.9070699999762,40.7274660001018 -73.9074100003728,40.7272090001941 -73.9080469994688,40.7267339996252 -73.9088920000327,40.7260679998124 -73.9113450000421,40.7241819997527 -73.9125629994319,40.7232390001248 -73.9127080000414,40.7232850002286 -73.9131699999637,40.7230819999997 -73.9138450003902,40.722897999639 -73.9137700000809,40.7227469998972 -73.913672000203,40.722601000417 -73.9135579996067,40.7224630001651 -73.913427000488,40.7223340004473 -73.9133650001731,40.7221789996568 -73.9132890000161,40.7220280000866 -73.9132000003282,40.7218800003827 -73.9130979994357,40.7217370003713 -73.9129839997055,40.7216010003218 -73.9124599997102,40.7209309996422 -73.9118890005268,40.7202630001678 -73.9113209997843,40.7196239999358 -73.9107019998459,40.7189329999528 -73.9096599995629,40.7177930001585 -73.9097629999714,40.7177370001582 -73.9086410005269,40.7165449999058 -73.9077720004188,40.7156070003524 -73.9075489999789,40.7155039999479 -73.9057599994249,40.7145880000324 -73.9053760001698,40.7128770003817 -73.904894999889,40.7128570001115 -73.9047719996538,40.7128660000021 -73.9037690005329,40.7128169999958 -73.9022429995952,40.7127599997165 -73.9001840004952,40.7126810002684 -73.8976830002064,40.7125799999018 -73.8962190004387,40.71252199957 -73.8959039996071,40.7125070002542 -73.8950249997467,40.7124780001104 -73.8938059996353,40.7124340000543 -73.8887759999159,40.7122860002488 -73.8885460002282,40.712274999843 -73.8863770001644,40.7122080003088 -73.8850760001447,40.7121609999179 -73.8843509996218,40.712229999719 -73.8842599999077,40.7133039997868 -73.8837220004185,40.7132829999429 -73.8822949996909,40.7134300000074 -73.8800330002989,40.7136540004389 -73.8793429998171,40.7127269995814 -73.8792149998827,40.7120260000077 -73.877543000364,40.712195000251 -73.8754299998286,40.7124160002552 -73.8753890001681,40.711713000179 -73.8734900000713,40.7118240000311 -73.8735930003241,40.7132339996688 -73.8730290004006,40.7132600003857 -73.8716179997706,40.7132899997144 -73.8696360002275,40.7132979996155 -73.8620789999108,40.7122009998546 -73.8650100003809,40.7107770001537 -73.8644470004429,40.7100840001136 -73.8640819996604,40.709621999628 -73.8637790005767,40.7092509997637 -73.863508000546,40.7089109995642 -73.8625750005105,40.7077490001266 -73.8622820001793,40.7073770002775 -73.8621619999035,40.7072640003064 -73.860005999849,40.7073749997895 -73.859267000078,40.7074890000442 -73.858268000082,40.7075520002036 -73.8566769997018,40.7076919996993 -73.8536499994832,40.707623000438 -73.8527659994281,40.7074420000922 -73.8510990001381,40.7079009996123 -73.8505330001925,40.7080670002259 -73.8495170005752,40.70839200032 -73.8485760004376,40.7085070002063 -73.8476259995791,40.7084100001842 -73.8466340005542,40.7083959996786 -73.8456800000225,40.7084800002988 -73.843950000277,40.7089369995587 -73.8430159994245,40.7091759997672 -73.8406919998521,40.7101530002826 -73.8397320002392,40.7104000003696 -73.8380579998233,40.7109210001406 -73.8377089996293,40.7110360001149 -73.8373679997436,40.7111670001766 -73.8370369999671,40.7113119999572 -73.8367159997993,40.7114699996027 -73.8364089997108,40.7116419998204 -73.8361149994189,40.7118249998421 -73.8349259999577,40.7124739999845 -73.8343419994963,40.7127549998438 -73.8337630000455,40.7131300004223 -73.8325600005821,40.71379400007 -73.8330349999888,40.7143069999821 -73.833146999655,40.7144340004101 -73.832230999839,40.7151199997371 -73.8313850005285,40.7145289999815 -73.8313109996728,40.7144740003189 -73.8309820003894,40.7143100001607 -73.8298960000716,40.714571000101 -73.8292559997561,40.7147570000134 -73.8284959997491,40.7150139997093 -73.8271389997752,40.7153419999656 -73.8269760002843,40.7153909995653 -73.8263959995529,40.7156549997575 -73.8262019995262,40.7157570001497 -73.8257050000757,40.7160630002652 -73.825570000311,40.7157839995805 -73.8254410003983,40.7155559995775 -73.8247729995649,40.7145929997878 -73.8245799997548,40.7142850002439 -73.8242829997109,40.7138259998245 -73.8241960003563,40.7136480003331 -73.8240400005356,40.7132119998384 -73.8239480002593,40.7129060001617 -73.8239550003005,40.7128530002861 -73.8234260003175,40.7122840002293 -73.822737000405,40.7117329997393 -73.8211669995672,40.7103969997769 -73.8206620004687,40.7098689996261 -73.8203179998728,40.7097149998393 -73.8201029997243,40.7095989999907 -73.819427000341,40.7092080000674 -73.8191800004152,40.7102460000494 -73.8189339998654,40.7101189996252 -73.8183979999015,40.7097889996216 -73.8177979998488,40.7093419999102 -73.8176339995501,40.7092129997981 -73.8174540002049,40.7090949996574 -73.8172600001968,40.7089899999383 -73.8170540002408,40.7089000002216 -73.8168400003388,40.7088250000064 -73.816683999528,40.7088030003962 -73.8163650003951,40.7087999999054 -73.8133270003996,40.7090270001135 -73.8124310002463,40.7090929997339 -73.8121549999666,40.7070459998511 -73.8120119995082,40.705944999987 -73.8093479997315,40.7066849996204 -73.8096889999395,40.7073770000837 -73.8099829997822,40.7080700004168 -73.8076220005738,40.7087310002915 -73.8050120003766,40.709472999846 -73.804841000552,40.7093379996678 -73.8042510000747,40.7103900000286 -73.8034929996612,40.7110709998312 -73.802427999613,40.7120409995929 -73.8025929994923,40.7125389999796 -73.8013840004459,40.7126739998453 -73.801242000583,40.71250299984 -73.800394000114,40.7129410003518 -73.7990209999408,40.7135139999997 -73.7983349995337,40.7129080003934 -73.7972620002352,40.7131570001935 -73.7971639994233,40.7132959999363 -73.7970899995035,40.7133550003034 -73.7969120003351,40.7134359997411 -73.7956119996232,40.7138070001811 -73.7947549996359,40.7120670000612 -73.7939030000845,40.7123699995853 -73.7947359997648,40.7140570003545 -73.7958250003371,40.7162670000464 -73.7949460003679,40.7165179999535 -73.7946179995307,40.7158510003974 -73.7937399995376,40.7160989999877 -73.7933329999518,40.7152779998041 -73.7931489996985,40.7149329998549 -73.7929210001489,40.7148059999815 -73.7927049999489,40.7146650000244 -73.7925020004352,40.7145109996465 -73.7923169997396,40.7143449997951 -73.7921490003606,40.7141689998878 -73.792000000332,40.7139840001203 -73.791871000176,40.7137930000197 -73.7918980003888,40.713929000251 -73.791901000006,40.714071000184 -73.7918800001486,40.7142150001087 -73.7918319995574,40.7143570004028 -73.7917600002451,40.7144940002353 -73.7916639998186,40.7146219998139 -73.7915479995747,40.7147379997421 -73.7914160000385,40.7148379997883 -73.7912729997136,40.7149219999958 -73.791040999669,40.715040999582 -73.7908190000303,40.7151719999331 -73.7906089998944,40.7153129996707 -73.7904130005494,40.7154659998749 -73.7902300005834,40.715627000308 -73.7900900001309,40.7157739999533 -73.7899650003389,40.7159320000739 -73.7898570004396,40.7160990001987 -73.789767999713,40.7162729998577 -73.7896999998181,40.7164520004053 -73.7896520000397,40.7166339996324 -73.7896240000075,40.7168170004025 -73.7896180003258,40.7169990004288 -73.7894299994453,40.7170099999204 -73.7892419997286,40.7170340000098 -73.789058000096,40.7170720002421 -73.7888790004438,40.717121999557 -73.7887069999771,40.7171849999706 -73.7885459999557,40.717259000411 -73.7886560000568,40.7174350003344 -73.788792999438,40.7175989996584 -73.7889550000354,40.7177499999144 -73.7892399994907,40.7179449998934 -73.7894530005479,40.7180519997224 -73.7896820000629,40.71813899987 -73.7899230003347,40.7182039999076 -73.7901729997946,40.7182469998266 -73.790299999928,40.7182600004261 -73.7905559994819,40.7182670000664 -73.7907289999279,40.7183099999588 -73.790889999877,40.718374000325 -73.7910350003323,40.718457999935 -73.7911599996495,40.7185579995574 -73.7912629997193,40.7186690003018 -73.7908959995984,40.7188760000389 -73.7911680004346,40.7189159996862 -73.7914389999998,40.7189449997907 -73.7917290002096,40.7189379998092 -73.7919199999066,40.7189140000671 -73.7920140000329,40.7188839996063 -73.7926100002639,40.718717000255 -73.7949610002452,40.7182129996678 -73.7956480003882,40.7181339996991 -73.7963819999557,40.7178970004172 -73.7969699999985,40.7177230000004 -73.7980550005097,40.7174309998253 -73.7980960002828,40.7175430000958 -73.7984919997654,40.7187069999613 -73.7990009995764,40.7201450001508 -73.7980989995154,40.7203449997089 -73.7972329997993,40.7206089998271 -73.7978279994999,40.7220310002529 -73.798471999559,40.7235300002926 -73.7951159996278,40.724676000006 -73.794223999811,40.7249819999597 -73.7933349994518,40.7252840002925 -73.7917450000426,40.7257759999422 -73.7908450001071,40.726036000335 -73.7899800000507,40.7263169996836 -73.7894589995578,40.7264929998725 -73.7882499999423,40.7268869998512 -73.7865500001141,40.7274450001311 -73.784821000228,40.7280149996106 -73.7836010000409,40.7284130002078 -73.7811610003681,40.7292130000104 -73.7807989997355,40.7284249999009 -73.7803370001707,40.7274390002286 -73.7794099994358,40.7276920001093 -73.7802480003016,40.7294599998175 -73.7775749999592,40.7301930004299 -73.7767279997734,40.7284300004104 -73.7759619998091,40.726813000071 -73.7755610002195,40.7259699999443 -73.7752340000125,40.7252380000152 -73.7763380005958,40.7244689997848 -73.7764219998284,40.7243229999985 -73.7765460002563,40.7241450003875 -73.7766659995677,40.7240090002511 -73.776831999756,40.7238509999345 -73.7769900001338,40.7237310001566 -73.7771820001955,40.7236070003384 -73.7773899999817,40.723498000151 -73.7775830003852,40.7234179998915 -73.7778170002636,40.7233390000987 -73.7780380000945,40.7232840001018 -73.77787599957,40.7230369996807 -73.7773190002786,40.7232240000454 -73.7771029995886,40.7232129996112 -73.7768850002486,40.723215000082 -73.776665999764,40.7232310002364 -73.7764500001161,40.7232610001548 -73.776238000523,40.7233049996379 -73.7760559996351,40.7233560001638 -73.7749170003284,40.7240880002105 -73.7742629998449,40.7244159998817 -73.7735900001832,40.7247420003538 -73.7727430000273,40.7250350003647 -73.7719840003825,40.7252289998661 -73.7710580003449,40.7254849999108 -73.7702889999779,40.7256340002878 -73.769240999796,40.7259030000153 -73.7671829994182,40.7262640004074 -73.7662439995137,40.7264029997611 -73.7654570000612,40.7264740000058 -73.7650419999402,40.7264880002353 -73.7646999994898,40.7264790000794 -73.7644150001253,40.7264409996088 -73.7638969998946,40.726364000444 -73.762028000191,40.7261100003686 -73.7617899997941,40.7260830003784 -73.760818000218,40.7259619997516 -73.7620629997597,40.7259860001766 -73.7610509994752,40.7258170002558 -73.7604259999248,40.7257439995493 -73.7599369998256,40.7257220000111 -73.7597220001,40.7257189997117 -73.7591140004995,40.7257319998484 -73.7580629994801,40.7258620000828 -73.7575259999426,40.7259480000933 -73.7567100005955,40.7261789995872</coordinates></LinearRing></outerBoundaryIs></Polygon>
  </Placemark>
</Folder>
</Document></kml>
