<?xml version="1.0" encoding="utf-8" ?>
<kml xmlns="http://www.opengis.net/kml/2.2">
<Document id="root_doc">
<Schema name="shape" id="shape">
	<SimpleField name="District" type="string"></SimpleField>
	<SimpleField name="Code" type="string"></SimpleField>
</Schema>
<Folder><name>shape</name>
  <Placemark>
	<Style><LineStyle><color>ff0000ff</color></LineStyle><PolyStyle><fill>0</fill></PolyStyle></Style>
	<ExtendedData><SchemaData schemaUrl="#shape">
		<SimpleData name="District">New York 10</SimpleData>
		<SimpleData name="Code">NY-10</SimpleData>
	</SchemaData></ExtendedData>
      <MultiGeometry><Polygon><outerBoundaryIs><LinearRing><coordinates>-74.0441319999322,40.6885379998277 -74.0439580002159,40.6885669997302 -74.043941999632,40.6885690004421 -74.0436189994186,40.688760000445 -74.0434989995969,40.6891719998628 -74.0434550002529,40.6896300003626 -74.0438630001484,40.6901659999569 -74.0438849994533,40.6901850000874 -74.0445699996485,40.6905589996651 -74.045034000017,40.6907310003141 -74.0454270003085,40.6908949998116 -74.0459699996074,40.6911030002902 -74.045981999992,40.6911090000519 -74.0461130001399,40.6911249997991 -74.0461429997716,40.6911230000505 -74.0461640001892,40.6910980001222 -74.0461770001733,40.6910919997478 -74.0463090002195,40.6910900003767 -74.0464870001215,40.6910780002743 -74.0465359997294,40.6910759997061 -74.04696500031,40.6910510003924 -74.0470409995402,40.6910410004138 -74.047098999409,40.6910180002387 -74.0471490003698,40.6909850003019 -74.0471870000258,40.6909370002736 -74.0472069995721,40.6908930001012 -74.0472070005404,40.6908430000422 -74.0471959996001,40.6907950000598 -74.0471460002212,40.6907149996807 -74.0470479998333,40.6906269998479 -74.0470270004065,40.690588999664 -74.0470410000634,40.690483000098 -74.0471830000843,40.6904110003753 -74.0469220001227,40.6900960001892 -74.0469110002616,40.6900820001971 -74.046484999422,40.6895889999933 -74.0462479994287,40.6893190004408 -74.0453700000472,40.6888780003693 -74.0450739996752,40.6887350002019 -74.0447919998903,40.6885899999165 -74.0443489994168,40.6885079998411 -74.0441319999322,40.6885379998277</coordinates></LinearRing></outerBoundaryIs></Polygon><Polygon><outerBoundaryIs><LinearRing><coordinates>-74.0403760003543,40.7001120000233 -74.0404150000557,40.7001260000515 -74.0404599996406,40.7001489999014 -74.040527999675,40.7001759997097 -74.040611999667,40.7002010001381 -74.0406480001978,40.70021400044 -74.0406970003137,40.7002150004129 -74.0407300005376,40.7001930001876 -74.040747000515,40.7001669996386 -74.0407399995168,40.7001310001796 -74.0407019994163,40.7000710002674 -74.0406910002653,40.7000500000928 -74.0406840002129,40.699982999626 -74.0406740000897,40.6999619996442 -74.0406740004023,40.6999350002184 -74.0406629999139,40.6999070004113 -74.0406240003202,40.6998599995643 -74.0406149996345,40.6998280003752 -74.0406170000748,40.6998030003465 -74.0406119997152,40.6997660004433 -74.0406000001307,40.6997390003793 -74.0405529996979,40.6996800003288 -74.0405310000428,40.6996569998023 -74.0405119996109,40.6996270002589 -74.0404840001637,40.6995949998913 -74.0404700005605,40.6995579999491 -74.0404659994641,40.6995279998554 -74.0404670000361,40.6994930001695 -74.0404260005513,40.6994129997415 -74.0404020001946,40.6993930004125 -74.0403510004706,40.6993749999331 -74.0403160001874,40.6993649995827 -74.0402779999473,40.6993509997223 -74.0402110000215,40.6993149995625 -74.0401900005127,40.6992779999405 -74.040189999559,40.6992449999274 -74.040185999788,40.6992149998338 -74.0401579997233,40.6991970004204 -74.040070000429,40.6991719997365 -74.0399799996216,40.6991239998074 -74.0399480001611,40.6990979999485 -74.0398630000337,40.69904500035 -74.039816999696,40.699008999856 -74.0397959997222,40.6989769998854 -74.0397980004138,40.6989369997855 -74.0398239996516,40.6989110003523 -74.039867999676,40.698892999756 -74.0399100004374,40.6988830000968 -74.0399509996333,40.6988819997109 -74.0399860003712,40.6988870004476 -74.0400589997182,40.6989070001502 -74.0400959998762,40.6989340000682 -74.0401450000543,40.6988969996375 -74.0402150000713,40.6988540002492 -74.0402339995022,40.6988329999064 -74.04007800034,40.6987150001319 -74.039930999648,40.6985899996933 -74.0396699995157,40.6987749996186 -74.0396510000838,40.6987949999226 -74.0396319998786,40.698789999775 -74.0395849998375,40.6987899997234 -74.0395380002745,40.6987869998197 -74.0394880001305,40.698776999634 -74.039468999611,40.6987519996439 -74.0394379997814,40.698739000047 -74.0393759996159,40.6987309998449 -74.0393650000743,40.6987089995922 -74.0393409999153,40.6986840003153 -74.0393169999954,40.6986649998084 -74.0392849997863,40.6986320001394 -74.0392450004937,40.6986139997349 -74.0391679996599,40.6985950003902 -74.0391150003999,40.6985919999235 -74.0390609996306,40.698596999669 -74.0390060000198,40.6985939996168 -74.0389600001117,40.6985950003758 -74.0389250002715,40.6986070002129 -74.0388789998596,40.6986109998713 -74.0387799996037,40.698636000283 -74.0387440002371,40.6986370004483 -74.038712000008,40.6986539997027 -74.0386339994794,40.6986669998457 -74.0386030005931,40.6986769996821 -74.038623000446,40.6986980002466 -74.0386059999018,40.6987179999088 -74.0385689995763,40.698730000093 -74.038505000313,40.6987020000774 -74.0384529996135,40.6986809995948 -74.0384200001901,40.6986650003485 -74.0383720005384,40.6986690002673 -74.0383680001938,40.6986870001959 -74.0383799998884,40.6987139995936 -74.0383960000469,40.6987289996359 -74.0384549994324,40.6988250003065 -74.0384669995683,40.6988699996191 -74.0384589998816,40.6989809999093 -74.038466999718,40.6990169997217 -74.0384980000326,40.6990739998882 -74.0384940003796,40.6991150003741 -74.0385100000419,40.6991470003703 -74.0385329998701,40.6991719995935 -74.0385610001278,40.6991930001389 -74.0385980003913,40.6992100001797 -74.0386320004113,40.6992389997922 -74.0386639997643,40.6992630001222 -74.0386969995268,40.6992790002018 -74.0387230003582,40.6993020001638 -74.0387590004055,40.6993679999627 -74.0387720000331,40.6993980002734 -74.0387829995234,40.699406000442 -74.0387959998537,40.6994389996912 -74.0388019998491,40.6994870001889 -74.0388150005146,40.6995319996847 -74.038837999712,40.6995620003699 -74.0388799996515,40.6996020001557 -74.038893000574,40.6996249999437 -74.0389360001038,40.6996549995684 -74.0389899997119,40.6996620001213 -74.0390240002578,40.6996620003031 -74.0390749994865,40.6996680002165 -74.0391209994564,40.6996710000972 -74.0391630005404,40.6996769998429 -74.0392549998383,40.6996870001932 -74.0392870001324,40.6997079996206 -74.039381000581,40.6997500003655 -74.0394280003835,40.699762999791 -74.0394769996067,40.6997820001923 -74.0395109994862,40.6998160001719 -74.0395469997255,40.6998430000505 -74.0395859997404,40.6998529996786 -74.0396220002919,40.6998559999452 -74.0396649999832,40.6998730000093 -74.0397130005897,40.6999279999476 -74.0397449997911,40.6999500000851 -74.0398250003648,40.6999550004378 -74.0398590005452,40.6999659997707 -74.0399340001662,40.6999940004382 -74.0399939999373,40.700040999595 -74.0400219999883,40.7000609998382 -74.0400819999383,40.7000919998241 -74.0401210003192,40.70010100023 -74.0401530003933,40.7001030004526 -74.0401869995209,40.7001139996802 -74.0402489994491,40.7001169997198 -74.0403289998332,40.7001009999674 -74.0403760003543,40.7001120000233</coordinates></LinearRing></outerBoundaryIs></Polygon><Polygon><outerBoundaryIs><LinearRing><coordinates>-73.9626449994702,40.7227469997284 -73.9692929997003,40.7258120002772 -73.9713960001703,40.7266620004323 -73.9718569994868,40.7267590003134 -73.9719769998779,40.7268299999889 -73.9720499996829,40.7268810001867 -73.9732979994077,40.7274280003202 -73.9756960002067,40.7284749996443 -73.9780010001172,40.7294289999331 -73.9785359994291,40.7287459995574 -73.9789979997038,40.7281060003973 -73.9813249999569,40.7290860004334 -73.9808579997869,40.7297249998995 -73.983077000474,40.7306590001937 -73.9854439997735,40.7316579999892 -73.9849409999835,40.7323469997711 -73.9844409994495,40.7330330004052 -73.9835489994714,40.7342610002163 -73.9843470004491,40.7345980001312 -73.9847730004549,40.7340119996514 -73.9852420000078,40.7333719997173 -73.9855450002573,40.7334989997132 -73.9866790001224,40.7339779997079 -73.9869540002465,40.7336019997072 -73.9871799998806,40.733292000006 -73.987616000225,40.7334759995774 -73.9884020003262,40.7338069999596 -73.9887789998944,40.7339660002465 -73.9882859997958,40.7346589999619 -73.9899160003477,40.7353490002272 -73.9899329997322,40.7352749996039 -73.989945999734,40.7352010000102 -73.9899570004573,40.7350520002364 -73.9899499998248,40.73490199973 -73.9899029998955,40.7344349996365 -73.9907539996507,40.7348389996754 -73.9911979996907,40.7350109996779 -73.991715000124,40.7352150004433 -73.9912110000175,40.7358879997105 -73.9909290004571,40.7362840004524 -73.9907520002491,40.7365310002096 -73.9903310001534,40.7371319996608 -73.9922249997688,40.7379170003933 -73.9954460005033,40.739271999882 -73.9950180005354,40.7398600002711 -73.9978619996375,40.7410560001572 -73.9982869998288,40.7404700000554 -73.9987130003405,40.7398809999688 -73.9991849997425,40.7392430002374 -74.0007760005735,40.7399160001757 -74.0015749995814,40.7402560003515 -74.002018999607,40.7404440000834 -74.0015550004052,40.7410799995976 -74.0044159998167,40.7422840000888 -74.0072379995274,40.7434699998576 -74.0068109997836,40.7440609999749 -74.008259000305,40.7446740004051 -74.0083719998035,40.7439689999792 -74.0085170005794,40.7431739998101 -74.008699000071,40.7423620002172 -74.0088930000083,40.7423840002356 -74.0093310002321,40.7425719996186 -74.0172829995172,40.7441800002178 -74.0173979998351,40.7437060003078 -74.0178869994435,40.7416959998641 -74.0181360002363,40.7406670000805 -74.018398999529,40.7395939997421 -74.0191840004123,40.736366000037 -74.0193209994475,40.735806999605 -74.0194269994679,40.7353690002051 -74.0196070005325,40.7346300000555 -74.0200620005037,40.7327590004216 -74.0203869998814,40.7314250001817 -74.0206389995219,40.7303909998207 -74.0210000003161,40.7289050002035 -74.0210200001567,40.7288299996011 -74.0213109998238,40.7276239996662 -74.0213520002522,40.7274620003115 -74.0218319994442,40.7254870003183 -74.0218620005135,40.7253629998203 -74.0218899998682,40.7252509996498 -74.0220029995536,40.7247829995511 -74.022289000073,40.7236099996475 -74.0226990001655,40.7219229999184 -74.0230190001922,40.7206109999371 -74.0230659998286,40.7204140003432 -74.0236370005719,40.7180690000372 -74.0239809997546,40.7158389995683 -74.0241310002843,40.7148430003298 -74.0242710004817,40.7139400000068 -74.0243970001479,40.7131110001961 -74.0246790004972,40.711268999855 -74.0249520000363,40.7094739996796 -74.0251269994763,40.7083429996976 -74.0252939998145,40.707262000017 -74.0256759995929,40.7047639998731 -74.0261530004931,40.7016489997969 -74.0263900000939,40.700102999926 -74.0335529996443,40.6882569999646 -74.0354429997959,40.6851250001257 -74.0357899997471,40.6845500001625 -74.0374609999047,40.6817840002192 -74.0427689998957,40.6729959996334 -74.0434510003581,40.6718669996162 -74.0435190002309,40.6717540001561 -74.0458489999829,40.6678950002764 -74.0459709999508,40.667694000299 -74.0473320002934,40.6654399998625 -74.0479560001311,40.6644069997994 -74.0482480001425,40.6639229999976 -74.0489760004375,40.6627180001416 -74.0496309996749,40.6616340004266 -74.05066500041,40.6599220002329 -74.0507349996013,40.659807000143 -74.0512860000937,40.6588930001865 -74.0517240003683,40.6581680001296 -74.0530460005251,40.6559799996436 -74.0532290004166,40.6556570001268 -74.0326440002188,40.6438000000568 -74.0328659999914,40.6435870000392 -74.0334209999801,40.6439239996568 -74.0340729995663,40.6443120003786 -74.0345269998875,40.6438750001713 -74.0344440004243,40.6438250002909 -74.0346049999552,40.6436710003364 -74.0361199995522,40.642219000188 -74.0361869998555,40.6421999999642 -74.0362469996033,40.6421649996478 -74.0363490004315,40.6420819997442 -74.0364100000871,40.6420179999812 -74.0364849998021,40.64192200043 -74.0366620001735,40.6417570000103 -74.036743999568,40.6416719996307 -74.0367970004915,40.6415750001744 -74.0368019995688,40.6414780002799 -74.0367509996539,40.6414089995528 -74.0366599995713,40.6413479998636 -74.0365219998595,40.6412299996806 -74.036455999736,40.6411750000555 -74.0363370000703,40.6411099999698 -74.0362120003499,40.6410309998564 -74.0360869999829,40.6409689997417 -74.0359830003714,40.6409030002305 -74.035912999439,40.6408219995875 -74.0358469996101,40.6407819998452 -74.035787000309,40.640707000388 -74.0357620003315,40.6406629998969 -74.0357580002043,40.6406300004016 -74.0358070002764,40.6405839999274 -74.035864999555,40.6405339999786 -74.0359830003505,40.6403960003881 -74.0360200001724,40.6403499996319 -74.0360740003933,40.6402650001845 -74.0361369999423,40.6401869998443 -74.0362230001731,40.6400639997661 -74.036433000327,40.6397230000308 -74.0364769995868,40.6396500001744 -74.0365490004959,40.6395250002258 -74.0366100001874,40.6394279999891 -74.0366820000808,40.6393249998653 -74.036731000185,40.6392379999064 -74.0367609996398,40.6391890000936 -74.0367249998741,40.6391410001078 -74.0371399997097,40.6382880001769 -74.0367729995047,40.6383699996092 -74.0365460002247,40.6389119997476 -74.0365080004524,40.639011999854 -74.0364260005902,40.6389839997258 -74.0359579999883,40.6388209996807 -74.035588999861,40.6397629997947 -74.0343819999699,40.6393549999185 -74.0335020003829,40.6390889997356 -74.0316090002481,40.6385019997016 -74.0308909997763,40.6382790002064 -74.0301650004262,40.6380520004177 -74.0282789996215,40.6374680000035 -74.028657999828,40.6365460000929 -74.0278880005496,40.636309000085 -74.026039000444,40.6357410000242 -74.0235179996214,40.6346159997914 -74.0230349994449,40.6343949997237 -74.0212169999686,40.6335620001436 -74.0210120001481,40.6334689997371 -74.0197360001213,40.6328850003026 -74.0185299998241,40.6323340001345 -74.0184480001034,40.6322960003077 -74.0169559999647,40.6316220000206 -74.0166960001998,40.6314539999923 -74.0164580005666,40.6312969997963 -74.0162229994587,40.6311450001106 -74.0160480005615,40.6310329995759 -74.0149029997376,40.6303529995924 -74.0143230002625,40.6309110003698 -74.0121220002675,40.6295829996414 -74.0114279995962,40.6291619995757 -74.0107000004399,40.6296460003171 -74.0100039994248,40.6301130003126 -74.0087539998543,40.6293709996247 -74.0075030004246,40.6305759997983 -74.0052980005369,40.6292459999214 -74.0047179997007,40.6298040000636 -74.0025149999784,40.6284750003419 -74.0030989997974,40.6279159997862 -74.0008949997361,40.6265840001588 -74.000313999945,40.6271450002378 -73.9981169997763,40.6258160000147 -73.9972410003995,40.6252889997181 -73.9970169998117,40.6260619995994 -73.9968780001465,40.6265300003852 -73.9967879994419,40.6268260000344 -73.996702000366,40.6271719997184 -73.9965569994096,40.6276410000815 -73.9963360005303,40.6284449995667 -73.9961150000623,40.6292320001494 -73.9951610004407,40.6286560002251 -73.9939949997747,40.6297759995802 -73.9934129998121,40.6303359998327 -73.9928280003508,40.6308979996439 -73.9922460001526,40.6314560002402 -73.990044999824,40.6301269999006 -73.9894619998709,40.6306860002147 -73.9888790001492,40.6312470001151 -73.9882960001185,40.6318039998691 -73.9877129999309,40.6323659999701 -73.9871319998268,40.632927000218 -73.9853810003962,40.6346060001975 -73.9847969995615,40.6351649999209 -73.987002000585,40.6364960001587 -73.9858360003535,40.6376160003502 -73.9855400003063,40.6378979996425 -73.9852520001909,40.6381750002248 -73.9846720005462,40.6387349997598 -73.9840880003109,40.6392969997434 -73.9835019994752,40.6398569998907 -73.9831780003975,40.6401690000075 -73.9829210004584,40.6404159996436 -73.9832289994931,40.6406049997277 -73.9832919997229,40.641221000167 -73.9829939996382,40.6413249997032 -73.9824449999143,40.6415379996153 -73.9820430004509,40.6417080004157 -73.9812319996334,40.64204500011 -73.9815670001315,40.6425559995822 -73.9818889996161,40.6430249998336 -73.9806269994694,40.6435069998049 -73.9807789998904,40.6442539996011 -73.9809150001298,40.6449909998176 -73.9810560005125,40.6457520004202 -73.9811989998772,40.6464960003034 -73.9813279996192,40.6471819999403 -73.9802909996693,40.6472970001073 -73.9791179998208,40.6474280003793 -73.9781909997618,40.6475260000661 -73.977263000406,40.6476280003689 -73.9763359998548,40.6477280003512 -73.9751760001753,40.6478180002862 -73.9747309994241,40.6477729995652 -73.9747769996502,40.6479579999025 -73.97366799946,40.6483939998509 -73.9728360004496,40.6487240003173 -73.9726720002537,40.6484889995782 -73.9720309994805,40.6487429999367 -73.9715590000702,40.648822999924 -73.9713969998757,40.6482579998619 -73.9706929996497,40.6484969998336 -73.9696720003798,40.6488979996924 -73.9687930005786,40.6492489999891 -73.9679099997538,40.6495990001684 -73.9670279998399,40.6499479998442 -73.9661449994965,40.6502979999388 -73.9652619998199,40.6506419998387 -73.9646539994687,40.6508870002199 -73.9652420005829,40.6517420000406 -73.9657509997808,40.6525000002906 -73.9662130003659,40.6531889998037 -73.9641449997955,40.6539949998407 -73.9619000003862,40.6548710001323 -73.9624440000581,40.6583149996452 -73.9624619995869,40.6584249999181 -73.9628139996541,40.6605040001111 -73.9630770003778,40.6621300002047 -73.9630750003378,40.6621699999907 -73.9630519997229,40.6622980002946 -73.9630109996838,40.6624159997992 -73.9629500001951,40.6625300000288 -73.9628840000587,40.6626219996859 -73.9624289998427,40.6631249997501 -73.962894000051,40.6637979995952 -73.9692470003652,40.6727429997897 -73.9689240001259,40.67293799963 -73.9684530001879,40.6729599998517 -73.9679089994264,40.6729380001365 -73.9674859998611,40.6728780001758 -73.966819999418,40.6727640000293 -73.9662970004412,40.6726770003628 -73.9654919996887,40.6724590002593 -73.9649910001217,40.6722850000666 -73.9642069994192,40.6720239995991 -73.9636190003493,40.6718500002418 -73.9626219994145,40.6716289997649 -73.9626519998614,40.6718470000432 -73.9627539999542,40.672599999691 -73.9627879996473,40.6727730004061 -73.9629539998503,40.6735900001548 -73.9631369998818,40.6745730000717 -73.9661840000574,40.675212000376 -73.9666129996416,40.6753019995662 -73.9662960002414,40.6761799997909 -73.963331000165,40.675560999867 -73.9635289995249,40.6765470000684 -73.9637090005415,40.6775269998078 -73.9639010004032,40.6785169999626 -73.9640730005032,40.6793790001465 -73.9650669997255,40.6795859998799 -73.9679540001463,40.6801890004281 -73.9676779999412,40.6809549997911 -73.9674769997002,40.6817539998429 -73.968664000121,40.6819999998273 -73.9697800005003,40.6822349996615 -73.9706399995762,40.682414000323 -73.9717420005848,40.6826459997879 -73.971986999629,40.6839060000546 -73.9720570005262,40.6842610002773 -73.9720669999945,40.6843179996948 -73.9721130005683,40.6845689999839 -73.9722740003301,40.685442999654 -73.9728479997605,40.6856750001742 -73.9731189997765,40.6857809999344 -73.973249999574,40.6856530001787 -73.9733220003272,40.685620999988 -73.9742810001087,40.6855129996034 -73.9752510000902,40.6854049996992 -73.9762009995721,40.685293000056 -73.9770259996802,40.685195000387 -73.9773609994165,40.6869189997044 -73.9782080000129,40.686820000137 -73.9790569995172,40.6867129998509 -73.9793629995801,40.6866820002663 -73.9795899998663,40.6870040001323 -73.9798410001982,40.6873449997827 -73.9814000003308,40.6879450003478 -73.9808840001231,40.6886750002577 -73.981068000479,40.6889449996829 -73.9808699998707,40.6888660003111 -73.9813599998544,40.6899279996924 -73.9820790004573,40.6912919996208 -73.9817900005651,40.6916449995677 -73.9817410001684,40.692023000275 -73.982452000132,40.6920499999622 -73.9826499995664,40.6920579996683 -73.9834030002383,40.6920869995802 -73.9843409998579,40.6921209996683 -73.9852789999259,40.6921580000799 -73.9862720005278,40.6921950002182 -73.9872989994598,40.6922339998871 -73.9881999999181,40.6922659999878 -73.9887300004649,40.6923100004519 -73.98889300054,40.6923069996575 -73.9891759996403,40.6923010001152 -73.9894730000691,40.6922959998718 -73.9897829997494,40.6923479995503 -73.9909719994034,40.6925490004096 -73.9907280002063,40.6930479999165 -73.9904469998636,40.6937349999074 -73.990663000135,40.6945610003405 -73.9907459997925,40.6950339995977 -73.9900919998094,40.6950739999187 -73.9900400005047,40.6961229996222 -73.9900299999811,40.6963470004308 -73.989806000248,40.6995199997374 -73.9897510003802,40.7003859997783 -73.9901479995184,40.700680000198 -73.9901730005123,40.7007530003493 -73.9900279999173,40.7007510003006 -73.9897299994348,40.7007339997545 -73.9888270002503,40.700703999969 -73.9886839994343,40.7006989997052 -73.9877430003153,40.7006630002845 -73.9872400000135,40.7006430000448 -73.9870470002203,40.7006339998239 -73.9868790000904,40.7006219999589 -73.9867980002962,40.7006170000872 -73.9866010004663,40.7006210002038 -73.9867859995394,40.7010240003193 -73.9867840002651,40.7011199998028 -73.9867479997748,40.7015260001938 -73.9847609998243,40.7014389997834 -73.9828500001307,40.7013590002778 -73.9807290005795,40.7012680002691 -73.980649000363,40.7015610003765 -73.9805109995267,40.7020480003919 -73.9801410001239,40.7023859997402 -73.9803389998295,40.7026589999084 -73.9802240004427,40.7030630002582 -73.9799879998905,40.703540999937 -73.979603000543,40.7041769998495 -73.9794659995478,40.7044620000189 -73.9793280005254,40.7047460002502 -73.9791680002623,40.7052790002307 -73.9791710001334,40.705301000255 -73.9793719998262,40.7054430000937 -73.9792329994852,40.7057689996641 -73.9790690000921,40.7059630000517 -73.9754760003686,40.7074919996095 -73.9750199994276,40.7077359998624 -73.974554000396,40.7080790000305 -73.9744310004082,40.7081690000995 -73.974263999746,40.7082980004145 -73.9732430000107,40.7090440000766 -73.9730600003848,40.7091790000831 -73.9727889994535,40.7093780002504 -73.9723089998915,40.7090709997028 -73.9705730002378,40.7075549996757 -73.9703180002546,40.7073319995544 -73.9701409999923,40.7074069997763 -73.9696130000591,40.7076340002449 -73.9698449994965,40.7079879996953 -73.9698879997675,40.7087700002266 -73.9699409997953,40.7093099997494 -73.9696120001662,40.7101600000608 -73.9691280002283,40.7121440003833 -73.9690720005185,40.7123850001904 -73.9690499994698,40.7124819996652 -73.9688609996056,40.7126500003665 -73.9688189999667,40.7126859995612 -73.9684690005187,40.7129990001478 -73.9683699995251,40.7141269997148 -73.9680410004758,40.7149659998938 -73.9679989994482,40.7151059996809 -73.9677160003981,40.716039999799 -73.9675780005737,40.7164959999744 -73.9668359994441,40.7175639998993 -73.9665110004289,40.7179170002155 -73.9664769996867,40.717954999744 -73.9662490004301,40.7182050002631 -73.9661300001249,40.7183309996363 -73.9657040004143,40.7187789996337 -73.9655719996752,40.7189499998768 -73.9650860000296,40.7195809998834 -73.9646760000974,40.7201100002002 -73.9640379994996,40.7209389999901 -73.9637300005105,40.721339000424 -73.9635500001573,40.7215710004381 -73.9627870000351,40.7225620000316 -73.9626449994702,40.7227469997284</coordinates></LinearRing></outerBoundaryIs></Polygon></MultiGeometry>
  </Placemark>
</Folder>
</Document></kml>
