<?xml version="1.0" encoding="utf-8" ?>
<kml xmlns="http://www.opengis.net/kml/2.2">
<Document id="root_doc">
<Schema name="shape" id="shape">
	<SimpleField name="District" type="string"></SimpleField>
	<SimpleField name="Code" type="string"></SimpleField>
</Schema>
<Folder><name>shape</name>
  <Placemark>
	<Style><LineStyle><color>ff0000ff</color></LineStyle><PolyStyle><fill>0</fill></PolyStyle></Style>
	<ExtendedData><SchemaData schemaUrl="#shape">
		<SimpleData name="District">New York 7</SimpleData>
		<SimpleData name="Code">NY-7</SimpleData>
	</SchemaData></ExtendedData>
      <Polygon><outerBoundaryIs><LinearRing><coordinates>-73.9064679995268,40.7570820001576 -73.9073659994365,40.7569879998617 -73.9075280002835,40.7576889996439 -73.9075339995026,40.7580449997942 -73.9069150004693,40.7589009997616 -73.9064370003618,40.7596520003882 -73.9063150003012,40.7598439998664 -73.9069969998243,40.7601430002173 -73.9072919995823,40.7602809996858 -73.9074170004531,40.760339999877 -73.9077939997043,40.760517999548 -73.908591999447,40.7608900003458 -73.9093910001968,40.761264000444 -73.9102169998833,40.7602389996916 -73.9114899994402,40.7586930002128 -73.9122860000425,40.7590659998805 -73.9130870004164,40.7594379997858 -73.9138969994304,40.7598179998924 -73.914267000378,40.7593670002008 -73.9158059994935,40.7574730001418 -73.9166039997754,40.7578479995809 -73.9174039996431,40.7582239995831 -73.918203000332,40.7585999999912 -73.9189980002205,40.7589739998736 -73.9208649995562,40.7566779995948 -73.9216589998063,40.7570509998821 -73.9224599998094,40.757427000406 -73.9228320000129,40.757602000119 -73.923257999754,40.7578029998124 -73.9240540004295,40.7581759995961 -73.9253009996465,40.756629000019 -73.9261019994268,40.7570039997234 -73.924853999789,40.7585510003801 -73.9256540002799,40.7589220004164 -73.926452999414,40.7592959997993 -73.9272470001933,40.7596710002689 -73.9280510005147,40.7600479997448 -73.9288499999269,40.7604209997321 -73.9296509996035,40.760797999853 -73.9305480003391,40.7612229997724 -73.9294539997409,40.762366000258 -73.9300040001567,40.7626300002752 -73.9304670003536,40.76285199966 -73.9312259995534,40.7632160004197 -73.9313499999984,40.7632749997031 -73.9308670005556,40.763874000448 -73.9322490005206,40.7646390000465 -73.9327960004187,40.7649239998442 -73.9337079996833,40.7654130003385 -73.933796999584,40.7653110002144 -73.9341889995873,40.7654549998482 -73.9344759999286,40.7650030003289 -73.9346070000217,40.764798000058 -73.9354139994342,40.7634970001309 -73.9362560002357,40.7638939997737 -73.9370049995669,40.76423999959 -73.9377959994176,40.7646159998069 -73.9386030001006,40.7649209999286 -73.9394190004352,40.7652150004281 -73.9402719997414,40.7655300001639 -73.9396999995723,40.7664109996956 -73.9385900001767,40.7668170000795 -73.9404630000826,40.7675299998761 -73.9413119998931,40.7669179998104 -73.9415850002968,40.7666160003338 -73.9435029995061,40.7644989999758 -73.9447149997202,40.7628790000489 -73.9457050004238,40.7614880004036 -73.9458060000002,40.7614499996791 -73.9459639998171,40.7612929998649 -73.9478319994298,40.7589889997539 -73.9484450001671,40.7582180000231 -73.94914999998,40.757328999571 -73.9506629999555,40.7554359999421 -73.9507129999187,40.7553779999947 -73.9507349999825,40.7553520000081 -73.9507660003779,40.7553129998554 -73.950839999472,40.7552189997911 -73.9508770005399,40.755167000094 -73.9510180001586,40.7550869999792 -73.9513669995899,40.7545240003255 -73.9516250001051,40.7542490001733 -73.9517789995532,40.7540870002455 -73.9520810003211,40.7537569997431 -73.9521730004725,40.7537030000904 -73.9526570001225,40.753107000022 -73.9528490000804,40.7529399997031 -73.9530090002363,40.7527749995809 -73.9529720004148,40.7527469999966 -73.9536409997082,40.7520369997733 -73.9536789994609,40.7520470004154 -73.953802000158,40.7519579999941 -73.9539939999943,40.7517859998546 -73.9539400001782,40.7517460004394 -73.9543170003758,40.7512579996553 -73.9555320000577,40.7502160000263 -73.9560619994207,40.7497639999706 -73.9560880000735,40.7497689997123 -73.9561209999945,40.749759999735 -73.9562010002644,40.7496860004019 -73.9562000005648,40.7496709995687 -73.9561740001799,40.7496649999214 -73.9568420000439,40.7488279998041 -73.9575840004674,40.7479480003231 -73.9577319995427,40.747774999974 -73.958216000534,40.7472119996455 -73.958326999452,40.7470810004261 -73.9587109999408,40.7466350000794 -73.9591240001292,40.7461189997388 -73.9591930002788,40.7460349997029 -73.9597250001691,40.7452609999655 -73.9597779999685,40.7451780003054 -73.9602109994873,40.7445109996077 -73.9602669994588,40.7444279997139 -73.9605130003917,40.7441079999447 -73.9605629994444,40.744023999965 -73.9608330002462,40.7436390000932 -73.9611830001599,40.7430049999808 -73.9612910005211,40.7428940001063 -73.961381000272,40.7428019999435 -73.9616839998124,40.7415819998914 -73.9617960001295,40.7411309999832 -73.9619109995748,40.7409969999793 -73.96243500021,40.7396720002006 -73.9624410000162,40.7396400003616 -73.9626200005462,40.739033000222 -73.9626090002452,40.738804999872 -73.9624780002432,40.7368020000755 -73.9626290000997,40.736545000155 -73.9626720005639,40.7364460002453 -73.9626680002294,40.7364099999352 -73.9626650002358,40.7363340003758 -73.9626050000085,40.734901999733 -73.9623480000917,40.7338120003961 -73.9623379995085,40.7334510001822 -73.9623070005499,40.7331190002829 -73.9622879999798,40.7328990002106 -73.9622780000331,40.7328259996277 -73.9622680001726,40.7327689998269 -73.962261000589,40.7327409999314 -73.9622519996475,40.7327130000573 -73.9622290002736,40.7326490000217 -73.9619319997408,40.732679000016 -73.9618969999991,40.7324850002488 -73.9621479997299,40.7324520003744 -73.9619969997246,40.732038000211 -73.9618430005815,40.7316249998119 -73.9614500003086,40.7309940003565 -73.9613079996222,40.730298999794 -73.9612599995354,40.7297489998704 -73.9612139999934,40.7295080001737 -73.9611969999802,40.7294250001489 -73.9611370003247,40.729430000302 -73.9611149997753,40.7293610003137 -73.9610879995055,40.729255999929 -73.9610759994857,40.7291940003239 -73.9610799998888,40.7291479995997 -73.9610749997366,40.7291070004193 -73.961053999799,40.7289430001025 -73.9610440003931,40.7287820004206 -73.9609940003148,40.7287730004123 -73.9609859997975,40.7287600003766 -73.9609920001503,40.7286559996924 -73.961028000581,40.7285120004324 -73.9610399996938,40.7284899999291 -73.9610550001617,40.728471000128 -73.9610630005846,40.7284400002282 -73.9611070004259,40.7281950000292 -73.9612150002279,40.7281510001561 -73.9611570001232,40.7281140002449 -73.9611720005615,40.7280570001157 -73.9612830003859,40.7280380003823 -73.9613890002623,40.727524000183 -73.9614359994726,40.7272980003887 -73.9615009997402,40.7269860003734 -73.9615310001711,40.7259099998893 -73.9616110003511,40.7249510003272 -73.9616180000771,40.7248610004508 -73.9616059994432,40.7248360003447 -73.961550000537,40.7247220000025 -73.9615369996921,40.7246950000229 -73.9615380004945,40.7245839997316 -73.9615390003356,40.724401000312 -73.9615430002735,40.7238759996181 -73.9620140004027,40.7233689996249 -73.9626449994702,40.7227469997284 -73.9627870000351,40.7225620000316 -73.9635500001573,40.7215710004381 -73.9637300005105,40.721339000424 -73.9640379994996,40.7209389999901 -73.9646760000974,40.7201100002002 -73.9650860000296,40.7195809998834 -73.9652059996276,40.7194249998122 -73.9655719996752,40.7189499998768 -73.9657040004143,40.7187789996337 -73.9661300001249,40.7183309996363 -73.9662490004301,40.7182050002631 -73.9664769996867,40.717954999744 -73.9665110004289,40.7179170002155 -73.9666129998655,40.7178059995581 -73.9666710002276,40.7177430001662 -73.9668359994441,40.7175639998993 -73.9675780005737,40.7164959999744 -73.9677160003981,40.716039999799 -73.9679989994482,40.7151059996809 -73.9680410004758,40.7149659998938 -73.9683699995251,40.7141269997148 -73.9684690005187,40.7129990001478 -73.9688189999667,40.7126859995612 -73.9688609996056,40.7126500003665 -73.968894999503,40.7126199996015 -73.9689450000663,40.7125750003188 -73.9689929997093,40.7125330000777 -73.9690210005697,40.7125080003426 -73.9690499994698,40.7124819996652 -73.9690720005185,40.7123850001904 -73.9691280002283,40.7121440003833 -73.9696120001662,40.7101600000608 -73.9699409997953,40.7093099997494 -73.9698879997675,40.7087700002266 -73.9698449994965,40.7079879996953 -73.9696130000591,40.7076340002449 -73.9701409999923,40.7074069997763 -73.9702359998026,40.7073670001771 -73.9703180002546,40.7073319995544 -73.9705730002378,40.7075549996757 -73.9723089998915,40.7090709997028 -73.9727889994535,40.7093780002504 -73.9730600003848,40.7091790000831 -73.9732430000107,40.7090440000766 -73.974263999746,40.7082980004145 -73.9744310004082,40.7081690000995 -73.974554000396,40.7080790000305 -73.9748200000085,40.7078829996921 -73.9750199994276,40.7077359998624 -73.9754760003686,40.7074919996095 -73.9790690000921,40.7059630000517 -73.9792329994852,40.7057689996641 -73.9793719998262,40.7054430000937 -73.9791710001334,40.705301000255 -73.9791680002623,40.7052790002307 -73.9793280005254,40.7047460002502 -73.9794659995478,40.7044620000189 -73.979603000543,40.7041769998495 -73.9799879998905,40.703540999937 -73.9802240004427,40.7030630002582 -73.9803389998295,40.7026589999084 -73.9801410001239,40.7023859997402 -73.9805109995267,40.7020480003919 -73.980649000363,40.7015610003765 -73.9807290005795,40.7012680002691 -73.9828500001307,40.7013590002778 -73.9847609998243,40.7014389997834 -73.9867479997748,40.7015260001938 -73.9867840002651,40.7011199998028 -73.9867859995394,40.7010240003193 -73.9866010004663,40.7006210002038 -73.9867980002962,40.7006170000872 -73.9868790000904,40.7006219999589 -73.9870470002203,40.7006339998239 -73.9872400000135,40.7006430000448 -73.9877430003153,40.7006630002845 -73.9886839994343,40.7006989997052 -73.9888270002503,40.700703999969 -73.9897299994348,40.7007339997545 -73.9900279999173,40.7007510003006 -73.9901730005123,40.7007530003493 -73.9901479995184,40.700680000198 -73.9897510003802,40.7003859997783 -73.989806000248,40.6995199997374 -73.9900299999811,40.6963470004308 -73.9900400005047,40.6961229996222 -73.9900919998094,40.6950739999187 -73.9907459997925,40.6950339995977 -73.990663000135,40.6945610003405 -73.9904469998636,40.6937349999074 -73.9907280002063,40.6930479999165 -73.9909719994034,40.6925490004096 -73.9897829997494,40.6923479995503 -73.9894730000691,40.6922959998718 -73.9891759996403,40.6923010001152 -73.9890749994228,40.6923030002098 -73.98889300054,40.6923069996575 -73.9887300004649,40.6923100004519 -73.9881999999181,40.6922659999878 -73.9872989994598,40.6922339998871 -73.9862720005278,40.6921950002182 -73.9852789999259,40.6921580000799 -73.9843409998579,40.6921209996683 -73.9834030002383,40.6920869995802 -73.9826499995664,40.6920579996683 -73.982452000132,40.6920499999622 -73.9817410001684,40.692023000275 -73.9817900005651,40.6916449995677 -73.9820790004573,40.6912919996208 -73.9813599998544,40.6899279996924 -73.9808699998707,40.6888660003111 -73.981068000479,40.6889449996829 -73.9808840001231,40.6886750002577 -73.9814000003308,40.6879450003478 -73.9798410001982,40.6873449997827 -73.9795899998663,40.6870040001323 -73.9793629995801,40.6866820002663 -73.9790569995172,40.6867129998509 -73.9782080000129,40.686820000137 -73.9773609994165,40.6869189997044 -73.9765450001568,40.6869939998644 -73.9762059998095,40.6870250001962 -73.9755900004407,40.6870860004078 -73.9761019994456,40.6897370001005 -73.9751059997647,40.6896979995691 -73.9741090002433,40.6896630002549 -73.9732640003223,40.6896270003052 -73.9731259997796,40.6896220000812 -73.9721360003241,40.6895820003324 -73.9711419996118,40.689543999563 -73.970130999463,40.6895059998346 -73.9691029999298,40.6894679998003 -73.9680779995968,40.6894519999729 -73.9671149995385,40.6895610000655 -73.9661350002669,40.6896730000532 -73.9651880004794,40.6897820003164 -73.9642680001307,40.6898890000293 -73.9636510005344,40.6899599997998 -73.96347700053,40.6899800003617 -73.9633220001659,40.6899990001774 -73.9623920005888,40.6901059996159 -73.9622410000616,40.6901229998095 -73.9602929997628,40.6903459995519 -73.9594280005613,40.6904480004269 -73.9585780002699,40.690545999723 -73.9572720004828,40.6906939996288 -73.9563560005107,40.6908000002898 -73.9554100003022,40.6909079995556 -73.9544660004751,40.6910170001071 -73.9535660003091,40.6911210001956 -73.9539889999158,40.693205000314 -73.9543070002959,40.6947910001571 -73.9534140000037,40.6948930001943 -73.9524890002791,40.6950039997039 -73.9512449994754,40.695145000289 -73.9505050004705,40.6952300003005 -73.9492070002879,40.6953780001146 -73.946366000081,40.6957040000403 -73.945333000226,40.6958219999716 -73.9444459996487,40.6959239997368 -73.9435259994632,40.6960310002666 -73.9407049995103,40.6963539996895 -73.9388490001013,40.696568000094 -73.9377920005612,40.6966899998362 -73.9379550001003,40.6974229997886 -73.9380889999337,40.6980879997228 -73.9381769998407,40.6986410000295 -73.9377730002343,40.698404999582 -73.9373909996546,40.6981860001372 -73.9367599996177,40.6978309997182 -73.9363880003612,40.6976159996526 -73.9360060005338,40.6974059996042 -73.9352220004025,40.6969860004112 -73.9347970003785,40.6967370001958 -73.9341340005468,40.6963589995805 -73.9338279996077,40.6961840001133 -73.9331180001899,40.6957910000611 -73.9323659999171,40.6953579996194 -73.9319290004968,40.6951150000268 -73.931773000166,40.6950280003113 -73.9314579997956,40.6948550003487 -73.9311450001384,40.6946739996041 -73.9305119997323,40.6943169997774 -73.9297020003757,40.6938639998204 -73.9286419997173,40.6932410002887 -73.9285069998615,40.6931660002762 -73.9280429995819,40.6929040004114 -73.9278110001605,40.692774000178 -73.9275070005772,40.6926040004478 -73.9270710004874,40.6923459998353 -73.926450000407,40.6920020002244 -73.9263159995049,40.6919289996159 -73.9255599996111,40.6914909999038 -73.9253649997518,40.6913670000496 -73.9243920002386,40.6908309996464 -73.9242869996083,40.6907679996542 -73.9236440000932,40.6903990003146 -73.9231690001491,40.6901229998292 -73.9228070003215,40.6899239996894 -73.9220719998979,40.6894899998847 -73.9213059998533,40.6890720002824 -73.9212140001355,40.6890190003823 -73.920961000532,40.6888720001231 -73.9205500004232,40.6886409997848 -73.9198099994941,40.688210999843 -73.9190609997448,40.6877839999056 -73.9187830002067,40.6876260001468 -73.9182940000476,40.6873570003108 -73.9180460000819,40.6872129997974 -73.9176139998712,40.6869660003109 -73.9167980000153,40.6864970004204 -73.9166109995695,40.6863910003309 -73.9160460002993,40.6860720004015 -73.915826999587,40.685946999654 -73.915500999666,40.6857620003857 -73.9152900000385,40.6856450003507 -73.9147010003059,40.6853170003657 -73.914540000458,40.6852269999012 -73.9137979998315,40.6848000000983 -73.9133080003818,40.6845210000506 -73.9132380002237,40.6844820000795 -73.9130369996179,40.6843679997974 -73.9122729995784,40.6839349996047 -73.9115119994582,40.683504999947 -73.9107689997884,40.6830920001744 -73.9100669995079,40.6826839995635 -73.9092750002087,40.6822349998733 -73.9090549997294,40.6821049996441 -73.9088599994312,40.6819939999735 -73.9085170002135,40.6818039998695 -73.9077710003766,40.6813770000914 -73.9070179996035,40.6809479995929 -73.9067200004763,40.6807679998113 -73.906282000511,40.6805070001023 -73.9056590003612,40.6801409998029 -73.9054930002023,40.6800369995858 -73.9047910000237,40.6796410004339 -73.9045680001148,40.6795149999028 -73.9040460004202,40.6792200001431 -73.9034660005568,40.6788970000679 -73.9006270000849,40.6772650000577 -73.8999900004606,40.6768999997487 -73.9007919994755,40.6765720002028 -73.9006779997703,40.6757090000659 -73.9006640003805,40.6756009999487 -73.9006490002505,40.6754859997066 -73.9002279997885,40.6738490001391 -73.8993069995757,40.6739819995793 -73.8983869996981,40.6741209999569 -73.8974850003296,40.6742550003178 -73.8965090005599,40.6743970002356 -73.8954990004075,40.674551000132 -73.8945939995744,40.6746839996388 -73.8936700000955,40.6748219997653 -73.8927660001397,40.6749559998458 -73.8918600005264,40.6750909997033 -73.8909589999379,40.6752240000328 -73.8900559997157,40.6753570002126 -73.8891509996475,40.6754959998477 -73.8882560004769,40.6756250000713 -73.8873709995698,40.6757560003992 -73.8864819994036,40.6758880003365 -73.8856680004847,40.6760090000322 -73.8850740001911,40.6760960001878 -73.8848539999227,40.6761290003221 -73.8840399999151,40.6762500002107 -73.8832259994869,40.6763699998047 -73.8823309996456,40.6765009998022 -73.8814269998511,40.6766340001156 -73.8805049995479,40.6767659999103 -73.8795839998565,40.6769000001161 -73.8786620004092,40.6770330004203 -73.877739000074,40.677164999887 -73.8768170004879,40.6772979998325 -73.8758959997135,40.6774300003789 -73.874974999601,40.6775639997547 -73.8740349995212,40.6776990000794 -73.8732999996833,40.6778020001341 -73.8725869995774,40.677866000043 -73.8714810005158,40.6775010003127 -73.8713069999373,40.676804999624 -73.8709950001834,40.6755369997407 -73.8706789994762,40.6742690001874 -73.8703670002761,40.673011000278 -73.869446999955,40.6731429999439 -73.8685230002558,40.6732789996741 -73.8676029997774,40.6734109999218 -73.8666679996615,40.6735439995589 -73.8657550003941,40.673677999605 -73.8653239998346,40.6737380002104 -73.8649000002261,40.6738079998872 -73.8639190005909,40.6739419996109 -73.8629920005052,40.6740729996002 -73.8631010001099,40.6746479996288 -73.8617640001166,40.6742329995511 -73.8610769996927,40.6740210001975 -73.8607749994531,40.6728059998953 -73.8603890001115,40.6712689999669 -73.8594739999219,40.6713810004425 -73.8593909995493,40.671394000361 -73.8585550005383,40.6715330004118 -73.857633000523,40.6716560001888 -73.8573089994403,40.6704190002982 -73.8572820004913,40.6703119996713 -73.8563030004831,40.6704500003656 -73.8562709996659,40.6703340000311 -73.8553550000682,40.6704589995661 -73.8553369994178,40.6703939996687 -73.8544089999395,40.670584000417 -73.8533050004754,40.6707279996545 -73.8529690000316,40.6708080002025 -73.8511230005108,40.6710779998514 -73.8509649996019,40.6717200002496 -73.8516350001913,40.6719299997052 -73.8528379996627,40.6722790001069 -73.8518509998041,40.6724919996425 -73.8522530000118,40.6740269998617 -73.8512969999946,40.6741620001357 -73.8514730003189,40.6750630003854 -73.8504519996456,40.6748000003255 -73.8506480003022,40.6758510000089 -73.8509230001357,40.6764959999912 -73.8512299997326,40.6771239998133 -73.8515340000915,40.6777489997456 -73.850635999774,40.6778759996842 -73.8515949998689,40.6798330000363 -73.8506599996295,40.6798919999992 -73.850991000049,40.6805680001673 -73.8513180003245,40.6812400003121 -73.8516390005869,40.6818859999276 -73.8519789995235,40.6825640000169 -73.8511289998623,40.6828089997667 -73.8502840002853,40.6830490000853 -73.8494220002509,40.6832950000461 -73.8502479995088,40.6849770001853 -73.8493689996061,40.6852270002817 -73.8499469997722,40.6863999998922 -73.8500149995649,40.686536999546 -73.8505709998888,40.6876610004274 -73.8496610004746,40.6878309996762 -73.8489850003331,40.6880380004488 -73.8493980002983,40.6885209996999 -73.8492879996282,40.688690999851 -73.8482319994947,40.6889929996756 -73.847964999901,40.6884850001174 -73.8478839997528,40.6883229999317 -73.8470510003828,40.6885859998157 -73.8458849998403,40.6889130003471 -73.8459549994999,40.6890710002832 -73.8462539997442,40.6897079999978 -73.8474330004966,40.6893710001267 -73.8476899995688,40.6898890003845 -73.84650799941,40.690222000128 -73.8467720005731,40.6907629997067 -73.8468470005156,40.6909179996616 -73.8474859999891,40.6922180002086 -73.8483599997878,40.6919550002617 -73.8495619995828,40.6944220000984 -73.8491319999947,40.6945060002126 -73.8492910000773,40.6952039999806 -73.8494380003165,40.6958820000301 -73.8495910005507,40.6965620000399 -73.8515480002407,40.6963090004304 -73.8516989995329,40.6969839997055 -73.8518380002747,40.6976820004322 -73.8526639995062,40.6975720000763 -73.8526099998278,40.6978049999061 -73.8526080005741,40.6979599999439 -73.8526240000056,40.6981139996771 -73.852711000262,40.6984150003312 -73.8532859994938,40.6992870002841 -73.8537750000594,40.6999099997058 -73.8538339995513,40.6999589995852 -73.8544139994331,40.700442999698 -73.8544579997511,40.7004870002574 -73.8545659997425,40.7005940003864 -73.8547339998935,40.700784000387 -73.8549200004998,40.7009750002757 -73.8551340005403,40.7012650001022 -73.8552450001839,40.7014789999942 -73.8552919998001,40.7018439995777 -73.8552930005344,40.702596000169 -73.8561449995966,40.702686000421 -73.8570399997827,40.7027879996223 -73.8579530001174,40.702880000361 -73.8581120005837,40.7028950004437 -73.8581499995213,40.7028979995957 -73.8582879998029,40.7029109999206 -73.8585319996619,40.702949999898 -73.8587470005812,40.702974000079 -73.8599750004566,40.7031089998458 -73.8591440001945,40.7034850002202 -73.8596140003386,40.7040710001346 -73.8574310003628,40.70503499974 -73.8582149994864,40.7056019998819 -73.8571720003614,40.7059890002962 -73.8559400002007,40.7063949996313 -73.8566769997018,40.7076919996993 -73.858268000082,40.7075520002036 -73.859267000078,40.7074890000442 -73.860005999849,40.7073749997895 -73.8621619999035,40.7072640003064 -73.8622820001793,40.7073770002775 -73.8625750005105,40.7077490001266 -73.8630409997629,40.7083289999882 -73.863508000546,40.7089109995642 -73.8637790005767,40.7092509997637 -73.8639730000581,40.709491000176 -73.8640819996604,40.709621999628 -73.8644470004429,40.7100840001136 -73.8650100003809,40.7107770001537 -73.8620789999108,40.7122009998546 -73.8696360002275,40.7132979996155 -73.8716179997706,40.7132899997144 -73.8730290004006,40.7132600003857 -73.8735930003241,40.7132339996688 -73.8735389996849,40.7125089997632 -73.8734900000713,40.7118240000311 -73.8753890001681,40.711713000179 -73.8754299998286,40.7124160002552 -73.877543000364,40.712195000251 -73.8792149998827,40.7120260000077 -73.8793429998171,40.7127269995814 -73.8800330002989,40.7136540004389 -73.8822949996909,40.7134300000074 -73.8837220004185,40.7132829999429 -73.8842599999077,40.7133039997868 -73.8843509996218,40.712229999719 -73.8850760001447,40.7121609999179 -73.8863770001644,40.7122080003088 -73.8868790003477,40.7122230004127 -73.8885460002282,40.712274999843 -73.8887759999159,40.7122860002488 -73.8938059996353,40.7124340000543 -73.8940190002479,40.7124410003167 -73.8950249997467,40.7124780001104 -73.8959039996071,40.7125070002542 -73.8962190004387,40.71252199957 -73.8971030002757,40.7125580001172 -73.8976830002064,40.7125799999018 -73.8993550004665,40.7126469999401 -73.9001840004952,40.7126810002684 -73.9005959997731,40.7126970001186 -73.9022429995952,40.7127599997165 -73.9029350001467,40.7127860002176 -73.9037690005329,40.7128169999958 -73.9047719996538,40.7128660000021 -73.904894999889,40.7128570001115 -73.9053760001698,40.7128770003817 -73.9053859997848,40.7129219995839 -73.9054100005376,40.7130299996622 -73.9054389997206,40.7131619996744 -73.9055629997189,40.7137150000601 -73.905710000158,40.7143680002946 -73.9057599994249,40.7145880000324 -73.9073310002967,40.7153920001801 -73.9073750002437,40.7154149999513 -73.9075489999789,40.7155039999479 -73.9077720004188,40.7156070003524 -73.9083909997637,40.7162759996088 -73.9086410005269,40.7165449999058 -73.9097629999714,40.7177370001582 -73.9096599995629,40.7177930001585 -73.9107019998459,40.7189329999528 -73.9113209997843,40.7196239999358 -73.9118890005268,40.7202630001678 -73.9124599997102,40.7209309996422 -73.9129839997055,40.7216010003218 -73.9130979994357,40.7217370003713 -73.9132000003282,40.7218800003827 -73.9132890000161,40.7220280000866 -73.913313999838,40.7220769998972 -73.9133650001731,40.7221789996568 -73.913427000488,40.7223340004473 -73.9135579996067,40.7224630001651 -73.913672000203,40.722601000417 -73.9137700000809,40.7227469998972 -73.9138450003902,40.722897999639 -73.9131699999637,40.7230819999997 -73.9127080000414,40.7232850002286 -73.9125629994319,40.7232390001248 -73.9113450000421,40.7241819997527 -73.9088920000327,40.7260679998124 -73.9080469994688,40.7267339996252 -73.9074100003728,40.7272090001941 -73.9073000005814,40.7272930001174 -73.9071729996192,40.7273869995555 -73.9070699999762,40.7274660001018 -73.9069330000651,40.7275740000593 -73.9067300002376,40.7277330001403 -73.905684000128,40.7285499996794 -73.9055759997237,40.728634999701 -73.9051809996182,40.7289569996081 -73.904218000111,40.7301270000553 -73.9040229997426,40.7303650002226 -73.9025970000246,40.7321039997019 -73.9012980005572,40.7336399999203 -73.901230999815,40.7337199999277 -73.9010800001455,40.733908000053 -73.9010760004634,40.7339519995655 -73.9009549994711,40.7356340003407 -73.9009009996347,40.737036999784 -73.9008420005078,40.7384630001437 -73.9017850002418,40.7384879996765 -73.9018090003269,40.7385640004081 -73.9010930004821,40.7389149995909 -73.9008279997589,40.7390450003724 -73.9008190001529,40.7390870000968 -73.9008029997313,40.7391579996418 -73.901642000309,40.7387449997457 -73.902668999832,40.7384920003898 -73.902941000372,40.7384029996634 -73.9036580003206,40.7381419995698 -73.9036480000662,40.738217000408 -73.9036840000334,40.7382670002985 -73.9037319998684,40.7384489998586 -73.9037700000581,40.7385480000993 -73.9032609994434,40.7398819997829 -73.9037990001509,40.7399000003746 -73.9032290001396,40.74116299973 -73.9037270001983,40.7412319999324 -73.9046190003495,40.7413320003516 -73.9055040002956,40.7414340003266 -73.9063390001068,40.7415290003316 -73.9075560005796,40.7416589997646 -73.9083390000695,40.7417570000393 -73.9092899997933,40.7418670001867 -73.9101920004078,40.7419720003904 -73.9110880004473,40.7420779999239 -73.911987000146,40.7421889997281 -73.9129499995836,40.7423070003485 -73.9129199994723,40.7424129997644 -73.9128909996909,40.7424820002881 -73.912853000394,40.7425420004158 -73.9128050002213,40.7426589997482 -73.9137359998046,40.7427640004356 -73.9140090004434,40.7427950002028 -73.9149489997976,40.7429079995878 -73.9157589996092,40.742987000215 -73.9158779995049,40.7429980003537 -73.9158469994604,40.7431389995815 -73.9155880003588,40.7444639996627 -73.9155660002335,40.7445790004297 -73.9153069996876,40.7458640004342 -73.9152520001266,40.7461419996319 -73.9152320004753,40.7462460000342 -73.9143030005633,40.7461379996996 -73.9133729995522,40.7460310004151 -73.9128809995726,40.7484669996606 -73.9128530005378,40.7486050002769 -73.9128100002513,40.7488180003406 -73.9118880001834,40.748715000157 -73.9116420002964,40.7486850003655 -73.9117299995582,40.7484349997405 -73.9117650002931,40.7483570000433 -73.9118009998367,40.7482760000494 -73.9119299995795,40.7479880002013 -73.909919000266,40.7477639995876 -73.9095539995194,40.7473949998723 -73.9089010003328,40.7488280000297 -73.9080159995371,40.748590000135 -73.9078360002634,40.7489980000568 -73.9077040005778,40.7492970002908 -73.9083930003519,40.7499460004036 -73.9083189999386,40.7501190001002 -73.9075090002935,40.7497670002033 -73.9069999998468,40.7508530004284 -73.9061099999261,40.7506240001124 -73.9052500005166,40.7525650004127 -73.9060750002151,40.7529130000004 -73.9058639998375,40.7534040003823 -73.9058419998976,40.7534630002708 -73.9058309995448,40.7535249997395 -73.9058320003919,40.7535870003904 -73.9058449999574,40.7536479995672 -73.9051540002471,40.7548580003362 -73.9052939998506,40.7556279997213 -73.9061889996071,40.7555320000035 -73.9064679995268,40.7570820001576</coordinates></LinearRing></outerBoundaryIs></Polygon>
  </Placemark>
</Folder>
</Document></kml>
