{"type":"FeatureCollection", "features": [
{"type":"Feature","geometry":{"type":"Polygon","coordinates":[[[-73.90646799952677,40.75708200015764],[-73.90736599943645,40.75698799986168],[-73.90752800028353,40.757688999643946],[-73.90753399950258,40.75804499979424],[-73.90691500046934,40.75890099976158],[-73.90631500030116,40.75984399986641],[-73.90699699982427,40.760143000217326],[-73.90729199958227,40.7602809996858],[-73.90779399970431,40.76051799954804],[-73.908591999447,40.76089000034579],[-73.90939100019676,40.76126400044403],[-73.91021699988329,40.76023899969162],[-73.91148999944019,40.758693000212794],[-73.91228600004247,40.75906599988046],[-73.91308700041635,40.75943799978584],[-73.91389699943036,40.75981799989241],[-73.91426700037803,40.75936700020082],[-73.91580599949349,40.75747300014179],[-73.91740399964313,40.75822399958311],[-73.91899800022047,40.75897399987357],[-73.92086499955617,40.75667799959485],[-73.92245999980943,40.75742700040602],[-73.92325799975399,40.75780299981237],[-73.92405400042945,40.7581759995961],[-73.92530099964654,40.75662900001896],[-73.9261019994268,40.75700399972342],[-73.924853999789,40.758551000380095],[-73.92565400027988,40.75892200041636],[-73.92645299941401,40.759295999799335],[-73.92724700019333,40.759671000268945],[-73.9280510005147,40.76004799974482],[-73.92884999992687,40.76042099973214],[-73.92965099960351,40.760797999852976],[-73.93054800033906,40.761222999772436],[-73.92945399974093,40.762366000257984],[-73.93000400015673,40.76263000027524],[-73.93122599955342,40.76321600041965],[-73.93134999999837,40.76327499970312],[-73.93086700055558,40.763874000447956],[-73.93224900052056,40.764639000046465],[-73.93279600041868,40.76492399984419],[-73.93370799968335,40.76541300033852],[-73.93379699958403,40.76531100021438],[-73.93418899958732,40.765454999848224],[-73.93447599992855,40.76500300032893],[-73.93460700002173,40.76479800005802],[-73.93541399943423,40.76349700013088],[-73.93625600023566,40.76389399977371],[-73.93700499956692,40.76423999959003],[-73.9377959994176,40.76461599980686],[-73.9386030001006,40.764920999928556],[-73.93941900043517,40.76521500042814],[-73.94027199974136,40.76553000016392],[-73.93969999957233,40.76641099969557],[-73.93859000017675,40.76681700007947],[-73.94046300008263,40.767529999876125],[-73.94131199989314,40.76691799981038],[-73.9415850002968,40.76661600033376],[-73.94350299950614,40.76449899997579],[-73.94471499972023,40.76287900004891],[-73.94570500042383,40.76148800040362],[-73.94580600000025,40.76144999967912],[-73.94596399981714,40.761292999864864],[-73.94783199942982,40.75898899975387],[-73.94844500016711,40.75821800002311],[-73.94914999998002,40.75732899957098],[-73.9506629999555,40.75543599994209],[-73.95073499998254,40.755352000008074],[-73.95083999947201,40.75521899979108],[-73.95087700053988,40.755167000094026],[-73.95101800015864,40.75508699997916],[-73.95136699958992,40.75452400032546],[-73.95162500010511,40.75424900017328],[-73.95177899955323,40.75408700024546],[-73.95208100032114,40.75375699974313],[-73.95217300047253,40.75370300009043],[-73.95265700012247,40.753107000022034],[-73.95284900008036,40.75293999970307],[-73.95300900023628,40.75277499958086],[-73.9529720004148,40.75274699999655],[-73.95364099970824,40.75203699977332],[-73.95367899946086,40.752047000415416],[-73.95380200015802,40.751957999994076],[-73.95399399999432,40.7517859998546],[-73.95394000017822,40.7517460004394],[-73.95431700037575,40.75125799965526],[-73.95553200005767,40.75021600002635],[-73.95606199942068,40.7497639999706],[-73.95608800007348,40.74976899971234],[-73.95612099999451,40.74975999973501],[-73.95620100026436,40.749686000401894],[-73.95620000056479,40.74967099956869],[-73.9561740001799,40.74966499992142],[-73.9568420000439,40.74882799980415],[-73.95758400046736,40.7479480003231],[-73.95773199954266,40.747774999974034],[-73.95821600053398,40.747211999645494],[-73.95832699945198,40.74708100042612],[-73.95871099994082,40.74663500007941],[-73.95912400012915,40.746118999738826],[-73.95919300027884,40.74603499970294],[-73.95972500016909,40.74526099996546],[-73.95977799996854,40.74517800030536],[-73.96021099948734,40.744510999607705],[-73.9602669994588,40.744427999713906],[-73.96051300039173,40.744107999944745],[-73.96056299944438,40.74402399996502],[-73.96083300024617,40.74363900009322],[-73.96118300015992,40.74300499998083],[-73.96138100027198,40.742801999943474],[-73.96179600012952,40.74113099998324],[-73.96191099957478,40.740996999979316],[-73.96243500020995,40.739672000200606],[-73.96244100001617,40.739640000361625],[-73.96262000054618,40.73903300022199],[-73.96260900024517,40.73880499987198],[-73.9624780002432,40.73680200007546],[-73.9626290000997,40.73654500015496],[-73.96267200056386,40.73644600024532],[-73.96266500023584,40.73633400037577],[-73.96260500000852,40.73490199973299],[-73.96234800009168,40.73381200039613],[-73.96233799950853,40.733451000182214],[-73.96230700054993,40.73311900028293],[-73.96228799997984,40.73289900021058],[-73.96226800017257,40.73276899982686],[-73.96225199964749,40.73271300005725],[-73.96222900027364,40.73264900002165],[-73.9619319997408,40.73267900001599],[-73.96189699999914,40.73248500024875],[-73.96214799972986,40.73245200037441],[-73.96199699972459,40.732038000210956],[-73.96184300058145,40.731624999811885],[-73.96145000030856,40.730994000356496],[-73.9613079996222,40.730298999794044],[-73.96125999953543,40.729748999870445],[-73.96121399999342,40.72950800017374],[-73.96119699998025,40.72942500014886],[-73.96113700032473,40.72943000030199],[-73.96111499977535,40.729361000313666],[-73.96108799950551,40.72925599992897],[-73.96107599948566,40.72919400032392],[-73.9610799998888,40.729147999599725],[-73.96105399979902,40.72894300010252],[-73.96104400039313,40.728782000420644],[-73.96099400031478,40.72877300041226],[-73.96098599979754,40.72876000037658],[-73.9609920001503,40.72865599969243],[-73.96102800058098,40.72851200043242],[-73.96105500016166,40.728471000128],[-73.96106300058463,40.728440000228176],[-73.96110700042593,40.728195000029174],[-73.96121500022788,40.728151000156124],[-73.9611570001232,40.72811400024492],[-73.96117200056153,40.72805700011567],[-73.96128300038593,40.72803800038235],[-73.96138900026233,40.72752400018295],[-73.96150099974024,40.72698600037335],[-73.96153100017114,40.725909999889325],[-73.96161100035114,40.724951000327216],[-73.96161800007712,40.72486100045075],[-73.96153699969211,40.7246950000229],[-73.96154300027345,40.72387599961809],[-73.96201400040268,40.723368999624896],[-73.96264499947019,40.722746999728386],[-73.96278700003506,40.722562000031566],[-73.9635500001573,40.72157100043809],[-73.9637300005105,40.721339000423995],[-73.96467600009744,40.72011000020023],[-73.96508600002961,40.719580999883355],[-73.96570400041428,40.71877899963366],[-73.96613000012495,40.71833099963634],[-73.96624900043014,40.7182050002631],[-73.96651100042894,40.71791700021552],[-73.96683599944406,40.7175639998993],[-73.96757800057367,40.71649599997445],[-73.96799899944823,40.715105999680944],[-73.96804100047585,40.714965999893835],[-73.9683699995251,40.71412699971484],[-73.96846900051868,40.71299900014782],[-73.9688189999667,40.712685999561224],[-73.96904999946985,40.71248199966516],[-73.96912800022827,40.71214400038326],[-73.9696120001662,40.710160000060824],[-73.96994099979527,40.70930999974944],[-73.96988799976748,40.70877000022657],[-73.9698449994965,40.70798799969531],[-73.96961300005914,40.70763400024486],[-73.9701409999923,40.70740699977628],[-73.97031800025457,40.70733199955444],[-73.97057300023779,40.7075549996757],[-73.97230899989147,40.70907099970277],[-73.97278899945354,40.70937800025038],[-73.97324300001074,40.709044000076624],[-73.97426399974604,40.70829800041449],[-73.97443100040819,40.70816900009954],[-73.9750199994276,40.707735999862386],[-73.97547600036859,40.70749199960951],[-73.97906900009211,40.7059630000517],[-73.97923299948518,40.70576899966409],[-73.97937199982624,40.70544300009373],[-73.97917100013339,40.70530100025505],[-73.9791680002623,40.70527900023071],[-73.97932800052537,40.704746000250196],[-73.9794659995478,40.704462000018886],[-73.97960300054298,40.704176999849516],[-73.97998799989047,40.703540999936976],[-73.98022400044266,40.70306300025825],[-73.98033899982948,40.7026589999084],[-73.98014100012385,40.70238599974021],[-73.98051099952673,40.70204800039188],[-73.98064900036297,40.70156100037653],[-73.98072900057946,40.70126800026905],[-73.98285000013065,40.7013590002778],[-73.98476099982435,40.701438999783406],[-73.98674799977482,40.701526000193766],[-73.98678400026512,40.70111999980281],[-73.98678599953935,40.701024000319286],[-73.98660100046631,40.70062100020379],[-73.98679800029625,40.70061700008719],[-73.98704700022026,40.70063399982393],[-73.98724000001347,40.700643000044806],[-73.98774300031529,40.700663000284486],[-73.98868399943426,40.7006989997052],[-73.98972999943483,40.700733999754505],[-73.9900279999173,40.700751000300606],[-73.9901730005123,40.700753000349344],[-73.99014799951838,40.700680000198],[-73.98975100038022,40.70038599977829],[-73.98980600024795,40.69951999973737],[-73.99002999998108,40.69634700043083],[-73.99004000050473,40.69612299962217],[-73.99009199980942,40.69507399991875],[-73.99074599979251,40.69503399959775],[-73.99066300013503,40.69456100034051],[-73.99044699986355,40.69373499990742],[-73.99072800020632,40.69304799991654],[-73.99097199940336,40.69254900040961],[-73.98978299974942,40.69234799955027],[-73.9894730000691,40.692295999871824],[-73.98917599964032,40.69230100011524],[-73.9887300004649,40.69231000045189],[-73.98819999991808,40.692265999987775],[-73.98729899945982,40.69223399988707],[-73.98627200052783,40.6921950002182],[-73.98527899992591,40.692158000079885],[-73.98434099985789,40.69212099966826],[-73.98340300023827,40.692086999580184],[-73.98264999956643,40.69205799966828],[-73.98245200013204,40.692049999962215],[-73.98174100016843,40.69202300027495],[-73.98179000056511,40.69164499956766],[-73.98207900045726,40.69129199962081],[-73.98135999985436,40.68992799969237],[-73.98086999987072,40.68886600031109],[-73.98106800047897,40.68894499968293],[-73.98088400012314,40.68867500025772],[-73.98140000033075,40.68794500034775],[-73.97984100019816,40.687344999782695],[-73.97958999986632,40.687004000132326],[-73.97936299958008,40.68668200026625],[-73.97905699951723,40.68671299985089],[-73.97820800001294,40.68682000013703],[-73.97736099941655,40.6869189997044],[-73.97620599980951,40.68702500019615],[-73.9755900004407,40.6870860004078],[-73.97610199944558,40.68973700010046],[-73.97510599976471,40.68969799956914],[-73.9741090002433,40.68966300025487],[-73.97326400032233,40.68962700030518],[-73.97312599977957,40.68962200008123],[-73.97213600032407,40.689582000332415],[-73.97114199961182,40.68954399956297],[-73.97013099946297,40.68950599983462],[-73.96910299992977,40.68946799980035],[-73.9680779995968,40.68945199997288],[-73.96711499953848,40.68956100006547],[-73.96613500026689,40.68967300005316],[-73.96518800047942,40.68978200031636],[-73.96426800013074,40.68988900002933],[-73.96347700052999,40.68998000036168],[-73.96332200016587,40.689999000177394],[-73.96239200058879,40.69010599961587],[-73.96224100006155,40.69012299980951],[-73.96029299976283,40.69034599955187],[-73.95942800056126,40.69044800042694],[-73.95857800026988,40.690545999723035],[-73.95727200048282,40.69069399962882],[-73.95635600051068,40.69080000028982],[-73.95541000030221,40.69090799955561],[-73.95356600030912,40.69112100019564],[-73.9539889999158,40.693205000314016],[-73.95430700029587,40.69479100015713],[-73.95341400000369,40.69489300019435],[-73.95248900027912,40.69500399970391],[-73.95124499947542,40.69514500028902],[-73.95050500047053,40.69523000030054],[-73.94920700028794,40.69537800011457],[-73.94636600008097,40.69570400004031],[-73.94533300022596,40.695821999971635],[-73.94444599964868,40.69592399973681],[-73.94352599946319,40.696031000266586],[-73.94070499951026,40.696353999689464],[-73.9388490001013,40.696568000093954],[-73.93779200056117,40.69668999983617],[-73.93795500010027,40.69742299978861],[-73.93808899993367,40.69808799972284],[-73.93817699984075,40.69864100002948],[-73.93777300023432,40.69840499958198],[-73.93739099965461,40.69818600013725],[-73.93675999961766,40.69783099971825],[-73.93638800036125,40.697615999652605],[-73.93600600053382,40.697405999604214],[-73.93522200040248,40.696986000411236],[-73.93479700037845,40.6967370001958],[-73.93413400054678,40.69635899958054],[-73.93382799960773,40.69618400011333],[-73.93311800018985,40.69579100006111],[-73.93236599991707,40.695357999619425],[-73.93177300016599,40.69502800031133],[-73.93145799979558,40.6948550003487],[-73.93114500013837,40.694673999604085],[-73.93051199973229,40.6943169997774],[-73.92970200037571,40.69386399982044],[-73.92864199971734,40.69324100028868],[-73.92850699986147,40.69316600027625],[-73.9280429995819,40.69290400041135],[-73.92750700057722,40.69260400044776],[-73.92707100048744,40.692345999835304],[-73.92645000040704,40.69200200022438],[-73.92631599950494,40.69192899961594],[-73.92555999961114,40.6914909999038],[-73.92536499975179,40.69136700004962],[-73.9243920002386,40.69083099964642],[-73.92428699960834,40.69076799965423],[-73.92364400009318,40.69039900031462],[-73.92316900014906,40.69012299982923],[-73.9228070003215,40.689923999689434],[-73.92207199989787,40.68948999988473],[-73.92130599985327,40.68907200028242],[-73.920961000532,40.68887200012308],[-73.92055000042316,40.68864099978483],[-73.91980999949406,40.68821099984297],[-73.9190609997448,40.6877839999056],[-73.91878300020673,40.687626000146786],[-73.91829400004758,40.68735700031081],[-73.91804600008189,40.68721299979744],[-73.91761399987121,40.68696600031091],[-73.91679800001535,40.6864970004204],[-73.91604600029935,40.686072000401474],[-73.915500999666,40.685762000385694],[-73.91529000003847,40.68564500035071],[-73.91454000045798,40.68522699990119],[-73.91379799983154,40.6848000000983],[-73.91330800038183,40.684521000050616],[-73.91323800022369,40.684482000079505],[-73.91227299957845,40.683934999604716],[-73.91151199945821,40.68350499994704],[-73.91076899978844,40.68309200017436],[-73.91006699950788,40.68268399956347],[-73.90927500020867,40.68223499987328],[-73.90905499972942,40.6821049996441],[-73.9088599994312,40.68199399997345],[-73.9085170002135,40.681803999869466],[-73.90777100037657,40.681377000091416],[-73.90701799960354,40.680947999592895],[-73.90672000047631,40.68076799981125],[-73.90628200051098,40.68050700010234],[-73.90565900036123,40.680140999802916],[-73.90549300020227,40.68003699958578],[-73.9047910000237,40.679641000433904],[-73.90404600042022,40.679220000143054],[-73.90346600055682,40.67889700006794],[-73.90062700008488,40.67726500005767],[-73.89999000046065,40.67689999974874],[-73.90079199947547,40.67657200020281],[-73.90067799977034,40.675709000065936],[-73.90064900025048,40.675485999706616],[-73.90022799978851,40.67384900013907],[-73.8993069995757,40.67398199957928],[-73.89838699969812,40.67412099995687],[-73.8974850003296,40.67425500031779],[-73.89650900055994,40.674397000235594],[-73.89549900040747,40.67455100013205],[-73.89459399957435,40.67468399963884],[-73.89367000009548,40.67482199976526],[-73.89276600013967,40.67495599984583],[-73.89186000052644,40.6750909997033],[-73.89095899993794,40.67522400003276],[-73.8900559997157,40.67535700021259],[-73.88915099964751,40.675495999847655],[-73.88825600047686,40.675625000071285],[-73.88737099956982,40.67575600039917],[-73.88566800048469,40.676009000032195],[-73.88507400019105,40.676096000187826],[-73.88403999991506,40.67625000021074],[-73.8832259994869,40.676369999804685],[-73.88233099964557,40.676500999802194],[-73.88142699985114,40.676634000115556],[-73.88050499954794,40.67676599991027],[-73.87958399985652,40.67690000011613],[-73.87866200040916,40.67703300042027],[-73.87773900007397,40.67716499988705],[-73.87681700048795,40.6772979998325],[-73.87589599971352,40.67743000037887],[-73.87497499960101,40.67756399975465],[-73.87403499952121,40.67769900007939],[-73.87329999968331,40.67780200013407],[-73.8725869995774,40.677866000043004],[-73.87148100051584,40.67750100031268],[-73.8713069999373,40.67680499962397],[-73.8709950001834,40.67553699974068],[-73.87067899947616,40.67426900018738],[-73.87036700027615,40.67301100027796],[-73.86944699995504,40.67314299994386],[-73.86852300025583,40.67327899967413],[-73.8676029997774,40.67341099992183],[-73.86666799966146,40.673543999558945],[-73.86575500039413,40.67367799960502],[-73.86532399983459,40.67373800021044],[-73.86490000022609,40.67380799988719],[-73.86391900059094,40.673941999610854],[-73.86299200050522,40.67407299960016],[-73.86310100010992,40.67464799962884],[-73.8617640001166,40.67423299955112],[-73.86107699969268,40.674021000197534],[-73.86077499945306,40.67280599989527],[-73.86038900011154,40.671268999966884],[-73.85947399992195,40.671381000442544],[-73.85939099954933,40.67139400036097],[-73.85855500053833,40.671533000411785],[-73.857633000523,40.671656000188754],[-73.85730899944028,40.670419000298196],[-73.85728200049127,40.670311999671284],[-73.85630300048311,40.67045000036558],[-73.8562709996659,40.6703340000311],[-73.85535500006817,40.670458999566094],[-73.8553369994178,40.67039399966869],[-73.85440899993945,40.670584000416994],[-73.85330500047536,40.67072799965448],[-73.85296900003158,40.67080800020252],[-73.85112300051075,40.671077999851434],[-73.85096499960191,40.671720000249586],[-73.85163500019127,40.67192999970517],[-73.85283799966267,40.67227900010694],[-73.8518509998041,40.67249199964247],[-73.85225300001177,40.67402699986171],[-73.85129699999457,40.674162000135716],[-73.85147300031895,40.6750630003854],[-73.85045199964557,40.67480000032553],[-73.85064800030217,40.6758510000089],[-73.85092300013567,40.676495999991175],[-73.85122999973255,40.67712399981328],[-73.85153400009146,40.677748999745596],[-73.85063599977404,40.67787599968419],[-73.8515949998689,40.67983300003629],[-73.85065999962949,40.679891999999164],[-73.85099100004896,40.68056800016726],[-73.85131800032448,40.681240000312094],[-73.85163900058693,40.681885999927566],[-73.8519789995235,40.68256400001694],[-73.8511289998623,40.68280899976675],[-73.85028400028528,40.68304900008531],[-73.8494220002509,40.68329500004611],[-73.85024799950882,40.68497700018527],[-73.84936899960606,40.68522700028174],[-73.84994699977221,40.68639999989215],[-73.8500149995649,40.68653699954601],[-73.85057099988884,40.68766100042742],[-73.8496610004746,40.68783099967624],[-73.8489850003331,40.68803800044884],[-73.84939800029831,40.68852099969994],[-73.84928799962816,40.68869099985099],[-73.84823199949474,40.68899299967562],[-73.84796499990101,40.68848500011736],[-73.84788399975284,40.688322999931735],[-73.8470510003828,40.688585999815736],[-73.84588499984032,40.688913000347085],[-73.84595499949988,40.68907100028321],[-73.84625399974423,40.689707999997836],[-73.84743300049658,40.689371000126734],[-73.84768999956884,40.6898890003845],[-73.84650799941002,40.690222000128],[-73.84677200057311,40.69076299970674],[-73.84684700051555,40.690917999661636],[-73.84748599998912,40.69221800020863],[-73.8483599997878,40.69195500026168],[-73.84956199958279,40.69442200009844],[-73.84913199999468,40.694506000212606],[-73.84929100007729,40.69520399998056],[-73.84943800031654,40.69588200003012],[-73.84959100055075,40.696562000039926],[-73.85154800024065,40.696309000430375],[-73.8516989995329,40.696983999705495],[-73.85183800027468,40.69768200043218],[-73.85266399950619,40.69757200007631],[-73.85260999982779,40.6978049999061],[-73.85260800057411,40.69795999994393],[-73.85262400000565,40.69811399967708],[-73.85271100026203,40.69841500033121],[-73.85328599949382,40.6992870002841],[-73.85377500005936,40.69990999970582],[-73.85441399943312,40.700442999698],[-73.85456599974249,40.70059400038636],[-73.85473399989348,40.700784000386996],[-73.85492000049977,40.70097500027568],[-73.85513400054032,40.701265000102175],[-73.85524500018386,40.70147899999423],[-73.85529199980014,40.70184399957766],[-73.85529300053439,40.70259600016901],[-73.85614499959655,40.702686000420954],[-73.85703999978274,40.70278799962229],[-73.8579530001174,40.70288000036098],[-73.8582879998029,40.702910999920604],[-73.85853199966193,40.70294999989798],[-73.85874700058118,40.70297400007904],[-73.8599750004566,40.70310899984584],[-73.8591440001945,40.70348500022017],[-73.8596140003386,40.70407100013462],[-73.85743100036281,40.70503499973999],[-73.85821499948644,40.705601999881885],[-73.85717200036144,40.70598900029618],[-73.85594000020069,40.70639499963126],[-73.85667699970185,40.70769199969928],[-73.85826800008203,40.707552000203584],[-73.85926700007805,40.70748900004425],[-73.860005999849,40.70737499978946],[-73.86216199990346,40.70726400030643],[-73.86228200017929,40.70737700027754],[-73.86257500051046,40.70774900012661],[-73.86304099976292,40.708328999988154],[-73.86350800054603,40.70891099956418],[-73.86377900057668,40.7092509997637],[-73.86397300005807,40.709491000176044],[-73.86408199966044,40.709621999627984],[-73.8644470004429,40.710084000113575],[-73.86501000038092,40.71077700015373],[-73.86207899991085,40.71220099985464],[-73.86963600022753,40.71329799961553],[-73.87161799977062,40.71328999971438],[-73.8730290004006,40.71326000038573],[-73.87359300032406,40.71323399966879],[-73.87353899968487,40.71250899976317],[-73.87349000007126,40.71182400003107],[-73.87538900016807,40.71171300017901],[-73.87542999982863,40.712416000255224],[-73.87754300036404,40.71219500025095],[-73.87921499988268,40.71202600000769],[-73.87934299981713,40.71272699958141],[-73.88003300029891,40.71365400043885],[-73.8822949996909,40.71343000000736],[-73.88372200041849,40.71328299994287],[-73.88425999990771,40.713303999786824],[-73.88435099962182,40.712229999719],[-73.88507600014472,40.71216099991793],[-73.88637700016439,40.712208000308806],[-73.88687900034773,40.712223000412685],[-73.8885460002282,40.71227499984301],[-73.88877599991588,40.71228600024881],[-73.89380599963532,40.71243400005427],[-73.89401900024787,40.71244100031672],[-73.89502499974674,40.7124780001104],[-73.8959039996071,40.71250700025425],[-73.89621900043872,40.71252199956998],[-73.89710300027575,40.7125580001172],[-73.89768300020636,40.712579999901784],[-73.89935500046646,40.712646999940056],[-73.90018400049519,40.71268100026839],[-73.90059599977309,40.71269700011858],[-73.90224299959516,40.71275999971653],[-73.90376900053292,40.712816999995795],[-73.90477199965379,40.7128660000021],[-73.90489499988898,40.71285700011148],[-73.90537600016982,40.712877000381674],[-73.90543899972056,40.71316199967442],[-73.9055629997189,40.713715000060105],[-73.905710000158,40.714368000294634],[-73.90575999942494,40.71458800003239],[-73.90733100029668,40.71539200018006],[-73.90754899997889,40.71550399994786],[-73.90777200041883,40.71560700035238],[-73.90839099976371,40.716275999608776],[-73.90864100052691,40.71654499990583],[-73.90976299997138,40.71773700015821],[-73.90965999956295,40.71779300015854],[-73.91070199984591,40.718932999952834],[-73.91132099978427,40.719623999935756],[-73.91188900052681,40.72026300016778],[-73.91245999971022,40.72093099964223],[-73.91298399970555,40.72160100032177],[-73.91309799943566,40.72173700037128],[-73.91320000032819,40.72188000038269],[-73.9132890000161,40.72202800008659],[-73.9133650001731,40.7221789996568],[-73.91342700048796,40.72233400044732],[-73.91355799960672,40.72246300016513],[-73.91367200020295,40.722601000417],[-73.91377000008087,40.72274699989725],[-73.91384500039024,40.72289799963902],[-73.91316999996367,40.723081999999714],[-73.9127080000414,40.72328500022863],[-73.91256299943193,40.72323900012485],[-73.91134500004212,40.724181999752695],[-73.9088920000327,40.726067999812386],[-73.90804699946881,40.7267339996252],[-73.90741000037276,40.72720900019413],[-73.90730000058136,40.72729300011745],[-73.9071729996192,40.727386999555534],[-73.90706999997616,40.72746600010179],[-73.90673000023759,40.72773300014026],[-73.90568400012803,40.72854999967938],[-73.9055759997237,40.72863499970095],[-73.90518099961818,40.72895699960811],[-73.90421800011099,40.73012700005528],[-73.90402299974264,40.730365000222555],[-73.90259700002457,40.732103999701906],[-73.9012980005572,40.73363999992034],[-73.90123099981501,40.733719999927736],[-73.90108000014548,40.73390800005304],[-73.90107600046345,40.733951999565484],[-73.90095499947108,40.73563400034065],[-73.90090099963474,40.73703699978398],[-73.90084200050777,40.73846300014372],[-73.90178500024177,40.73848799967654],[-73.90180900032686,40.73856400040807],[-73.90082799975893,40.739045000372386],[-73.90080299973131,40.73915799964179],[-73.90164200030897,40.73874499974568],[-73.902668999832,40.73849200038978],[-73.90294100037204,40.73840299966342],[-73.90365800032063,40.73814199956979],[-73.90364800006616,40.73821700040798],[-73.90368400003338,40.738267000298485],[-73.90373199986837,40.73844899985857],[-73.90377000005812,40.73854800009931],[-73.90326099944339,40.73988199978288],[-73.9037990001509,40.739900000374575],[-73.90322900013963,40.74116299973],[-73.9037270001983,40.74123199993244],[-73.90461900034954,40.741332000351605],[-73.90550400029564,40.74143400032657],[-73.90633900010675,40.74152900033159],[-73.9075560005796,40.74165899976457],[-73.90833900006949,40.74175700003931],[-73.90928999979327,40.74186700018668],[-73.91019200040783,40.74197200039036],[-73.91108800044725,40.742077999923865],[-73.911987000146,40.74218899972808],[-73.91294999958357,40.742307000348504],[-73.9129199994723,40.74241299976442],[-73.91289099969086,40.74248200028809],[-73.91285300039404,40.74254200041583],[-73.91280500022127,40.7426589997482],[-73.91400900044336,40.74279500020278],[-73.91494899979762,40.74290799958782],[-73.91575899960922,40.742987000215],[-73.91587799950487,40.74299800035367],[-73.91584699946043,40.74313899958148],[-73.91558800035882,40.74446399966273],[-73.91556600023354,40.744579000429695],[-73.91530699968764,40.74586400043417],[-73.91523200047529,40.746246000034226],[-73.9143030005633,40.74613799969965],[-73.91337299955222,40.74603100041507],[-73.91281000025134,40.74881800034056],[-73.91188800018344,40.74871500015705],[-73.91164200029644,40.7486850003655],[-73.91172999955816,40.748434999740475],[-73.9119299995795,40.747988000201254],[-73.90991900026596,40.74776399958758],[-73.90955399951943,40.74739499987228],[-73.90890100033276,40.7488280000297],[-73.90801599953708,40.74859000013495],[-73.90770400057784,40.74929700029075],[-73.90839300035185,40.749946000403575],[-73.90831899993859,40.75011900010018],[-73.9075090002935,40.74976700020332],[-73.90699999984683,40.75085300042844],[-73.90610999992613,40.75062400011244],[-73.90525000051662,40.752565000412744],[-73.90607500021514,40.752913000000405],[-73.90586399983754,40.753404000382304],[-73.90584199989756,40.75346300027078],[-73.90583099954483,40.753524999739454],[-73.90583200039187,40.753587000390375],[-73.9058449999574,40.75364799956723],[-73.90515400024711,40.754858000336206],[-73.90529399985056,40.755627999721284],[-73.90618899960708,40.75553200000346],[-73.90646799952677,40.75708200015764]]]},"properties":{"District":"New York 7","Code":"NY-7"}}
]}