<?xml version="1.0" encoding="utf-8" ?>
<kml xmlns="http://www.opengis.net/kml/2.2">
<Document id="root_doc">
<Schema name="shape" id="shape">
	<SimpleField name="District" type="string"></SimpleField>
	<SimpleField name="Code" type="string"></SimpleField>
</Schema>
<Folder><name>shape</name>
  <Placemark>
	<Style><LineStyle><color>ff0000ff</color></LineStyle><PolyStyle><fill>0</fill></PolyStyle></Style>
	<ExtendedData><SchemaData schemaUrl="#shape">
		<SimpleData name="District">New York 25</SimpleData>
		<SimpleData name="Code">NY-25</SimpleData>
	</SchemaData></ExtendedData>
      <Polygon><outerBoundaryIs><LinearRing><coordinates>-77.3879949997945,43.6315430001953 -77.4997250001136,43.6320839995518 -77.5138959994978,43.6320249997961 -77.5153139998382,43.6320189998456 -77.5309689996603,43.6319540004155 -77.5395690000783,43.631917999777 -77.6016820001697,43.6316580002226 -77.696301999897,43.6312619998107 -77.7476219998973,43.6314209996777 -77.7497319995129,43.6314280001638 -77.8026410003057,43.6314779997512 -77.8747349998861,43.6314710003575 -77.9939819994958,43.63123399964 -77.9939500002263,43.625057999703 -77.9939569996193,43.5000580004103 -77.9940180000896,43.5000579998454 -77.9947770003219,43.3750580000936 -77.9955030003811,43.3662650001706 -77.9956060005959,43.3651320002955 -77.9956280001582,43.3645689995616 -77.9956229995511,43.3645259997671 -77.9955750003248,43.3638600001519 -77.9955279998027,43.3617199999993 -77.9954979995867,43.3611830002191 -77.9954879994875,43.3607940001122 -77.995493000002,43.3602930001147 -77.9954429994156,43.3588689997915 -77.9953049996635,43.3555449996177 -77.9953029995627,43.3555249996653 -77.9952509996766,43.351707000432 -77.9952530000991,43.3508390002361 -77.9952349996444,43.3502630001875 -77.9952360001876,43.3489279999366 -77.9952160000045,43.3483360001551 -77.9952119995033,43.3474270004302 -77.9952160002667,43.3466649997015 -77.9952130005875,43.3465600001667 -77.995194999699,43.3462050003396 -77.9951609997624,43.3433750003354 -77.9951609995601,43.3424359997832 -77.9951729994702,43.3400750004164 -77.9951779995496,43.3323540002373 -77.9952120000397,43.3289290003832 -77.9952120000071,43.3280729999931 -77.9952029999501,43.3264970001525 -77.9952389994857,43.3238750000778 -77.9952299999986,43.3231229998344 -77.9952299998184,43.3226780000775 -77.9952180000824,43.3222120000046 -77.9952130001155,43.3209740003364 -77.9952179996153,43.320756999915 -77.9952159995967,43.3206090002605 -77.9952369996792,43.3190930002927 -77.9952369994601,43.3156709999357 -77.9952430004554,43.315455999886 -77.9952630003378,43.3139919998974 -77.9954269998993,43.3019259998834 -77.9954450005171,43.3005839999985 -77.9954510003925,43.3003019999524 -77.9954660000369,43.2984629998156 -77.9954899999431,43.2977719996056 -77.9954859997627,43.2977020002907 -77.9954860003377,43.2972170002615 -77.9954909996772,43.2970179997311 -77.9955029996523,43.2960329997276 -77.9955529998361,43.2922180000434 -77.9956659997822,43.287458000128 -77.9956649995403,43.2874479996194 -77.9956980000895,43.2849629998258 -77.9960270003525,43.2746680000538 -77.9961779997521,43.2702719996797 -77.9962279996007,43.2688029998885 -77.9962949998292,43.2661809996559 -77.9963979997505,43.2611160003667 -77.9964839996799,43.2573179998461 -77.9965429995547,43.2547690003773 -77.9965579998698,43.2543839999958 -77.9965750000836,43.254176000321 -77.996624999689,43.2512199998704 -77.996632000425,43.2508670001192 -77.9966750002811,43.2454749996401 -77.9967030002413,43.2432039997802 -77.9967399997414,43.240707000328 -77.9967890003864,43.2360620000032 -77.9968169995601,43.231806999925 -77.9968379994925,43.2314069998843 -77.9968309996932,43.2312550004557 -77.9968569999929,43.2303750001129 -77.9968720000301,43.2272100000753 -77.9968910003536,43.2241300001898 -77.9968979998292,43.2227490001123 -77.9969220000946,43.2220760000909 -77.9969390004793,43.2216599999328 -77.996937999653,43.2213599997788 -77.9968689999146,43.2206449999438 -77.9968989994049,43.219520999601 -77.9969180002487,43.2180629999681 -77.9969100000021,43.2177650001999 -77.996932000275,43.2163439999334 -77.9969380005688,43.215618000361 -77.9969040006323,43.2149230003226 -77.9969339998029,43.2137089999862 -77.996964000259,43.2129350000947 -77.9969829997873,43.2093619999964 -77.9969830003417,43.2090419995968 -77.9970110005511,43.2059400002988 -77.9970249996889,43.2033420001392 -77.9970309999979,43.2028699999189 -77.9970800003208,43.2000359995426 -77.9970840001542,43.1995640002536 -77.9970739999349,43.1989250001101 -77.997053000485,43.1977140002246 -77.9971289995278,43.180759000458 -77.9971370002422,43.1761609997984 -77.9971340004275,43.1756950000975 -77.9971120004483,43.1637010003892 -77.9971030003903,43.1587389999213 -77.9970959999652,43.1575049996167 -77.9971030001642,43.1566929996654 -77.997097999415,43.1565209997239 -77.9968529994402,43.1490600004408 -77.9970990002252,43.1447160000814 -77.997161999681,43.1436149997896 -77.9972480001458,43.1365189995617 -77.9972899997509,43.1329809997784 -77.9888610003307,43.1331070001866 -77.9888000004805,43.1331070003693 -77.987324000548,43.1328379996574 -77.9873059995566,43.1328380000304 -77.9833580002255,43.1329799999034 -77.9818819999912,43.1330220004462 -77.9787240004838,43.1330429998282 -77.9772469997287,43.1330430003095 -77.9753110005405,43.1330169996757 -77.9743180005806,43.1329859999444 -77.9715629995706,43.132922999823 -77.9674380004162,43.1328559995845 -77.9667170001748,43.132844999673 -77.9622530004216,43.1328559995537 -77.9598750003094,43.1328639999313 -77.945180999444,43.1329219998383 -77.9393360001692,43.1329459999771 -77.921799000067,43.1332690003512 -77.914885000253,43.1333960000746 -77.9098050003347,43.1334900002113 -77.905934000564,43.1335610000077 -77.9078339994419,43.1299610000705 -77.9081220005245,43.1293350000695 -77.9092659998787,43.1268520002097 -77.9101749996225,43.1248940003199 -77.9125309999052,43.1198230001256 -77.9125339995281,43.1197609996519 -77.9150929994502,43.1145319999896 -77.9154179995289,43.1137469996989 -77.9170500003942,43.110356999825 -77.9174120000297,43.1095540002589 -77.9174940005138,43.1093780001794 -77.9204400001996,43.1030410000351 -77.9208939997758,43.1020629998819 -77.9211630002295,43.1015930002863 -77.9211649999031,43.1015700003433 -77.9212240003113,43.1014639998394 -77.9238240005988,43.0961020002923 -77.923851999669,43.0960530004499 -77.926549999709,43.0904340002851 -77.926684000375,43.0901400000577 -77.9285130003178,43.0862150003167 -77.9290040000921,43.0852060000409 -77.9300690004917,43.0830329996565 -77.9311670005954,43.0804209997299 -77.9313760003343,43.079965999976 -77.9341519994792,43.0742380000656 -77.9374949994054,43.0671840002439 -77.9389250002841,43.064070000023 -77.9463299996909,43.0492580001342 -77.9467989997883,43.0479060002493 -77.9469940000721,43.0473389998451 -77.9470199997399,43.0472869995738 -77.9472839997788,43.0467220002471 -77.9482329996037,43.0451610001173 -77.9510439999242,43.0395440002427 -77.942927000292,43.0390729999135 -77.9328680005799,43.0386129998074 -77.9257800002261,43.0382039998715 -77.9128689999638,43.0374599997887 -77.9086660001666,43.0372660000199 -77.9041209997082,43.0370560004508 -77.9047199993901,43.0324739996837 -77.904813999939,43.030932000027 -77.9048210001543,43.0304629997485 -77.9048209999482,43.0303110002047 -77.9048279995992,43.0299770003693 -77.9047969996985,43.0253499996472 -77.904799000552,43.0251689996433 -77.9045610005324,43.0234919995657 -77.9056630001967,43.0234910002491 -77.9057070004954,43.0230589996024 -77.9073639997401,43.0064469998585 -77.9073819997022,43.005978999666 -77.9075400004994,43.0028590003091 -77.907991000153,43.0022509995642 -77.9094139998875,43.0025199999708 -77.9094209996467,43.0022349999473 -77.9096280002559,42.9946630000756 -77.909631999717,42.9945240002225 -77.9096319995551,42.9942620002199 -77.9097479993973,42.9904969999659 -77.9098319998146,42.9877620003382 -77.9078959998829,42.9877809995676 -77.9020890004904,42.9878419996899 -77.9001930004199,42.9878619998671 -77.8957890000201,42.9878620003627 -77.8826949994352,42.9878619996997 -77.8783309995107,42.9878620003832 -77.8747530003128,42.9878619997915 -77.8683289995526,42.9878619996222 -77.8623659999595,42.987862000093 -77.8622129996631,42.9878739998004 -77.8602389995558,42.9879629999601 -77.8598660004779,42.9879619999111 -77.8590299999103,42.987962000332 -77.8584380002575,42.9878690003338 -77.8579089994758,42.9878739998447 -77.8560469997259,42.9878949996297 -77.8554269997888,42.9879030002558 -77.8551409995898,42.9879049999893 -77.8540010001517,42.9879190004302 -77.8524729994661,42.9879359997605 -77.8478910002152,42.9879909995836 -77.8463640004249,42.9880100001442 -77.8459010000483,42.9880090000246 -77.8454099997691,42.9880100002818 -77.8425510001867,42.9880219998491 -77.841714999566,42.9880260001512 -77.8415989997249,42.9880290003215 -77.8389490003803,42.9880799998741 -77.8380620003939,42.9880980002958 -77.8340079994037,42.9880699997881 -77.8309999999984,42.9880759998551 -77.8283509999292,42.988083000099 -77.8280930000078,42.9880770001437 -77.8252850003908,42.9880610000564 -77.8245830004564,42.9880579997533 -77.8241229996501,42.9880600004478 -77.8217930005082,42.9880740000639 -77.8198160003864,42.9880890001237 -77.8181909996683,42.9880970000292 -77.8133190000664,42.9881250002438 -77.8116949994438,42.9881350000109 -77.8107379995241,42.9881400003627 -77.8078699999067,42.9881559997722 -77.8069140001116,42.9881619997263 -77.8038649994468,42.98815800007 -77.7996550005435,42.988154000042 -77.7947190004927,42.9881559996856 -77.7916699996024,42.9881549996524 -77.7876600002076,42.9881889997663 -77.775630999713,42.9882949995936 -77.7716460005607,42.9883299997492 -77.7659299998296,42.9883559997363 -77.7488539997273,42.9884360000013 -77.7431629996274,42.9884630003417 -77.7391979996083,42.988430999583 -77.7386590002063,42.9884270004408 -77.7382069997977,42.9884209997045 -77.7367700003018,42.9884099997938 -77.7331090002076,42.9883839997464 -77.7324600004513,42.9883789999187 -77.7311260000086,42.9883700001325 -77.7309569994115,42.9883719996434 -77.731319000518,42.9878759998469 -77.7315529996342,42.9870319995651 -77.7318419995895,42.9848539998647 -77.7318749997918,42.9845530001839 -77.7319399996644,42.9845599999977 -77.7323189996514,42.9833250001024 -77.7329409999085,42.9819120000986 -77.732456999404,42.9813410000492 -77.7314740001364,42.9807519995717 -77.7298150005429,42.9803979997528 -77.7277340004803,42.9799689995902 -77.7249419994735,42.9794230000566 -77.7247549998277,42.9794360001722 -77.7227399999709,42.9795710004376 -77.7216349994489,42.9794649997116 -77.7207479994336,42.9791929996571 -77.7198659998967,42.9780929997684 -77.7193519996038,42.9772690001417 -77.7190779995312,42.9765539999077 -77.7184969999493,42.9752550004371 -77.7181499994747,42.9744400000959 -77.7178280001278,42.9733650002883 -77.7178839999955,42.9726159998388 -77.7182709994093,42.9721079998922 -77.7188370001644,42.9714409995718 -77.7199249998191,42.9712170004033 -77.7212320001947,42.9716650001851 -77.7224489996771,42.972095999986 -77.7234089998845,42.9722079996579 -77.7243280006059,42.971747999766 -77.7245860001276,42.97129300027 -77.7245299998103,42.9708389996251 -77.7245059997692,42.9698940000729 -77.7246430001821,42.9691739996538 -77.7250940000117,42.9680409996816 -77.7257639995651,42.9669370003732 -77.7261989995275,42.965967999798 -77.726198999821,42.9654310003423 -77.725828000326,42.9642449995535 -77.7255540005939,42.9635889997401 -77.7250320001325,42.9592229996839 -77.7253520001013,42.9582220003053 -77.7257470002292,42.9573070003823 -77.7261590002121,42.9566519998458 -77.7269799996671,42.9554710000541 -77.7276820002853,42.9541779996007 -77.7284070004746,42.9530330001591 -77.7291249998072,42.9531750003218 -77.7295959996491,42.953786000419 -77.7299039995492,42.9546759999021 -77.7303020005277,42.9550919997425 -77.7325680005713,42.955930999732 -77.7330039997167,42.9559069999088 -77.7338909994455,42.9556120003786 -77.7344690006002,42.9547709996773 -77.7344109995187,42.954720000351 -77.73367399993,42.9532969996293 -77.7331280001323,42.9511750001612 -77.7329030002302,42.9507039998945 -77.7323509996951,42.9499689996656 -77.7316609995665,42.949087000379 -77.7309070003348,42.9484169995737 -77.7308579997137,42.9480230002803 -77.7311810005491,42.9469009996126 -77.7316709998293,42.946077999934 -77.7323779994571,42.9452849995714 -77.7331239994312,42.9451859995876 -77.7337499994692,42.9452800002258 -77.7345770004823,42.9461450003081 -77.735225999844,42.9467799997555 -77.7375539997252,42.947869000038 -77.7384929999019,42.9477400000898 -77.7399870003611,42.9462949997025 -77.7404289999959,42.9459010001371 -77.7412399995985,42.9452309996474 -77.7426460001807,42.9447440001486 -77.7446369999428,42.9448049996824 -77.7454239999011,42.9445410002264 -77.7463709997737,42.9440719996124 -77.747720000512,42.9441310000693 -77.7501900000152,42.9443640001546 -77.7520059994456,42.9453259998159 -77.7525449995951,42.9456399999757 -77.753183999452,42.9456480004326 -77.754634000507,42.9449120002382 -77.7554659999558,42.9444159999899 -77.7568000000903,42.9444440001389 -77.7584490000478,42.9445359999663 -77.7594180000882,42.9444910002057 -77.7603900002787,42.9437839998639 -77.7605690000119,42.9434130003992 -77.7605989999229,42.9431870002942 -77.7606430005367,42.9430840002672 -77.7607359995843,42.9429980002511 -77.7606150002818,42.9425730000661 -77.7590519998794,42.9404620004058 -77.7587269996552,42.9404610003951 -77.7585949995007,42.9404629997809 -77.7564230002292,42.9404550000601 -77.7505410005559,42.9404300004359 -77.7501550000013,42.9404299998097 -77.7497919999564,42.940427000259 -77.7467099994404,42.9404130004087 -77.7374650004159,42.9403709999978 -77.7343839997308,42.9403579995934 -77.7341100003973,42.9403589996703 -77.7225580004746,42.9403170000338 -77.7219910002077,42.9403119995974 -77.7213379999393,42.940303999861 -77.7186980000708,42.9402920002838 -77.7183690003852,42.9402899998781 -77.7133620005821,42.9402669997213 -77.7132410003886,42.9402659997334 -77.7116859999039,42.9402630003263 -77.7090539997239,42.9402629998791 -77.7090310002351,42.940264000194 -77.7003170005245,42.9402620000073 -77.6920240004795,42.940262000024 -77.6915239994434,42.9401610002828 -77.6912239998268,42.9402629998734 -77.691098999557,42.9402620002976 -77.6821079996802,42.9402189998002 -77.6708149996736,42.9401670002515 -77.6702559999978,42.9401650003461 -77.6664850005892,42.9400639998711 -77.6659910006151,42.9400580002949 -77.6659750005528,42.9400620001886 -77.665582999647,42.9400609999128 -77.662736000521,42.9400589996576 -77.6541980005857,42.9400549995611 -77.6513520003341,42.9400539997983 -77.6509759996672,42.9400610004266 -77.6504499996316,42.9400569997583 -77.6481759997771,42.9400430003962 -77.6396519994769,42.9399790002066 -77.6375219995337,42.9399639996472 -77.6350219996244,42.9444639996463 -77.6325569997197,42.9444060000514 -77.6251639999183,42.9442359996406 -77.6247670003139,42.944226999707 -77.6225839997233,42.9441799996633 -77.6224039999222,42.9441710003539 -77.6218849996083,42.9441620002417 -77.6180420005952,42.9441640003942 -77.6119620005523,42.9441569998006 -77.6073209999689,42.9440640002679 -77.5995209999246,42.9440639998916 -77.5982960000508,42.9440679999379 -77.5946239995525,42.9440839998023 -77.5934000003158,42.9440889997842 -77.5927720004962,42.9440830002221 -77.590261999577,42.9440619999322 -77.5899210004695,42.9440640001224 -77.5898509998837,42.9440670004276 -77.588029999406,42.9440669996524 -77.5879160005351,42.9440629999582 -77.5872329999433,42.9440639995782 -77.5868679999897,42.9440509997919 -77.5868250001063,42.9440460003656 -77.5857409999342,42.944028999604 -77.581176999641,42.9439630002425 -77.5802050006098,42.9439649999484 -77.5739590005301,42.9439930001549 -77.5729340002025,42.9439850000446 -77.5711520002575,42.9439720003584 -77.5694669999632,42.9439590003056 -77.56798799999,42.9439469998029 -77.5668619999951,42.9439389999937 -77.5657200005072,42.9439299999487 -77.5643419997921,42.9439200001187 -77.5633829998667,42.9439110002835 -77.5624380003812,42.9439049996612 -77.560383000137,42.9438889998061 -77.5583569994316,42.9438749995902 -77.5578689995004,42.9438680002694 -77.5576800001778,42.9438709996269 -77.5573430000406,42.9438720000442 -77.5569009997693,42.9438679995857 -77.5566129998467,42.9438620001688 -77.5565600004198,42.9438729995449 -77.5563279998619,42.9438670004488 -77.5557710003867,42.9438680001561 -77.5540540001728,42.9438630001047 -77.5526329997092,42.9438449999865 -77.5491619995436,42.9438020002683 -77.5480050002447,42.9437879995493 -77.5465570003047,42.9437669999215 -77.5463479999276,42.9437679999416 -77.5383649997096,42.9436579997866 -77.53255499968,42.9436589998547 -77.5296159997328,42.9436420003525 -77.5245649999177,42.9436119998935 -77.5219570000937,42.943595000026 -77.5204200003404,42.9435839998422 -77.5193850001802,42.9435779996349 -77.5190680004359,42.94357499973 -77.5186949995846,42.943577000314 -77.5181039996548,42.9435699997964 -77.5180739999466,42.9435869997729 -77.5175550001603,42.9435610004001 -77.5174550004069,42.9435630002114 -77.5091310005949,42.9434749998191 -77.5070509997699,42.9434540000555 -77.50662500026,42.9434559997968 -77.5000170005326,42.9433800000397 -77.4983649997147,42.9433619999982 -77.4951950005283,42.9433219997927 -77.4921789997987,42.9432849996944 -77.4890349999925,42.9432449996173 -77.4856859997953,42.9432030002415 -77.4825169999634,42.9431639996675 -77.4794280001814,42.9432109997733 -77.4786559996863,42.9432239998649 -77.4786010000462,42.941552000235 -77.4784719993885,42.9376179996591 -77.4782999999995,42.9365510002842 -77.4780350001471,42.9349010003598 -77.4780270000341,42.9343530003492 -77.4780069996432,42.9328669995717 -77.4780460003812,42.9321629999688 -77.4780819994636,42.931174999652 -77.4780920000386,42.9309290003419 -77.478086999827,42.9304839996679 -77.4780799997524,42.9296020004492 -77.478025999798,42.9287100002324 -77.4779170001654,42.9256859995569 -77.4778410000577,42.9236190000784 -77.4774440000234,42.9127600001017 -77.477376000507,42.9083440001552 -77.4773420004499,42.9060470002368 -77.4772770000118,42.9032510001795 -77.4771490000743,42.9032390003889 -77.4753430000415,42.9030259997343 -77.4722280000396,42.9026590000726 -77.4708030005553,42.902468999779 -77.4693920003595,42.9022629997868 -77.4679350003273,42.9020339997592 -77.4676319996046,42.9019770003222 -77.4664560001883,42.9017509999143 -77.4650109999577,42.9014880004148 -77.4581939995527,42.9002139998389 -77.4569030004638,42.899965000059 -77.4554379999344,42.8996959999709 -77.4541339995067,42.8994470001999 -77.4527419999452,42.89917900014 -77.4501520003788,42.8986830003304 -77.4485780002625,42.8983259998718 -77.4471960004214,42.8980139996203 -77.445120999556,42.8975380000232 -77.444603000517,42.8974199997407 -77.4444940004175,42.8978370002903 -77.4441900004191,42.8977120000462 -77.4437259999353,42.8974680001282 -77.4434620005592,42.8973799999927 -77.4432639998964,42.8973470003927 -77.4431170001046,42.8973409996259 -77.4426710002789,42.897347000359 -77.440888999747,42.8973749998365 -77.4380380004597,42.8973960001322 -77.4373259999654,42.8974020000056 -77.4366970005786,42.897413999742 -77.4347290002675,42.8974189997162 -77.433913999688,42.8974379999446 -77.4335310000865,42.8974499996396 -77.4333610002753,42.897460999925 -77.4328059995229,42.8975120001073 -77.4326260002543,42.8975299996148 -77.4322910001018,42.8975949998021 -77.4319840005044,42.8976859999714 -77.4309320003672,42.8980749996987 -77.4305149998151,42.8982309999028 -77.4299079998768,42.8984499998225 -77.4295789995022,42.8985700001013 -77.4280950000752,42.8991210000298 -77.4274919994273,42.8993480001528 -77.4272240001975,42.899446999981 -77.4261539998396,42.8998459996598 -77.4254829997093,42.9001120002578 -77.4249000004558,42.9003320001467 -77.4241379996183,42.9006210004256 -77.4234590002529,42.9008910000263 -77.4227210000634,42.9011630004175 -77.4211350002409,42.9017809997238 -77.4209719996576,42.9018449996373 -77.4198780004789,42.9022579995704 -77.4193719998931,42.9024539995752 -77.4183400001644,42.9028520002552 -77.4179970003208,42.902985999747 -77.4166880006058,42.9034929999265 -77.4156350002071,42.9038899997711 -77.4150440000736,42.9041140003141 -77.4139850000359,42.9045180001796 -77.4108089995594,42.9057320000366 -77.4097509999849,42.9061370004211 -77.4089450004323,42.9064439999398 -77.4088019996827,42.906500000251 -77.408277000551,42.9066960000322 -77.4077190004517,42.906868999745 -77.4071179994436,42.9070600003312 -77.4061620001475,42.9073210002482 -77.4049800003474,42.9076089996197 -77.4043099994494,42.9077630003659 -77.4030380002875,42.9080700004114 -77.4029169994508,42.9081000004452 -77.4018609998561,42.9083409995841 -77.4003699994458,42.908688999918 -77.3993500001556,42.9089400000941 -77.3990769998258,42.9090079999189 -77.3977039995695,42.9093279999964 -77.3937370001628,42.9104669998506 -77.3923880000884,42.9108459998108 -77.3918859996418,42.9109900000121 -77.3894060003442,42.9117030003741 -77.3884659996302,42.9119759997895 -77.3871339999375,42.9123369995918 -77.3864719996272,42.9124639996401 -77.3860089994831,42.9125440002042 -77.3851500003255,42.9126359997259 -77.3846609995397,42.9126739997894 -77.3823010002709,42.9127039997701 -77.3811030002192,42.9127059999434 -77.3810670000383,42.9127070003631 -77.3785559996493,42.9126889999479 -77.3782910003271,42.9126889995586 -77.3776769998157,42.9126919996515 -77.3762590003395,42.9126889999963 -77.3747080005946,42.9126869999316 -77.3728890000746,42.9126910000388 -77.3717559995338,42.9126769999507 -77.3702369995673,42.9126749998428 -77.3702150006014,42.9131760000553 -77.3701950001017,42.9152770002132 -77.3701850002493,42.9173790000849 -77.3702000000245,42.9183130000388 -77.3702519995957,42.9186300003095 -77.3703030002135,42.9188089997964 -77.3703340005659,42.9214509996657 -77.3703940004052,42.9263340000163 -77.3704530004638,42.929377000106 -77.3705050004684,42.9320199996833 -77.3705110001037,42.9322970000742 -77.3705320003286,42.9331300001509 -77.3705399995199,42.9334080000002 -77.3705510005199,42.9348000000548 -77.370556999786,42.9354340004461 -77.370489999556,42.9389760003513 -77.3704499996274,42.9411439997982 -77.3704360002564,42.9419789999239 -77.3705369997066,42.9434670001899 -77.3705910001528,42.9442410003368 -77.370602999947,42.9443630001387 -77.3706200003918,42.945732999641 -77.3706280001804,42.9482380003266 -77.3706310005412,42.9488650001947 -77.3706660001651,42.9490309997822 -77.3706570001294,42.9491590003816 -77.3705860001972,42.9497340002366 -77.3705589998283,42.9503500002597 -77.3706309995993,42.9548609996597 -77.3706080005588,42.956354000293 -77.3705449996061,42.9603870000702 -77.3706040005722,42.9613619995996 -77.3706600002944,42.9619530000379 -77.3708110002014,42.9635170000567 -77.3708710004027,42.9643210000609 -77.3706699999175,42.9650340002297 -77.370621000057,42.9652130002701 -77.3706089997382,42.9662750004035 -77.3705749994481,42.9694629997014 -77.3705640005437,42.9705259995473 -77.370555000057,42.9708490002339 -77.3705219996705,42.9721440003842 -77.3705349995852,42.972695999754 -77.3705669996581,42.9739000003969 -77.3705799997841,42.9743399998113 -77.3706560003221,42.9761909997893 -77.3708850000986,42.9817450003754 -77.3709100000488,42.9823400000375 -77.3710220001168,42.98359299955 -77.3710189994639,42.9841810002249 -77.3710250000612,42.9843789996246 -77.3710259998673,42.9895900004525 -77.3710840000974,42.9956869997116 -77.3710869995083,42.9959240002396 -77.371092999891,42.9967989997645 -77.3711480005286,43.0039859998534 -77.3711499994368,43.00478700008 -77.3711589995316,43.0071909995778 -77.3711629997051,43.0079929997709 -77.371175000217,43.0099139997137 -77.3711789993932,43.0103949999185 -77.3711749995603,43.0107370000362 -77.3711659995883,43.0117639997442 -77.3711640004647,43.0121070001451 -77.3712020003961,43.0127359997135 -77.3712250000791,43.0141849999875 -77.371278999399,43.0160660002161 -77.3712649995567,43.017172000372 -77.3712570003619,43.0172399999334 -77.3713249999134,43.0239129999241 -77.3713429994635,43.0255819996335 -77.3713539995643,43.0256420000386 -77.3713660000086,43.0258099995733 -77.3713659998938,43.0259490003504 -77.3713770003751,43.027424000325 -77.3713830001464,43.0288779997989 -77.3713849994595,43.0291000003892 -77.3714329998603,43.0326500002617 -77.3714779997723,43.0346639999626 -77.3714780002554,43.0346960001286 -77.3714429998715,43.0370969996881 -77.3714409995989,43.0374460003455 -77.3714570005632,43.0374639999501 -77.3713639998929,43.0394910001646 -77.371397999488,43.0417559999885 -77.3714200003527,43.0435190002286 -77.3714820005611,43.0473069995762 -77.3715840004705,43.0535669999218 -77.371583999701,43.0536830000307 -77.3717170000155,43.0626820001269 -77.3717340004882,43.0643370000783 -77.3717350005067,43.0643499997858 -77.3718410001544,43.070356999638 -77.3719010005827,43.0728280001137 -77.3719279999002,43.0742820001311 -77.3719690000493,43.0753319998263 -77.3719829996905,43.0755990000425 -77.37197199979,43.0759019998118 -77.3719759997342,43.0762569997865 -77.3720169998148,43.0780860001813 -77.3722139997489,43.0869140002526 -77.3722149997552,43.0869350003452 -77.3724759993915,43.0956199998764 -77.3725730002193,43.0957220003317 -77.372573000222,43.0957380002768 -77.3726220000427,43.0972720004361 -77.3726730003246,43.098836999629 -77.3726900003765,43.0994669998012 -77.3727770004956,43.1026320001116 -77.3727790005173,43.1026580002592 -77.3728240005986,43.1042799998377 -77.3728680004411,43.1056239998525 -77.3729260001107,43.1073670002152 -77.3729550004641,43.1089040004089 -77.3730469998337,43.113090999892 -77.3731240002602,43.1160659995594 -77.3732239999448,43.1218000000296 -77.3732720003291,43.1222349996156 -77.3732349994796,43.1223849997551 -77.373249000162,43.1230759997293 -77.3733129999528,43.1234100000397 -77.3734829994772,43.1270720003481 -77.3734939999322,43.1276039998323 -77.3735640003303,43.1297050001963 -77.3735769998499,43.1310410003935 -77.3739489999951,43.1383439997708 -77.3739799997127,43.139676000291 -77.374170000293,43.1451390002859 -77.3741780001139,43.145391999589 -77.3743259998614,43.1496009998362 -77.3743499997,43.1525470004023 -77.3743509999361,43.1525840000771 -77.3743960004099,43.1586530001564 -77.3745189994951,43.1598520002971 -77.3745819996712,43.1604509999472 -77.3745329993932,43.1665099997772 -77.374555000458,43.1671190003888 -77.3745469995908,43.1726490003933 -77.3745479995032,43.1729410003141 -77.3747059998716,43.1777429997316 -77.3747060001244,43.1789320003193 -77.3747099995892,43.182748000164 -77.3747159997197,43.1875730000947 -77.374688000289,43.188862999944 -77.3749929997226,43.192721999792 -77.3749920001833,43.1930440003422 -77.3750489994147,43.1945839998412 -77.3750539998698,43.1960610000728 -77.3750479998118,43.1963869995857 -77.3750219999578,43.1988610001964 -77.3750800001333,43.2026200002173 -77.3750769996408,43.2038160002076 -77.3751370001479,43.2094220001601 -77.3751510001353,43.2097520001857 -77.3751750002546,43.2116539998407 -77.3752150004486,43.2155770001178 -77.3752230005473,43.2163900002236 -77.3752230005676,43.2171890000289 -77.3752569994342,43.2197620001382 -77.3752639997559,43.2216070002772 -77.3752670000413,43.2217179999575 -77.3752629995847,43.22260799994 -77.3752979995044,43.2234059999915 -77.3753019994411,43.2236309996473 -77.3752879998259,43.2238330000061 -77.375307000289,43.2245230004152 -77.3753279999521,43.2253709999112 -77.3753430004363,43.2263440001739 -77.3753920002913,43.229446000236 -77.3754159993978,43.2313420002518 -77.3754670003662,43.2332939997308 -77.3754619995244,43.2334180000839 -77.3754559997303,43.2338520000196 -77.3755299999689,43.2360770000837 -77.3755429998781,43.2374310002583 -77.3755489997462,43.2382199998113 -77.3755590005145,43.2393399997315 -77.3755740002697,43.2408290003527 -77.3755580006037,43.2409840001389 -77.3756200002905,43.243960999581 -77.3756280002224,43.2443940002377 -77.3756600005306,43.2462520003768 -77.3757210000515,43.2500009997737 -77.3757700003642,43.2530349999163 -77.3757820002818,43.2538810001625 -77.3758040005779,43.2552040000589 -77.37580600008,43.2570740001418 -77.3758069995511,43.2572290002214 -77.375904999814,43.2616519999879 -77.375938999986,43.2633449996443 -77.3759440004099,43.2637310000623 -77.3760159998775,43.2673010000144 -77.376021000587,43.2675599997216 -77.3760630000413,43.2700380002285 -77.3760460002152,43.2762109998471 -77.376046000158,43.2767730000508 -77.3759520002524,43.2869540002274 -77.3758620003408,43.2967119997825 -77.3762150004313,43.3451629998249 -77.3771990000079,43.3757849996243 -77.3879949997945,43.6315430001953</coordinates></LinearRing></outerBoundaryIs></Polygon>
  </Placemark>
</Folder>
</Document></kml>
