<?xml version="1.0" encoding="utf-8" ?>
<kml xmlns="http://www.opengis.net/kml/2.2">
<Document id="root_doc">
<Schema name="shape" id="shape">
	<SimpleField name="District" type="string"></SimpleField>
	<SimpleField name="Code" type="string"></SimpleField>
</Schema>
<Folder><name>shape</name>
  <Placemark>
	<Style><LineStyle><color>ff0000ff</color></LineStyle><PolyStyle><fill>0</fill></PolyStyle></Style>
	<ExtendedData><SchemaData schemaUrl="#shape">
		<SimpleData name="District">New York 1</SimpleData>
		<SimpleData name="Code">NY-1</SimpleData>
	</SchemaData></ExtendedData>
      <Polygon><outerBoundaryIs><LinearRing><coordinates>-72.8076439998666,40.6939280002959 -72.7824410001291,40.7023770003775 -72.7495439995018,40.7134049996231 -72.7284220004387,40.7188390002245 -72.6926549998547,40.7280419999729 -72.624538999559,40.7455670002695 -72.6088539994708,40.7500990003578 -72.5881980000736,40.7561819999238 -72.5417050005277,40.7699099996785 -72.4994919996452,40.7823759997313 -72.4565070002385,40.7949949996302 -72.396531000544,40.8126030000102 -72.3745290004418,40.8185950001963 -72.3216260002086,40.8389820003421 -72.2645419994386,40.8609790003128 -72.2495250004095,40.866764999706 -72.2259629995221,40.8750999996773 -72.208587999591,40.8813099998769 -72.1948749998364,40.8862120003488 -72.1245330000754,40.9113570001513 -72.1141100004487,40.9150689998587 -72.0508829996177,40.9375890000431 -71.9995159994146,40.956018999973 -71.979666999681,40.9639410003243 -71.9701349994657,40.9677460001757 -71.9327510003092,40.981951999805 -71.9316979995168,40.9824969995977 -71.9274699999378,40.9833079999404 -71.9196230004555,40.9855160004307 -71.9100470003922,40.9878970002451 -71.9025449997708,40.9896710000183 -71.8999069997275,40.990495999991 -71.8968350005443,40.9906250002332 -71.8908409995449,40.9914200003639 -71.8847750001107,40.9922689999175 -71.8809749995199,40.9934519996904 -71.8764340005206,40.9947190001504 -71.8745099998979,40.9954559996835 -71.8742389993949,40.9955990002124 -71.8725910005477,40.9960669998789 -71.8701390000163,40.9969710003801 -71.8680090005374,40.9982470001296 -71.8660840001909,40.9991730003689 -71.86527999987,40.999582000192 -71.8646190005341,41.000102000201 -71.8370879998789,41.0108919998808 -71.8081629998484,41.0278120004394 -71.7941390001614,41.0369770001992 -71.7827480003183,41.0553070003973 -71.7774910004842,41.0672919997987 -71.7774909997361,41.0771619995642 -71.7781369998628,41.0813189997081 -71.7792439996918,41.0884419996875 -71.7807040001925,41.092749999761 -71.781871999991,41.0961969997337 -71.7906350000553,41.1018369996501 -71.7906359999563,41.1251010000471 -71.7909720004823,41.1841009995647 -71.7911510002619,41.1842810003022 -71.8093839994926,41.2032350001659 -71.854462000596,41.2500999996077 -71.8584249996184,41.2536179997526 -71.8585129994529,41.253696999712 -71.8745129999071,41.270685999723 -71.8798469996081,41.2762459997761 -71.9072579998499,41.3044830002442 -71.9096670002962,41.3051240003773 -71.9168949994869,41.3070469997816 -71.9193050003555,41.3076880003897 -71.9233780002506,41.3087709998695 -71.9294510003302,41.3103870003228 -71.9356769999629,41.3090889997579 -71.939803999982,41.3082289997546 -71.9476719994248,41.3065889995778 -71.9567459994252,41.3046989999657 -71.9612430001358,41.3037619996576 -71.9712779995169,41.3016709996171 -71.9736889999311,41.3011690002248 -71.9764180000197,41.3006000003629 -71.9791470001111,41.3000319997147 -71.9865610001149,41.2984870003504 -71.99948599999,41.2957940003271 -71.9995170000707,41.2957860001438 -72.0077649998546,41.2936120003816 -72.0086879999016,41.2933680002935 -72.016012000272,41.2914380002902 -72.0173990002526,41.2910719997009 -72.0192139995022,41.2905940001288 -72.0214240002186,41.2895920001185 -72.0227310003082,41.289000000186 -72.0281960003828,41.2865220001685 -72.044591999889,41.279090999584 -72.0500580005495,41.2766140002434 -72.0504780003566,41.2764230003725 -72.0517390000988,41.2758509996184 -72.0521600003364,41.275660999921 -72.0527429994768,41.2753960000059 -72.0544930005743,41.2746030001052 -72.0550769994174,41.2743389999381 -72.0574770003936,41.2732509996228 -72.0646780003403,41.2699870003498 -72.0670789996532,41.2688999997133 -72.0687780000665,41.2681299997096 -72.0700179994894,41.2675670002418 -72.0704769996115,41.267360000273 -72.0761260003176,41.2648000002817 -72.0788349994167,41.263571000104 -72.0817750003749,41.2622399999629 -72.0817919997002,41.2622360001079 -72.0818469997456,41.2622240002789 -72.0818650000897,41.2622210002868 -72.0820549996012,41.2621819998046 -72.0826289999833,41.2620649997805 -72.0828199996136,41.26202699967 -72.0841399998737,41.2617590001232 -72.0854600002284,41.2614909997192 -72.087368000001,41.2611030003818 -72.0955100000765,41.2594500003096 -72.1010119998693,41.2583319998492 -72.1055599998946,41.2574079996077 -72.1062890001479,41.2572590000209 -72.1084760004193,41.256815000331 -72.1092059997312,41.256666999718 -72.1156709998527,41.2553519998564 -72.1350679998801,41.2514110003895 -72.1415339996614,41.250097999875 -72.1437370001571,41.2496980000422 -72.1503459994617,41.2484990001277 -72.1525499996105,41.2480999997822 -72.159012000584,41.246927999648 -72.1784000000438,41.2434159998419 -72.1848629997476,41.2422449998101 -72.1850819996388,41.2422040003102 -72.1857419999916,41.2420850003894 -72.1859620000299,41.2420459996752 -72.1860509998328,41.2420289999886 -72.1863210000529,41.2419810000855 -72.1864109996485,41.2419649999643 -72.1932070002394,41.2407340001935 -72.1953000001077,41.2403549999509 -72.2041880003173,41.2387440002776 -72.2122899998075,41.2372769997555 -72.2135959998705,41.2370399998588 -72.2203930005699,41.2358079997228 -72.2260199994722,41.2347880003651 -72.2429009995671,41.2317299998566 -72.2485290003969,41.2307110000805 -72.2487330000226,41.2306729999704 -72.2493479995817,41.2305629996238 -72.2495530002135,41.2305260000851 -72.2659329997627,41.2274209996062 -72.3150719999299,41.218107999647 -72.331453000007,41.2150040003362 -72.3314799997157,41.2149990000186 -72.3444890004842,41.2125329997419 -72.3835190001158,41.2051360002199 -72.3965289999103,41.2026710000463 -72.397691999904,41.202449999831 -72.4011800001403,41.201788999664 -72.4023440005181,41.2015689996669 -72.405514000421,41.200967999722 -72.4150230000918,41.1991650002729 -72.41819400005,41.1985649996406 -72.4188919995561,41.198432000067 -72.420988999592,41.1980350001907 -72.4216880004179,41.1979030003231 -72.4312430005779,41.1960920003345 -72.4599080001321,41.1906579996743 -72.4694639995259,41.1888480001778 -72.4708539997526,41.1885840003718 -72.4750270004253,41.1877930002536 -72.4764189997858,41.1875299998191 -72.4867150003514,41.1855780000194 -72.5176040003894,41.179724000275 -72.5279009995946,41.1777739997179 -72.5515629996094,41.1732380003367 -72.551816000067,41.1731889998208 -72.5752249997299,41.1687030004117 -72.6113520003663,41.1617780002115 -72.623562000348,41.1594370002584 -72.647477999761,41.1548539998538 -72.656181000386,41.1531850000047 -72.6822920002208,41.148179999896 -72.6909959999903,41.1465129998851 -72.6917400002264,41.1463700002564 -72.6939720003464,41.1459420000353 -72.6947170001294,41.1457999999494 -72.7029369998796,41.1442220001998 -72.7275959999596,41.139487999989 -72.735816999756,41.1379109999062 -72.7385319995092,41.1373890001851 -72.746676999846,41.1358249996872 -72.7493929998034,41.1353050001589 -72.7585189996234,41.133569999791 -72.7858970001676,41.1283670004301 -72.7950240001662,41.1266339998997 -72.7966420002102,41.1263259997248 -72.8014959996801,41.1254040002776 -72.8031149999987,41.1250969995673 -72.8033680000004,41.1250480003649 -72.8036200002592,41.1249990004492 -72.8080569994044,41.1241400002529 -72.8157240005799,41.1226580003657 -72.822884999474,41.1212729995572 -72.8278279997032,41.1203180002297 -72.8314570003337,41.1196159998977 -72.8423449998721,41.1175089995572 -72.845975000046,41.1168079998282 -72.846633000531,41.1166800001001 -72.8486060003128,41.1162990003388 -72.8492650001938,41.1161720003503 -72.8514280002557,41.1157529997179 -72.857917000509,41.1144979999464 -72.8600810000894,41.1140800001572 -72.8606059997948,41.1139779996147 -72.8621820000185,41.1136730001263 -72.8627080005405,41.1135720002178 -72.8629069994469,41.1135330001061 -72.8635070004831,41.1134170000901 -72.8637069997904,41.1133789998337 -72.8674850004855,41.1126479997435 -72.8788219997441,41.1104550003247 -72.8826009997757,41.1097249997965 -72.883391999592,41.1095710000552 -72.8857679996989,41.1091110002206 -72.8865599996805,41.1089590001645 -72.8913020003256,41.108041000135 -72.9055309999316,41.1052890001071 -72.9102740000188,41.1043729996834 -72.924080000319,41.1017029999901 -72.9654990005572,41.0936920002113 -72.9793060001991,41.0910229996823 -72.9833540000167,41.0902399995558 -72.9954980000754,41.0878900004311 -72.9995470004781,41.0871080001965 -73.004541999745,41.0858839999018 -73.0195280000246,41.0822130001584 -73.0245240005828,41.0809900002141 -73.0300079994956,41.0796460003883 -73.0464630000543,41.075614999601 -73.0519480001896,41.0742720000071 -73.0651999999115,41.0710250004246 -73.1049569998996,41.0612850001265 -73.1182100001154,41.0580390002098 -73.1240560001738,41.0566060000621 -73.1415939997294,41.0523090004083 -73.1474409995352,41.0508779999727 -73.1497910006059,41.0503019995697 -73.1568440001098,41.0485740000618 -73.1591949999231,41.0479989998808 -73.1623219994232,41.0472329997017 -73.1717029994247,41.0449340003353 -73.1748300002179,41.0441689997707 -73.1753649998591,41.0440380003956 -73.1769700004549,41.0436449999079 -73.1775049999802,41.0435140004396 -73.1776500004433,41.0434780003193 -73.1780860000394,41.0433710000661 -73.1782320002064,41.0433360004419 -73.1792799999871,41.043078999941 -73.1824269998412,41.0423079999278 -73.1834759996618,41.0420520000531 -73.1910850003544,41.0401420003194 -73.2020350003742,41.0373960004459 -73.2139139995797,41.0344150004295 -73.2205939995885,41.0327390001228 -73.2210590001529,41.0326220001505 -73.2215239995253,41.0325059999142 -73.2230390004584,41.0321250000303 -73.2275880002501,41.0309839998206 -73.2291040003807,41.0306039997548 -73.2296420004569,41.0304989995636 -73.2312580001421,41.0301869996529 -73.2317970003573,41.0300830000424 -73.2330800001695,41.0297640000496 -73.2369289997137,41.028810999669 -73.2382129995855,41.0284940003918 -73.2388399997768,41.0283480001293 -73.2407249997099,41.0279119998698 -73.2413529994748,41.0277670000585 -73.2425960003404,41.0274779997721 -73.246327999742,41.026614000069 -73.2475720002001,41.0263259995851 -73.2479679997859,41.026233000058 -73.2491600005232,41.0259569995619 -73.2495570001009,41.0258660004187 -73.2547239994877,41.024915999805 -73.2612880002098,41.0237110002569 -73.2702249995364,41.0220689999387 -73.2730190000817,41.0215560002161 -73.2742059995548,41.0213379995675 -73.2753920005298,41.0211199996159 -73.2785940001264,41.0204709996185 -73.2882029996627,41.0185279998293 -73.2914060001104,41.0178799999759 -73.2924370001335,41.0176710002218 -73.2955320002025,41.017044999996 -73.2965639999008,41.0168370002922 -73.2965970005068,41.0168300000634 -73.312189000301,41.0136749999231 -73.3589670005649,41.0042140004359 -73.3745600002589,41.0010599997407 -73.3752819995219,41.0008669998626 -73.3774489998319,41.0002890004025 -73.3781720005372,41.0000969998659 -73.379019000294,40.999934999807 -73.3815599994562,40.9994530002805 -73.3824080004055,40.9992929997912 -73.382685000468,40.9992400000302 -73.3835159997477,40.9990820001838 -73.3837939997009,40.999029999919 -73.3849519997422,40.9988099998303 -73.388428999503,40.9981510000764 -73.3895880004196,40.9979320003862 -73.3980540002282,40.9961469998929 -73.4234519995648,40.9907929998067 -73.4319189997299,40.9890090003691 -73.4318060000614,40.9864870003141 -73.4313060002356,40.9753659999127 -73.4308079998847,40.9643110002481 -73.4296149994298,40.9378089998999 -73.4295489999781,40.936297000204 -73.4294479999279,40.9339930002396 -73.4292490004421,40.9285940002566 -73.4293879999193,40.928442000049 -73.4288480003536,40.9272670001653 -73.4296949995863,40.9238719999426 -73.4287619995718,40.9212980002561 -73.4291370003472,40.9206380003535 -73.4294109998761,40.9195399997052 -73.4291639998592,40.919397999759 -73.4272640004386,40.9202970001988 -73.4141470004759,40.9158030002193 -73.4014689996219,40.9114580000656 -73.3986879994479,40.9134739999453 -73.3975399996335,40.9139519995851 -73.3969090000878,40.9142129996403 -73.3959910005376,40.9142560002344 -73.3881389999087,40.9114630003153 -73.3916629995437,40.9080979998796 -73.3922639995577,40.9073970004302 -73.3896619999317,40.9067980003597 -73.3894409996691,40.9066770004228 -73.3888219996363,40.9063370002224 -73.388539000177,40.9061820003056 -73.3888049996744,40.9057789997336 -73.3888230001434,40.9057519997593 -73.3888410005974,40.9057249997817 -73.3894200004067,40.9048540000635 -73.3905160002393,40.9035469999188 -73.3911560002759,40.9030729999479 -73.391735000185,40.9028059995894 -73.39077900006,40.9012150000673 -73.3910270005135,40.9010420003239 -73.3913169999841,40.9006760003472 -73.391415999489,40.9004850002319 -73.3915230004359,40.9003930001738 -73.3920040003485,40.900092000007 -73.392202000526,40.9001619996102 -73.3918799998499,40.8989450002178 -73.3916180005042,40.8980989995768 -73.3912819997584,40.8949899995779 -73.3911440001099,40.8937149997867 -73.391099999929,40.8926820003453 -73.3904629995798,40.8881980003253 -73.3899140002694,40.8833410001594 -73.3898969999576,40.8831890002907 -73.3913749996737,40.8824199998414 -73.3915000004756,40.8823550003877 -73.39208899965,40.8820710002438 -73.3913780004443,40.8821550002271 -73.3905170000367,40.88224700009 -73.3892809996899,40.8823460003683 -73.3896089997208,40.8822060001707 -73.3900970001858,40.8819869996656 -73.3903800005412,40.8817970002408 -73.3909250003785,40.8814159999974 -73.3914630005548,40.8810409996386 -73.3915100004565,40.8810089997796 -73.3910719995064,40.8800420001298 -73.3915389996043,40.8799500001333 -73.3916919994775,40.8798929999548 -73.3918130000042,40.8797859998773 -73.3918520001018,40.8796350000752 -73.3918599998444,40.8794199999938 -73.3906000005311,40.8744069998854 -73.3910359998986,40.8731739996712 -73.3914550003404,40.8722900002348 -73.3930989997702,40.8708789995597 -73.3937369995182,40.868585999563 -73.3942249999818,40.868480000354 -73.3946899994712,40.8683920001126 -73.3951330005771,40.8682550003756 -73.395797000342,40.8679040003205 -73.3961479994471,40.8676940001191 -73.3964599998753,40.8675560001356 -73.3970089995264,40.8673620001184 -73.397360999873,40.8672280001171 -73.3978030000594,40.8670069996532 -73.3979609997358,40.8669229995966 -73.3982830002229,40.8667630001512 -73.3985810001577,40.8665649998264 -73.398948000557,40.8663130001931 -73.3992970002678,40.8660340004432 -73.4010910004214,40.8649739999308 -73.4027999998025,40.8646989997168 -73.402381000062,40.8642719998101 -73.4018240003899,40.8637189998038 -73.4012670004607,40.8631509997741 -73.4006890002391,40.8625869998977 -73.4003259997649,40.8622110000855 -73.3998430002151,40.8617439996727 -73.399831000078,40.8616849995862 -73.3997520005047,40.8615999998101 -73.3996369997243,40.8614969997558 -73.3993030005336,40.8611340003775 -73.3990669997395,40.8609049997661 -73.3989950001391,40.8608360001686 -73.3988650000034,40.8607330000941 -73.3984339996008,40.8604639995859 -73.3983430002355,40.860397000316 -73.3982369999579,40.8603510000257 -73.3980999997421,40.8602760003437 -73.3976460003367,40.8600909998918 -73.3971400001526,40.8599169996615 -73.3956429997816,40.8594899999687 -73.3951349994347,40.8593479998904 -73.3950449999654,40.8593449998684 -73.3946949994175,40.8592249996833 -73.3943989995231,40.8590979998422 -73.3941169999857,40.8589479996455 -73.3939860002327,40.8588670000878 -73.393134000358,40.8583049997078 -73.3926680004438,40.8579899999321 -73.3923260005258,40.8577110003792 -73.3912799995642,40.8568639997649 -73.3905929996037,40.8562999998022 -73.3900059995224,40.8558340002418 -73.3895859998097,40.8554719997914 -73.3891059995514,40.8551560001461 -73.3878770001663,40.8544039999833 -73.3869680004165,40.8538450001265 -73.3860150005431,40.8533200002989 -73.3855830000202,40.8530979999073 -73.3845269999561,40.852662000111 -73.3827490004998,40.8518709999476 -73.3830139995356,40.8515410001492 -73.3833639998838,40.8511070000565 -73.3837870002103,40.8505849999395 -73.3850920004246,40.8489980000343 -73.3858780000309,40.8480179997041 -73.3868780003207,40.8482269997415 -73.3871830003761,40.8482919997075 -73.3889150000477,40.8485059998313 -73.3897620004633,40.8485979995766 -73.3902800003767,40.8486660002076 -73.3908909998868,40.8487460002583 -73.392455000021,40.8489249997902 -73.3936150000749,40.8489380001258 -73.3947600003581,40.8487269998065 -73.3958420003055,40.8485259997201 -73.3974669995359,40.8484949997532 -73.3976740005677,40.848498000191 -73.3990319997066,40.8484649996417 -73.4007410005098,40.8484029998518 -73.4006249999272,40.8482349997539 -73.4003519995267,40.8479190002309 -73.4015800004506,40.8474910003141 -73.4046920001911,40.8464160000698 -73.4067979994792,40.8456840004202 -73.4069980003031,40.8460229999764 -73.4091869997797,40.845089000076 -73.4093630001943,40.8450119997569 -73.4106310005101,40.8444810004451 -73.4113360000327,40.8441700000139 -73.411794999799,40.8440059997039 -73.4119409996855,40.8439739995959 -73.4123829995019,40.843942999833 -73.4135810004369,40.8438259999193 -73.4152070000934,40.8436730003452 -73.417211999513,40.8434829997646 -73.4189070001845,40.8432259995772 -73.421012999594,40.8429299997817 -73.4202649999068,40.8395230003759 -73.4202500000183,40.8388749998353 -73.4202120003679,40.8380610002352 -73.420202999507,40.8375270003679 -73.4201730005283,40.8373329996258 -73.4200819994725,40.8370820002424 -73.4200589997652,40.8367149995642 -73.4200819998923,40.8364789998572 -73.4203020004412,40.8357079996354 -73.4202960002449,40.8355519998918 -73.4202730001944,40.8353159997179 -73.4202049997966,40.8347459999851 -73.4201349994787,40.8346210001783 -73.4204569999115,40.8337509996744 -73.4204869999018,40.8336139998267 -73.4206689997687,40.8327430000541 -73.4208450005151,40.8318820003686 -73.4209519999352,40.8312759999749 -73.4210599995468,40.8305079996926 -73.4211350004705,40.829890000066 -73.4211509995801,40.8295779998875 -73.4210899999857,40.8286769995734 -73.4219669998311,40.8287000001556 -73.4270940000601,40.8287470001731 -73.4276350006018,40.8287159996029 -73.4281390000098,40.8286700001708 -73.4306029997867,40.8283569999896 -73.4321840000473,40.8281439997008 -73.4341060003797,40.8278810000886 -73.4343110004368,40.8278650003609 -73.4369889998613,40.8275109998711 -73.4381879995841,40.8273580003255 -73.4388809997493,40.8271980004361 -73.4393850003967,40.8270679997218 -73.4405219997113,40.826727999731 -73.4409880000096,40.826522999879 -73.4415229999091,40.8262250001942 -73.4417730002639,40.8260650002173 -73.4420940002375,40.825827999643 -73.4422860000808,40.8256800002184 -73.4425590000903,40.8254239998345 -73.4428109998444,40.8251299995848 -73.4430170003101,40.8248559999204 -73.4433910001835,40.8243060002799 -73.4440239994684,40.823329999753 -73.4445660003306,40.8225060004158 -73.4450320000953,40.8217919995999 -73.4454350002376,40.8212549995862 -73.4460609998813,40.8209189999287 -73.4469619994363,40.8205340000349 -73.4491980005208,40.8201370001607 -73.4509950000845,40.8198309995846 -73.4516230005975,40.8197299997901 -73.4514540005559,40.8188550000353 -73.4506329997637,40.814890999557 -73.4503839997715,40.8135089998012 -73.450252000298,40.812654999619 -73.4500050000071,40.8115999996019 -73.4497659995059,40.8103979995774 -73.449634999541,40.8097290001734 -73.4487679997265,40.8053179998216 -73.4487630005119,40.8049989996704 -73.4487470003272,40.8049010002581 -73.4487060000476,40.8046599995544 -73.448666000561,40.8044189996755 -73.4469310000225,40.7958809997111 -73.4466999996906,40.7944519996559 -73.446454999746,40.7929720002998 -73.4461019997964,40.7910699999156 -73.4460570005227,40.7901540003769 -73.4454110001161,40.7865259999004 -73.445306000371,40.7859300002625 -73.4451130005006,40.7855570004336 -73.4450249996599,40.7854570002046 -73.4450219999542,40.7854089998427 -73.4450219995601,40.7853729999371 -73.4450189998583,40.7853249995745 -73.4450030004395,40.7852389999577 -73.4449420002978,40.7848980001165 -73.4448879999219,40.78456300028 -73.4448799996368,40.7845099996764 -73.4448669999362,40.7843979998976 -73.444819999686,40.7839929997592 -73.4448100003366,40.783902000421 -73.4446840003177,40.7835320000177 -73.4443719996217,40.7826200000664 -73.4441660005225,40.7820009997682 -73.4440960000423,40.7816059996905 -73.4435149994695,40.7783169995932 -73.4432639998495,40.7764979995636 -73.4431499999654,40.7759039998339 -73.4425489996843,40.7728420003743 -73.4419670003893,40.7698989997338 -73.440967000303,40.7643990000107 -73.4406089998652,40.7621390002939 -73.4405499996356,40.7618069997793 -73.4405200003081,40.761639000163 -73.4402219995464,40.7604150004014 -73.4401460005309,40.7599750003123 -73.4396689995476,40.757408999558 -73.4395290004427,40.7563820002247 -73.4393929998511,40.755703999575 -73.4394339996924,40.7556899996734 -73.4386170002351,40.7512869998912 -73.4385000004023,40.7513109997247 -73.4368670000119,40.7515989996265 -73.4351669999637,40.7520989999713 -73.4343699995239,40.7522579999156 -73.4331630001708,40.7524980002761 -73.4330150001569,40.7525279999614 -73.4328889995286,40.7525580000697 -73.4297019994642,40.7533229998081 -73.4239310002636,40.7547069996918 -73.423741999561,40.7547529996065 -73.4222770003084,40.7551000001886 -73.4221760002496,40.7551250002756 -73.4220309997683,40.7551590002941 -73.4219399997941,40.7551810003061 -73.4218659997997,40.7551989998455 -73.4152480002015,40.7565780000534 -73.4149790004439,40.7566369997557 -73.4149130004912,40.756651999614 -73.4146659994462,40.7566990002205 -73.4140929998772,40.7568339999411 -73.4066050004348,40.7585950001939 -73.4057369999179,40.7587989999666 -73.4049160002586,40.7589929998732 -73.4034340001805,40.7593420003016 -73.4030419995298,40.7594339997751 -73.4028829996551,40.7594730002273 -73.4027700002008,40.7594989998988 -73.4024079994466,40.7595870003258 -73.3985520000855,40.7605320000923 -73.3929650004178,40.7618989998494 -73.3926649995184,40.7618989998507 -73.3925649997875,40.7619260002116 -73.3919929998356,40.7620869999035 -73.3918049996485,40.7621400000681 -73.3916250004262,40.7621909999621 -73.390864999645,40.7623979997017 -73.3905690004385,40.762462000212 -73.3903900002488,40.7624999999304 -73.3902449998506,40.7625309997283 -73.388603999693,40.7628879998861 -73.3838930001225,40.7639290002549 -73.3798390003453,40.7648239996563 -73.3737080004998,40.7661780003115 -73.3731669997439,40.7662809996191 -73.3728919996208,40.7663339995601 -73.3727600001431,40.7663599998959 -73.3704490002961,40.7668050004409 -73.369964000218,40.7668980001445 -73.3696380002789,40.7670279996057 -73.3693849996977,40.767058999862 -73.3693580005679,40.7671090003575 -73.3691270002464,40.7671400001999 -73.3690739997152,40.767146999745 -73.3686609994652,40.7672030003807 -73.3684930001664,40.7672439995717 -73.3676490003919,40.7674720003293 -73.3674970003191,40.7675149999065 -73.3666109994126,40.7677530003049 -73.3661359996649,40.7678790003086 -73.3660440004001,40.7679059998606 -73.3659849997304,40.7678900001142 -73.3655930004797,40.7678099997615 -73.3655639999165,40.7677980000735 -73.3644610001562,40.7681060000893 -73.3641439995675,40.7681939997278 -73.3638180004048,40.7682850002757 -73.3637259998898,40.7683230003884 -73.3637190003715,40.7683140002617 -73.3634849998996,40.7683780003648 -73.3609699997822,40.7690660000903 -73.3608060005705,40.7691030002327 -73.3606250001928,40.7691450003552 -73.3601900005068,40.7692450000667 -73.359850000326,40.7693239996951 -73.3596009995724,40.7693880002244 -73.3595080005014,40.7694029996099 -73.3548649996975,40.7704720001014 -73.3545299999762,40.7705500004239 -73.3542990005151,40.7706009998471 -73.3540799994468,40.770649999937 -73.3511400004711,40.7713029999111 -73.3458839996877,40.7724709999601 -73.3454119998113,40.7725769998347 -73.3446640001916,40.7727470001312 -73.3445259996875,40.7727790001541 -73.3435559996982,40.773012000369 -73.3434350002764,40.7730410002777 -73.3432850002967,40.773076000043 -73.3426920004917,40.7732180001957 -73.3425160005537,40.7732610002328 -73.3406699999954,40.7737830000028 -73.3399410004711,40.7739239999962 -73.3394730005326,40.7740160002797 -73.3393150005092,40.7740469999505 -73.339230000485,40.7740650004402 -73.3382649995755,40.7742950002691 -73.3379680002513,40.7743719997205 -73.3375819998649,40.7744719998309 -73.3374839997023,40.774498 -73.3368990000105,40.7746700002384 -73.3367279996754,40.774719999643 -73.3366260005611,40.7747500004429 -73.3364629994863,40.7747979996975 -73.3352460001746,40.7750130000638 -73.3351180004443,40.7750369997291 -73.3349650001946,40.7750660000214 -73.3349129996134,40.7750710002562 -73.3347629996865,40.7750979996608 -73.3343019995671,40.7752239996088 -73.3340509994086,40.775291000145 -73.3339319997236,40.7753250003416 -73.3332429999134,40.775512999708 -73.3331249997494,40.7755450002133 -73.3330439996638,40.7755670003263 -73.3325629998787,40.7756980001223 -73.3317649994926,40.7758710004261 -73.3268220001427,40.7769419997935 -73.3265789997779,40.7769939998549 -73.3260940004037,40.7770980003515 -73.32506199975,40.7773170000532 -73.320834000439,40.778218999865 -73.3204330004335,40.7783790001373 -73.317934000411,40.7790709999774 -73.3176009994537,40.7791080000211 -73.3166139994547,40.7792200000479 -73.3157899999044,40.7795520002265 -73.3156770004022,40.7796029996125 -73.3153649998636,40.7797359999164 -73.3152140005313,40.7797750001791 -73.315058999551,40.7798070002302 -73.3148960005586,40.7797879997347 -73.3143160002399,40.7798220001504 -73.3133430001631,40.7802689996044 -73.3132620003389,40.7802980002755 -73.3127839994461,40.7802979998889 -73.312698000199,40.7802979996488 -73.3126109995818,40.7802980000117 -73.3124620002675,40.7802979996364 -73.3120079999507,40.7803739999031 -73.3118509999851,40.7803989995865 -73.3116690000391,40.7804300000506 -73.3106619998631,40.7805980003934 -73.3105399996944,40.7806009997985 -73.3104659995859,40.7806040003205 -73.3103940002681,40.7807089997586 -73.3102860004261,40.7807520003791 -73.3099349996859,40.7808639998268 -73.3086820002269,40.7812819998447 -73.3057539999538,40.781825999554 -73.3015620002506,40.7826979995782 -73.3012900000994,40.7827849998059 -73.3001699996163,40.7831699995941 -73.299929999888,40.7832019995965 -73.2951060002904,40.7842660004263 -73.2949660001067,40.7842969996645 -73.2949640004183,40.7847959998077 -73.2949570003789,40.7849949998063 -73.2949190002938,40.7858919998588 -73.2949109995122,40.7868759999549 -73.2949069996246,40.7870699997572 -73.294834000115,40.7895529996455 -73.2946520002147,40.7946960003328 -73.2947819999294,40.7949010004274 -73.2947929999067,40.7949780001037 -73.2947610002926,40.7950979996564 -73.2947619998478,40.7951699998121 -73.2947590003098,40.795257000373 -73.2946520000851,40.8039829998671 -73.2945680005734,40.8039869997282 -73.2925710002412,40.8041599996398 -73.2899149996172,40.8043909999656 -73.2878060000502,40.8044460001373 -73.2871549994818,40.8043489996304 -73.2861860001036,40.8046060002574 -73.2838659998602,40.8045830001941 -73.2814889994624,40.8045589997721 -73.2814780004001,40.8047199997685 -73.2814720000871,40.8048029996655 -73.2814649997935,40.8049179998021 -73.2814610002546,40.8049830001014 -73.281456000197,40.8050779999672 -73.281264000346,40.8051109999427 -73.2809369994417,40.8051699997716 -73.2805290003873,40.8051709998148 -73.2801920003411,40.8051570003269 -73.2799629998113,40.8051530003253 -73.2746590004951,40.8050699996649 -73.2754670000188,40.8054420000666 -73.2750139996879,40.8054690001123 -73.2699360003057,40.8057799996269 -73.2693869996892,40.80580699963 -73.2580740002065,40.8066909998029 -73.2555950000853,40.8068440004165 -73.2519279997309,40.8070739997645 -73.2490160002458,40.8072789996326 -73.2488609999586,40.8071879996923 -73.2467970003527,40.8073539996316 -73.2419309996834,40.807705000149 -73.2411350001681,40.8077530002133 -73.2409359998321,40.8077649998129 -73.2378060004313,40.807954999967 -73.2353939996139,40.8083149999385 -73.2337819996356,40.8084899998739 -73.2326050002272,40.8086990003234 -73.2309509996955,40.8088340002061 -73.2307310001902,40.8115359997799 -73.2306990004576,40.8118939999309 -73.2306920005113,40.8119550003465 -73.2306819998715,40.8120449998032 -73.2306669995697,40.8121930000951 -73.2305450005261,40.8133449998632 -73.2305349999857,40.8134410003481 -73.2305320000345,40.8134729999213 -73.2305229998814,40.8136200004477 -73.230194999421,40.8184659998299 -73.2301799994658,40.8186830003363 -73.2301650001975,40.81891499988 -73.2301539997784,40.819084000145 -73.2301460000314,40.8191779999242 -73.2301050001517,40.8196290002029 -73.2297389995625,40.8236700001105 -73.2293989999496,40.8237200003499 -73.2289810005071,40.8238170003894 -73.2286750004315,40.8238710002895 -73.2281589994319,40.8239610001064 -73.2277959997515,40.8240240000519 -73.2272679999209,40.8241740003495 -73.2267889997835,40.8243119999957 -73.2259449995288,40.8242990004251 -73.2254240002723,40.8243069997334 -73.2253059999075,40.8242930000675 -73.2241659997608,40.8243590004259 -73.2230430001025,40.824433999866 -73.2227399998701,40.8244550000991 -73.222635999646,40.8244620000072 -73.2223949996678,40.8244769997683 -73.2221950003728,40.8244899998159 -73.2211419997314,40.8245559996557 -73.2198279997998,40.8246509999334 -73.2184329999097,40.8247410002951 -73.2183680002531,40.8247430003753 -73.2182610005848,40.824746000045 -73.2175199997764,40.8247669996344 -73.2173749994704,40.8247679996577 -73.2157810004177,40.8247410001012 -73.2147200001506,40.8247310000138 -73.2130789998662,40.8248349999628 -73.2112780000895,40.8249690001253 -73.2109769995712,40.8250060001833 -73.2102549998701,40.8251530002794 -73.2101839995966,40.8248040002874 -73.2094390001405,40.8250310002342 -73.2091629994754,40.8250950001008 -73.2088859997997,40.8251360002206 -73.2076769999652,40.8251869999283 -73.2076429996882,40.8251999995694 -73.2070499997669,40.8252310000574 -73.2058139999074,40.82531799998 -73.2034390003101,40.8254459995662 -73.2028910000644,40.8254819997419 -73.2024079995333,40.8255229999769 -73.2018660003162,40.8255569998794 -73.201761999897,40.8255639998416 -73.2012149999205,40.825604999788 -73.1998899996875,40.8256649999112 -73.1979659997456,40.8257709995877 -73.1974559998491,40.8257930001049 -73.1969890001694,40.8258199997597 -73.1956279997633,40.8258799996797 -73.1951840004225,40.8258989997586 -73.1949070002761,40.8259200002933 -73.1925140002657,40.826033999904 -73.1915040000049,40.826086999729 -73.1903169996594,40.8261560003471 -73.1891839994639,40.8262309998679 -73.18841700038,40.8262829999264 -73.1873340004769,40.8263510000211 -73.1866159998599,40.8263899995692 -73.186079,40.8264279996217 -73.184448999787,40.8265110004187 -73.184049999562,40.8265570003453 -73.1830679999695,40.8266030004059 -73.1809730004648,40.8267410004331 -73.1807850005323,40.826758000162 -73.1776029998831,40.8269559995812 -73.1770370003019,40.8269920003084 -73.1769810003111,40.8269950002409 -73.1759649997981,40.8270669997145 -73.1752720002267,40.827119999597 -73.1714789994261,40.8274149996015 -73.1704099996587,40.8274949995829 -73.1694330003134,40.8275700002922 -73.168623000443,40.8276319998145 -73.1683109998019,40.8276579996364 -73.1675899996859,40.8277149998539 -73.1668759994588,40.8277730003878 -73.1662009994073,40.8278250003512 -73.1655410004658,40.8278740002485 -73.1631439997654,40.8280479996764 -73.1618409997494,40.8281300003252 -73.161193000023,40.8281739996363 -73.1608990004857,40.8281900001394 -73.1605809997831,40.8282160004233 -73.1595470000997,40.828285999603 -73.1588240001807,40.8283360003733 -73.1585630000381,40.8283549997628 -73.157885000524,40.8283959999822 -73.1573260004958,40.8284320002483 -73.1565189994694,40.8284870003303 -73.1560410004329,40.8285210003003 -73.1556090005107,40.8285539999075 -73.1547099998135,40.8286110002305 -73.1535560004178,40.8285560003432 -73.1501159999821,40.8287810002484 -73.1495949995556,40.8288699997585 -73.1485330003681,40.8287799997996 -73.1464300004348,40.8289219996125 -73.1460709998802,40.8289089996323 -73.1456439996205,40.8289340000311 -73.1452009997765,40.8289419996143 -73.144667000432,40.8289760002431 -73.1445049997343,40.8289880001916 -73.1438409997819,40.8290419997729 -73.1428179996057,40.8291159999394 -73.1424369995117,40.8291379999401 -73.1419800000869,40.8291730003652 -73.1410779997965,40.8292360000321 -73.1409639999349,40.8293399997642 -73.1397739997614,40.8294150001626 -73.138932999993,40.82947499986 -73.1385640004135,40.8294679998927 -73.1380790005829,40.8295310002635 -73.1372419996228,40.8295919997805 -73.1371269994799,40.8296020001769 -73.1364010004814,40.8296630002304 -73.1355559994679,40.8297229997667 -73.1352329997718,40.8297479997478 -73.1351170001125,40.829757000123 -73.1344719999867,40.8298080001324 -73.1299120005261,40.8300890001036 -73.1283089997181,40.830194999992 -73.1277059997329,40.8307180001278 -73.1263369997991,40.8322750003983 -73.1255989999735,40.8323329997133 -73.1230739994424,40.8329769998619 -73.1214120002635,40.8325449995701 -73.1192979998751,40.8314580001992 -73.1184180002803,40.8310439995907 -73.1179039995034,40.8307750000827 -73.1175789998162,40.8305230003923 -73.1170439995764,40.8300449996585 -73.1168110004103,40.829755999647 -73.1168770000849,40.8291649997197 -73.1172530000424,40.8258439998561 -73.1166129995259,40.8239700001118 -73.1170939995741,40.82281799965 -73.1178260001758,40.822436999566 -73.1179710004918,40.8223710001759 -73.1177729994316,40.8217380002314 -73.1179179997316,40.8216079995528 -73.1180909996588,40.8214260004188 -73.1181309999855,40.8213180000722 -73.1181490005294,40.8211239999607 -73.1181819999696,40.8208819996676 -73.1182279997245,40.8205519998375 -73.1183900004326,40.819353999695 -73.1184060003955,40.8190230004357 -73.1182769999034,40.818549000252 -73.1182530001241,40.8184729998569 -73.1182380003162,40.8181600004438 -73.118252000104,40.8179789998653 -73.1183070001665,40.8172940003064 -73.1183209994804,40.8170379997631 -73.1183509998207,40.8164989997577 -73.1183980003031,40.8160389998999 -73.1184609994621,40.8157959997328 -73.1185819997208,40.8153330002494 -73.1186479994826,40.8150840001463 -73.1186890005348,40.8149360003904 -73.1187420000032,40.8146500002531 -73.1188359994834,40.8142710001396 -73.118917000243,40.8139410003152 -73.1189660004253,40.8137400000935 -73.1190200001199,40.813521999857 -73.1190849997871,40.8132590002728 -73.1190889995178,40.8132389996895 -73.1191889999959,40.8127629999935 -73.1192409998376,40.8124910002712 -73.1193330003855,40.8120170002824 -73.1193400001099,40.8119830000099 -73.1194880004691,40.8114789999039 -73.1194939998308,40.811447000159 -73.1195800004236,40.8110909999648 -73.1196120002007,40.8109579996609 -73.1196349997343,40.8108950001075 -73.1197599995573,40.8105589996362 -73.1198179998889,40.8104080003152 -73.1198559997515,40.8102679995704 -73.1199779995563,40.809973000355 -73.12002899989,40.8098620004385 -73.1200999999283,40.8097069998786 -73.1201070004807,40.8095349997355 -73.1201449998225,40.8093819996745 -73.1201619996534,40.809005000334 -73.120160999598,40.8088260004082 -73.1201559998888,40.8087869997253 -73.1201309996799,40.8085900001441 -73.1201069998578,40.8083060003858 -73.1201300000967,40.8081459999666 -73.1200799997292,40.807636999661 -73.1200210001387,40.8069209996327 -73.1184859995837,40.8070409999256 -73.1184449996708,40.8070490002416 -73.1138940003973,40.807456000414 -73.111277000143,40.8076850003581 -73.1111229996145,40.8076989997373 -73.1109469997652,40.8077149995598 -73.1109490004684,40.8077379995577 -73.1067709994095,40.8080670003621 -73.1039019996205,40.808287999998 -73.1013759996189,40.8084829996324 -73.0995840001655,40.8086280004448 -73.0980350004032,40.808773000105 -73.0967219995438,40.8089129998592 -73.091231999906,40.8094099995567 -73.091123999453,40.8094189999429 -73.0906689995219,40.8094590002599 -73.0866440004507,40.8098100000379 -73.085464999519,40.8099070001667 -73.0812820002677,40.8102820003324 -73.0781859996396,40.8104910002789 -73.0762350000011,40.8107179998104 -73.0744979995294,40.8108510000116 -73.0734740001939,40.8109309998609 -73.0723689998217,40.8110730003109 -73.0694079996748,40.8113279997651 -73.0692629997035,40.8113400003444 -73.068613999668,40.8113940002944 -73.058238000024,40.8122739996999 -73.0533030005276,40.8127139996333 -73.0530280002353,40.8127389995884 -73.0505330001349,40.8129459997928 -73.0505569996588,40.8131759997984 -73.0503730000028,40.8131930003677 -73.050409999989,40.8134219995984 -73.0504939996557,40.8140779999857 -73.050616000471,40.8149599995977 -73.0488550004902,40.8151240003677 -73.0491209999846,40.8171189999921 -73.0494340005348,40.8191750003217 -73.0485560004457,40.8192509999623 -73.0477249998811,40.8193160000436 -73.0471370001513,40.8193659999422 -73.0473209996487,40.8205519996458 -73.0466570001693,40.8204299998852 -73.0456719997918,40.8204099999327 -73.0457789995764,40.8211189996223 -73.0457909996314,40.8211960003096 -73.0443789995479,40.8213270004205 -73.0418990004747,40.8215440003697 -73.0393509996998,40.8217609996511 -73.0372959994735,40.8219249997683 -73.0370340005165,40.8219549998551 -73.0339089997354,40.8222169999764 -73.0335699997157,40.8222450002837 -73.0265249998795,40.822835999593 -73.0230850004517,40.8231270001938 -73.0225069996906,40.823167999902 -73.0202739994625,40.8233050001878 -73.0201420000304,40.8233080001354 -73.0201870004533,40.8235789998727 -73.0199160002932,40.8235789998639 -73.018678000225,40.8236359997203 -73.017031999434,40.8236789998052 -73.0159899997188,40.8236959999875 -73.0150350004415,40.823712000245 -73.0132580002198,40.8237329998539 -73.0127380001536,40.8237430001641 -73.0061639997839,40.8238430002856 -73.0052190004563,40.8238580003008 -73.005143999764,40.8238580001284 -73.0017270003723,40.8238739996325 -73.0006130002639,40.8239180000257 -72.9976600000246,40.8239380001598 -72.9966390003408,40.8239189996274 -72.9964419994638,40.823915999802 -72.9960839999735,40.8239060001629 -72.9927389999979,40.8237120003118 -72.9896849998682,40.8233960002186 -72.9892289997966,40.8233599997277 -72.987018000284,40.8231240000781 -72.9845609995152,40.8228659996868 -72.9841599999039,40.8228290000748 -72.981627000543,40.8225900004274 -72.9786810004812,40.8222899998915 -72.9763170002357,40.8222910000789 -72.9762210004036,40.8222960001083 -72.9754550001814,40.8223180000486 -72.9751750005512,40.8223270003558 -72.9746399995247,40.8223460000252 -72.9740069995643,40.822393000139 -72.9735539994324,40.8223989995488 -72.971960000242,40.822602999901 -72.9701349996589,40.8228969995778 -72.9696579994322,40.822975999964 -72.9688029998606,40.8231529999144 -72.9658319996111,40.8237660004433 -72.9657599994276,40.8237800002699 -72.9655340004443,40.8238319999727 -72.9619450004098,40.8246420003456 -72.9618210005789,40.824663000086 -72.9580870001098,40.8254180003309 -72.9577189994345,40.8255069995432 -72.9576909997544,40.82522600032 -72.9575629999775,40.8252540001503 -72.9536680004236,40.8260820001187 -72.950204000187,40.8267730003851 -72.9488119999737,40.8270189997144 -72.947987999926,40.8271620000402 -72.9451810002398,40.8276069999831 -72.9447279997111,40.8276800000538 -72.9386629996804,40.8286580003074 -72.9383730000781,40.8287039995735 -72.9378870002969,40.8287829997215 -72.9373210003385,40.8288730001892 -72.9359739995759,40.8290899999493 -72.9304749995696,40.8299779996902 -72.9284830002795,40.8302990000038 -72.9284149995895,40.8303090001952 -72.9251049997356,40.830840999884 -72.9206379994823,40.8315649997764 -72.9187069997145,40.831873999815 -72.9178890004389,40.8320199999094 -72.917843000432,40.8320290002846 -72.9171870003158,40.8321620001731 -72.9156480002237,40.8324759995695 -72.9140460003895,40.8328729996726 -72.9133360000283,40.8330720003133 -72.9118920000853,40.8334780002548 -72.9115650004667,40.8335790000351 -72.9112140002605,40.8336939997645 -72.9097340003696,40.8341849999374 -72.9082490001078,40.834741999824 -72.9073829998197,40.8350869998338 -72.9057920003578,40.8357690001399 -72.9053969998114,40.8359549996893 -72.9049739997485,40.8361529998541 -72.9044530004076,40.8364049999543 -72.9029630003343,40.8371689997698 -72.9005079998197,40.8384899998971 -72.8998649996452,40.838836000289 -72.8920699994843,40.843024999914 -72.8918690003189,40.8431360001552 -72.891667999417,40.8432400002086 -72.8915519999006,40.8433110001557 -72.8905690001876,40.8438289996737 -72.890457999586,40.8437020004395 -72.8902920001834,40.8435039995845 -72.8895300003662,40.8426170004083 -72.8891360000912,40.8421319998816 -72.8887750005911,40.841610999871 -72.8884799994399,40.8410970000422 -72.8880760001225,40.8403300003589 -72.8876750000797,40.8395369997069 -72.887295999565,40.8387489999657 -72.887253999933,40.8386579995973 -72.8871619994589,40.8386999998801 -72.887366000467,40.8391460004573 -72.8878179996234,40.8401300001594 -72.8882009995754,40.8409079999639 -72.8882309997096,40.8409719997507 -72.8882419998153,40.8410130001856 -72.8882719994141,40.8410659998808 -72.8883020004857,40.8411330000943 -72.8883539998107,40.8412260000158 -72.8888810003475,40.8421280000059 -72.8892129995012,40.8425700000943 -72.8901730002119,40.8436980004178 -72.890264000328,40.8438069998364 -72.8903709998884,40.8439339999169 -72.8905659995964,40.8441570002904 -72.8906819998268,40.8442890000099 -72.8898179996602,40.8447460003418 -72.8894019998669,40.8449500002217 -72.8890809999548,40.8451209999719 -72.8867590003467,40.8465610001247 -72.8861200003545,40.8469290003654 -72.8848269997113,40.8475219996596 -72.884642999603,40.8476030000834 -72.8842850002229,40.8477599996753 -72.8834069995358,40.8480569997876 -72.8811849997559,40.8486259997009 -72.8801299995552,40.8488789997277 -72.8785540005309,40.8493299996692 -72.876417999795,40.8498470004368 -72.8755349995181,40.8500329999398 -72.874473999844,40.8502279997031 -72.8732069999115,40.8504310000267 -72.8713909997318,40.8506710002165 -72.8696439995772,40.85080200027 -72.866929999874,40.8509099997577 -72.8663180005416,40.8509490000114 -72.8662910002323,40.8509500001367 -72.8658589994521,40.850957000104 -72.8656749995219,40.8509659995873 -72.8656740003365,40.850699999583 -72.8656729999477,40.8487749996236 -72.8656509994142,40.8477510000107 -72.8653910001061,40.8418010001239 -72.8652620000436,40.838370999825 -72.8651559995394,40.8355600001175 -72.8651320004399,40.8347199998362 -72.8651479995242,40.8346140002783 -72.8650939998649,40.8343770001425 -72.8636299997439,40.8342550000334 -72.8633469998302,40.8342169997528 -72.8629970003661,40.8341979999029 -72.8625240004265,40.8341669999428 -72.8620739995751,40.8341099998137 -72.8616460005335,40.834068000004 -72.8612730005627,40.8339879996528 -72.8608450002661,40.8338690000763 -72.8603559996128,40.8338120002955 -72.86008900027,40.8337770001981 -72.8597990003227,40.8337390000395 -72.8595179994942,40.8337399996605 -72.8591130000894,40.8337629999017 -72.8587619996003,40.8337739998791 -72.8585019999618,40.8337780000791 -72.8580750001282,40.8337779998004 -72.8572819997872,40.8338199998374 -72.8570230002046,40.8338579999577 -72.8566100002082,40.8339340000044 -72.8562590000108,40.8340069995879 -72.8560459996569,40.8340449996178 -72.8558780004852,40.8340799996726 -72.8551529994754,40.8340439998311 -72.8546569999725,40.8340219995539 -72.8542830000163,40.8339909997432 -72.8541839998178,40.8339650001466 -72.853932999584,40.8338349996165 -72.8538720002526,40.8337969999817 -72.8531539998744,40.8334339998041 -72.8525589995946,40.8331410002223 -72.8522840000645,40.833010999575 -72.8519329998834,40.8328650002178 -72.8512019995208,40.8324990002841 -72.8507819994081,40.8323119999893 -72.8502470000582,40.8320689999065 -72.8498280002924,40.8318859997537 -72.8493099999598,40.8316259997579 -72.8489199995482,40.831480999658 -72.8479489996522,40.8314699995853 -72.8476530002553,40.83140900027 -72.846767000479,40.8311529999199 -72.8458439997731,40.8308830001226 -72.8448690005894,40.8306389997511 -72.844411000073,40.8305389998844 -72.8439979996511,40.8304440001503 -72.843830999952,40.8303869998616 -72.8435180001011,40.8302450003153 -72.8428229995171,40.8298529997867 -72.8422359996672,40.829574000059 -72.8417549994479,40.8294019996054 -72.8411979996887,40.8292499998185 -72.8411780001443,40.8288490003453 -72.8408289999426,40.8219620000357 -72.838530000098,40.822202999921 -72.8383290004806,40.8217610003791 -72.8380809995493,40.8212300000473 -72.8378979996533,40.820929000364 -72.8377789998352,40.8207330000733 -72.8376189995108,40.8204340002897 -72.8374559996209,40.8202290002389 -72.8372159998126,40.8198730004125 -72.83754500007,40.8197680004133 -72.8382050000214,40.8195429996033 -72.8394589995967,40.8190540001827 -72.8399039997091,40.8188609997817 -72.8396869997738,40.8187599999033 -72.8396380005354,40.8187070001745 -72.8394419996424,40.8184950000774 -72.8387960004123,40.8177950001851 -72.8383759995757,40.8166920002734 -72.8381680004902,40.8157460001664 -72.8374379998097,40.8152849996655 -72.8368420002217,40.8142579999235 -72.8368879998303,40.8135370003593 -72.8366059999103,40.8127710003172 -72.8366969997852,40.8124350003526 -72.8360259994073,40.8114740002744 -72.8358980005768,40.8108660003793 -72.8357499996617,40.8103860001813 -72.835524000015,40.8097660001073 -72.8349830003289,40.8081919999847 -72.8344899994829,40.8075149996648 -72.8339669996251,40.8071329998875 -72.8336169999442,40.8067839996466 -72.8331800002519,40.8064499999359 -72.8331109998772,40.8063280000127 -72.8328909995682,40.8060829997072 -72.8327449994774,40.8057900000818 -72.8326689998471,40.8049570000293 -72.8324150003253,40.8039409999057 -72.8322199994684,40.8035270001817 -72.8319590001996,40.803075000383 -72.8315779997005,40.8026719997431 -72.8315480004689,40.8026050001921 -72.8313870002557,40.80235699973 -72.8294340004204,40.7945310002349 -72.8279899996267,40.7930460001387 -72.8266680003363,40.7916880002936 -72.8262690003466,40.791276999922 -72.8236279995133,40.7885599998596 -72.8231029995848,40.7880219997547 -72.819289999859,40.784102999884 -72.8189629996118,40.7837669998018 -72.8145380004552,40.7792179997196 -72.8123150004644,40.7769789995965 -72.8122020001861,40.7768659996592 -72.8120259997367,40.77667400044 -72.810954000393,40.7753459997337 -72.8103780001733,40.774498000305 -72.8099140003945,40.7737299999066 -72.8093060002569,40.7726420002443 -72.8087140001977,40.7715540004304 -72.8081860000934,40.7706099996813 -72.8077379996406,40.7697300000701 -72.8073699995777,40.768721999752 -72.8071940002509,40.767714000172 -72.8071619998973,40.7669940000712 -72.8072259998043,40.7664499998163 -72.8072259999291,40.7662900001419 -72.8072580001467,40.7659060001091 -72.8072740001177,40.7658740002192 -72.8073059997534,40.7654900001351 -72.8075620005517,40.7647539998859 -72.8078980004815,40.7637939998258 -72.8078300004351,40.7538589999854 -72.8078229994816,40.7527139995762 -72.8078450003236,40.7525479996994 -72.8078440003334,40.7515199998665 -72.8078280003465,40.7496819997273 -72.8077480005365,40.7438360003336 -72.807732000577,40.7403189999406 -72.807565000575,40.708264000409 -72.8076439998666,40.6939280002959</coordinates></LinearRing></outerBoundaryIs></Polygon>
  </Placemark>
</Folder>
</Document></kml>
