<?xml version="1.0" encoding="utf-8" ?>
<kml xmlns="http://www.opengis.net/kml/2.2">
<Document id="root_doc">
<Schema name="shape" id="shape">
	<SimpleField name="District" type="string"></SimpleField>
	<SimpleField name="Code" type="string"></SimpleField>
</Schema>
<Folder><name>shape</name>
  <Placemark>
	<Style><LineStyle><color>ff0000ff</color></LineStyle><PolyStyle><fill>0</fill></PolyStyle></Style>
	<ExtendedData><SchemaData schemaUrl="#shape">
		<SimpleData name="District">New York 4</SimpleData>
		<SimpleData name="Code">NY-4</SimpleData>
	</SchemaData></ExtendedData>
      <Polygon><outerBoundaryIs><LinearRing><coordinates>-73.4842450004079,40.7027660003991 -73.4845669997,40.7026959999641 -73.484789999982,40.7026569998187 -73.4851809994832,40.7025640001395 -73.4856770002854,40.7024259997548 -73.4859329997483,40.7023420000429 -73.4861500000054,40.7022829995521 -73.4871620003272,40.7020299997694 -73.4875160000634,40.7019100004414 -73.4881669996974,40.7017509997944 -73.4888750002461,40.7016089998078 -73.4899360001974,40.7014480001965 -73.4903790002481,40.7014150003692 -73.490892999899,40.701354999851 -73.4911350000306,40.70133400005 -73.4915389997456,40.7013189996314 -73.4920150004604,40.7013069996122 -73.4923229998296,40.7013129996865 -73.4924850001839,40.7013099999338 -73.4924489996752,40.7018659998694 -73.4923989994958,40.7025869999413 -73.4923729996818,40.7030630003366 -73.4923420003485,40.7038589996289 -73.4922490001104,40.7053839995583 -73.4943649999469,40.7053040002197 -73.4952760001464,40.7052680001803 -73.4964019995685,40.7052219996436 -73.4980750003232,40.7051520002774 -73.4985880004643,40.7051270000327 -73.50178299944,40.7049970002435 -73.5023390004023,40.7049730000007 -73.5031660005579,40.7049239999625 -73.5037060003511,40.7049349997047 -73.5037889995111,40.7047750003118 -73.5041839996197,40.7040750004044 -73.5044250003519,40.7036860002985 -73.5046010004194,40.7034119998563 -73.5047320001809,40.703225999575 -73.5047819994413,40.7031040001297 -73.5048739999493,40.7030180002767 -73.5051219998624,40.7026739998608 -73.5054729994648,40.7021750000099 -73.5073249999751,40.7028609997205 -73.5125040003221,40.7047009999744 -73.5130369995028,40.7049090003827 -73.5139830004297,40.7052410000865 -73.514373000468,40.7053419999202 -73.5147640001455,40.7054319996273 -73.5169480000519,40.7060059999883 -73.5178599999279,40.7062519996334 -73.5194149998148,40.7067360002758 -73.5197460004542,40.7068249999605 -73.5211059997069,40.7071370001984 -73.5226210004826,40.7074859998794 -73.5224139995642,40.7079999998126 -73.5223640005747,40.708148000223 -73.5232060000182,40.7083380004449 -73.5231669994579,40.7085300003628 -73.523174000429,40.708662000348 -73.5232200000171,40.7087940002762 -73.5234769998959,40.709232999935 -73.5237609996162,40.7091970001394 -73.5238619996311,40.7092060002955 -73.5241790003458,40.7092700004523 -73.5243660002734,40.7093180001913 -73.5244890003793,40.7093760003543 -73.5245530001311,40.7094250000127 -73.5246210002683,40.7095029996611 -73.5246889997,40.7096130001404 -73.5256010005677,40.7111810000506 -73.5257009998697,40.7112830004127 -73.5258309999317,40.7113300003211 -73.5259459995917,40.7113219996647 -73.526551000099,40.7111189997228 -73.5269419996481,40.7117830003422 -73.5274310004977,40.712632000111 -73.5271490001817,40.7126750004518 -73.5244490000714,40.7126469998372 -73.5244750005915,40.7127519998612 -73.5244840003566,40.7129929996928 -73.5244170001927,40.7133330003809 -73.5244019995857,40.7133880002594 -73.5241749997827,40.7144690002293 -73.5240880002577,40.7150330003771 -73.5240299999168,40.7155059998544 -73.5240390005009,40.7157090001887 -73.5241110004622,40.7168129997039 -73.524152999665,40.7169660001986 -73.52420600042,40.7170760000355 -73.5242459994736,40.7171309995931 -73.5245039997274,40.7173960000472 -73.5246179998943,40.7175280002217 -73.5246999997474,40.7176600002014 -73.5247350000519,40.7177700002991 -73.5247530000239,40.7178910001269 -73.5247229999879,40.7194779999353 -73.5247900000765,40.7198640004442 -73.5248719995491,40.7203780004327 -73.5248969996247,40.7219540000551 -73.5248399996863,40.7228599996572 -73.5248609998602,40.7229690000359 -73.5249209996098,40.7230999997119 -73.5249559997292,40.7232109995703 -73.5250660002966,40.7234970004204 -73.5251650003825,40.7237989997084 -73.5252070001706,40.7239099997512 -73.5252419996833,40.724074000277 -73.5252759998879,40.7245000002377 -73.5253220003475,40.7249160003365 -73.5280779995777,40.7247909995568 -73.5308780000333,40.7246670001792 -73.5334900004093,40.7245519997348 -73.5345969994686,40.7245040000473 -73.536391999539,40.7244159996632 -73.5364929994971,40.7244090001446 -73.5371689994802,40.7243749995667 -73.5380319998795,40.7243369997549 -73.5384469997421,40.724907999954 -73.5385379996411,40.7250620003811 -73.5388690004685,40.7255790002301 -73.5391719995185,40.7260780002491 -73.5393759996915,40.7264050001 -73.5397359994975,40.726999000107 -73.5403709998454,40.7281210002648 -73.5409000004212,40.7291099996897 -73.5414279995157,40.7301680004384 -73.5419830003461,40.7313559996377 -73.5425550003864,40.7326979999365 -73.542954999763,40.7337930003454 -73.5442029994122,40.7338380002574 -73.5449159998125,40.7338749999865 -73.5456939996551,40.7340150000937 -73.5461110005905,40.734130999658 -73.5461129994196,40.7341079998312 -73.5457709996415,40.7337560004154 -73.551335999938,40.7337349998633 -73.5512709997342,40.7339979996061 -73.55417099954,40.7339850002308 -73.5541040000903,40.7343900002186 -73.5533510004263,40.738040999735 -73.5531399996164,40.7391980002477 -73.5529919995867,40.7399619996177 -73.5528249994662,40.740754000265 -73.5526269996964,40.7416030003628 -73.5524990005527,40.7419239996631 -73.5521970005003,40.7425849999773 -73.5521100002362,40.7427639996626 -73.5520039998201,40.7430819998641 -73.5519439999425,40.7433569999803 -73.5519129995677,40.7436639998913 -73.5519189997352,40.7439269995759 -73.5519390002993,40.7441249996476 -73.5521140000883,40.7454410002226 -73.5521859994379,40.7459909996879 -73.5523799998292,40.7475380001478 -73.5525130000964,40.7484150001401 -73.5528289997738,40.7507479996481 -73.5529289997203,40.7514299996997 -73.5530209997418,40.7523090004347 -73.5530440003936,40.752824000089 -73.5530410004771,40.7530879999019 -73.5529339996736,40.7539219997494 -73.5529030002883,40.7543059996498 -73.5529080003032,40.7546579998689 -73.552945000174,40.7549869998841 -73.5530149994174,40.7553440003755 -73.5530669997198,40.7555159999746 -73.5532129994303,40.7559489996507 -73.5547609996528,40.7556520001603 -73.5582969997317,40.7549110001842 -73.559176000011,40.754724999643 -73.5598350004679,40.7545689997227 -73.5609200002372,40.7542669997859 -73.5626490000407,40.7537429996805 -73.5628109996808,40.753701999726 -73.5630839994381,40.7536100000433 -73.5637409999947,40.7534029996932 -73.5640370001657,40.7533130000817 -73.5654440004482,40.7528710002546 -73.5659130000694,40.7527160001547 -73.5662840003709,40.7525859998396 -73.5671089994434,40.752281999658 -73.5687669997803,40.7516690000711 -73.5694450003235,40.7514279998793 -73.5696090000173,40.7513900004332 -73.5697600005002,40.7513400001466 -73.5701210003976,40.7512400004049 -73.5708730001717,40.7510650002086 -73.5715960000559,40.7509300001004 -73.5728419996826,40.750733999777 -73.5729349998108,40.7507129996534 -73.5733229994601,40.7506450002195 -73.5739290000762,40.7505580002351 -73.574088999963,40.7505409998558 -73.5745260004008,40.7504679996457 -73.5770219999274,40.7500209996153 -73.5779429999207,40.7498509998484 -73.5794870002332,40.7495590002084 -73.5796409996518,40.7495239999976 -73.5798090000686,40.7494950002116 -73.5799929996955,40.749443000003 -73.5809760004487,40.7492549999833 -73.5817859994752,40.749073999807 -73.5857470002634,40.748088999731 -73.5865720001954,40.7478689999 -73.5876970001575,40.747550000333 -73.5881730003313,40.7474529997323 -73.5884189999659,40.7473879997937 -73.5885629995682,40.7473579999809 -73.5888490002027,40.7473179997577 -73.589037000134,40.7473069997711 -73.5901340000414,40.7473030002408 -73.5909129994742,40.7473090001342 -73.5912960002181,40.7473100000194 -73.5915699996731,40.7472940002939 -73.5919659994644,40.7472769996264 -73.5925450005701,40.747231999952 -73.5930360005311,40.7471569999303 -73.5933330004207,40.7470840003251 -73.5945929996637,40.7468239999604 -73.5950239994988,40.7467380003204 -73.595178999461,40.7467029995732 -73.596354999403,40.7464640003977 -73.5972630003943,40.7462769999687 -73.5974060005447,40.7462490001824 -73.5981330001396,40.7460970003493 -73.5987419997726,40.745972000301 -73.5991509995256,40.7458930002893 -73.5999449999114,40.7457540003703 -73.6012860005587,40.7455280001856 -73.6014339996827,40.7455169995692 -73.6019250003126,40.7454530002896 -73.6022890004095,40.7454190003715 -73.6030009997455,40.745344000359 -73.6031849999927,40.7453290003623 -73.6034490005603,40.745269000139 -73.6063459999413,40.744714999976 -73.6072429999139,40.7445210001392 -73.6075489994066,40.7444510000755 -73.6085190002901,40.7442799998622 -73.6105749995455,40.7438489999865 -73.6108090002411,40.7437950003778 -73.6111520001857,40.7437330003514 -73.6113620005867,40.7437070002533 -73.6120770004365,40.7435939996208 -73.6124239996349,40.743493000367 -73.6128479997621,40.7433989999368 -73.6146409995144,40.7431600004372 -73.6171010002706,40.7430040003947 -73.621413999699,40.7421900003691 -73.6227779995571,40.7419319999825 -73.6236610005738,40.7417879998308 -73.62435299963,40.7416690003918 -73.6276509999505,40.7410739998203 -73.6290039998326,40.7408289999583 -73.6311609996895,40.7404400004085 -73.6328899998303,40.7401380003407 -73.6331099998181,40.7400889998441 -73.633814000533,40.7399649995583 -73.6339519996169,40.7399459997576 -73.6343280003641,40.7398739995703 -73.6357139995419,40.7395900000991 -73.6363779995464,40.7394550003736 -73.6367190004982,40.7393819995606 -73.6376499994414,40.7392390003944 -73.6391999995244,40.7389800001442 -73.6405050003759,40.7387329999454 -73.6411740000405,40.7386099998001 -73.6420700001386,40.7384490001415 -73.6429660003242,40.7382899996434 -73.6438559999722,40.7381249996126 -73.6447399999706,40.7379689998688 -73.6450530004367,40.7379169996057 -73.6456379997395,40.7378090003127 -73.6459240000951,40.7377490003525 -73.6465929995405,40.7376309997939 -73.6483479999107,40.7373139995638 -73.6497780000257,40.7370539997927 -73.6501019999338,40.736992999907 -73.6503739997001,40.7369270003557 -73.6509970003336,40.7368479996652 -73.6511019998434,40.7369309996229 -73.6512989999357,40.737127999756 -73.6517629997723,40.7370569997789 -73.6535689999654,40.7367880001602 -73.6553349995013,40.7365260001102 -73.6562380002475,40.7363949998576 -73.6567879995824,40.7363239999543 -73.6576040003154,40.7362070003527 -73.6577910001339,40.7361910002899 -73.6585770004747,40.7360629997809 -73.6590850002064,40.7359459998733 -73.66088599966,40.7356479998912 -73.6614190004051,40.7355580001375 -73.6621550005192,40.7354259999923 -73.6632609996707,40.7352489997974 -73.6634669994217,40.7352030004026 -73.6637520002569,40.7351599999143 -73.6647349994873,40.7350260000752 -73.6649569994883,40.7349729999281 -73.6659030001924,40.7348340002995 -73.666609999641,40.7347060000072 -73.6668070004799,40.7346850003564 -73.6674020004918,40.7345959998772 -73.6677710001892,40.7345150002951 -73.668487000193,40.734417999805 -73.6694739999243,40.7342620001879 -73.6699980002719,40.7341820002501 -73.6704449996694,40.734095999547 -73.6710870001491,40.7339949999516 -73.6711820000469,40.7340050003407 -73.6711990005804,40.7341350001606 -73.6726330003669,40.7338410001572 -73.672697999459,40.7338260003403 -73.6730409998934,40.7337699999283 -73.674255000183,40.7335890001778 -73.6753660000927,40.7333639998181 -73.6756729999591,40.7332840000281 -73.6761350004731,40.733230999901 -73.677020999776,40.7330990001187 -73.6774690002165,40.7330019997763 -73.6779020002939,40.7329519995922 -73.6792939996771,40.7327989998428 -73.6796979994767,40.7326549999502 -73.6810609997142,40.7323300002313 -73.6810909995446,40.7324760000721 -73.6820700001824,40.7324000000721 -73.6831710004004,40.7322019998715 -73.6834529998648,40.7321670003875 -73.6835049998421,40.7321699996969 -73.6837480003574,40.7321119996261 -73.6843280004084,40.7320019998295 -73.6843789994445,40.7320319996268 -73.6844040003828,40.7319769997807 -73.6846669999828,40.7319120001854 -73.6846619998399,40.7318730003084 -73.6851930001914,40.7317450002999 -73.6852349996523,40.7318339997619 -73.6852929996875,40.7318660003852 -73.6862260005829,40.7317590001655 -73.6866700004354,40.7316579998251 -73.6866989999212,40.7317840001659 -73.6871320003711,40.7316729997754 -73.6871570005452,40.7316390003693 -73.6875749996874,40.7315169996748 -73.6880639996503,40.7314490004386 -73.688564999524,40.7314030004427 -73.6889790000574,40.7313489997401 -73.6893749999501,40.7313109999699 -73.6898649997792,40.73121099973 -73.6902799997511,40.7311179997283 -73.6907649995763,40.7310540000601 -73.6911749998114,40.7310159997803 -73.6916329998329,40.7309150003197 -73.6920760002903,40.7308110004366 -73.6925100001015,40.7307550003385 -73.6934520003024,40.7307630003277 -73.693932999895,40.7306550003984 -73.6948180001193,40.730453000053 -73.6953019995845,40.7303509999269 -73.6970460002104,40.7299909995909 -73.6985719994252,40.7296750002855 -73.6994259997822,40.7295000001454 -73.6998520001578,40.7294100001382 -73.7003890000966,40.7293019995845 -73.7012929994161,40.7291169998553 -73.7018210004094,40.7290029999085 -73.7022160002525,40.7289230001905 -73.7031699994455,40.7287260002512 -73.7034089997431,40.7286839998161 -73.70407499956,40.7285380000275 -73.7049820001126,40.7283509997341 -73.7058670003823,40.7281580000852 -73.7067380005284,40.7279700003091 -73.7076469997195,40.7277960003877 -73.7076599996967,40.7278300001269 -73.7096790000574,40.7273999999311 -73.7104990001107,40.7272270002649 -73.7117800003289,40.7270589998977 -73.7140749994022,40.7267600003554 -73.7148790000462,40.7266580002101 -73.7158649995596,40.7265410001747 -73.7164940004629,40.7264539996569 -73.7168989998171,40.7263870002681 -73.7175270002573,40.7262419999791 -73.7178539999151,40.7261570002238 -73.7199880004952,40.7255970001125 -73.7213410004569,40.7252250000167 -73.7225759998155,40.7248790002446 -73.7234310000809,40.7246490000168 -73.723745000482,40.7245750001227 -73.7240259999372,40.7245010002663 -73.7244039995996,40.7243949995482 -73.7248480002699,40.7242590002886 -73.725526000414,40.7240759998392 -73.7260320003943,40.7239119998773 -73.7264530000394,40.7237559996434 -73.7269320000865,40.7235690003658 -73.7272129998757,40.7234530003442 -73.7274969996634,40.7233429998314 -73.728065999917,40.7231290000662 -73.72826099953,40.7230629999275 -73.7287830001515,40.7228760000815 -73.7292340000374,40.7227049995676 -73.7295029997407,40.7225950000781 -73.7303260000153,40.7221569998861 -73.7296949998994,40.7205709996936 -73.7296610001167,40.7204830004253 -73.7291760004695,40.7191670003668 -73.728500999677,40.7167059998625 -73.7283130004642,40.7159980002223 -73.7273639995846,40.7123920001224 -73.7273170003455,40.7122160000656 -73.7270860005616,40.7112590004491 -73.726970999502,40.7107150003106 -73.7269000002745,40.7099969997941 -73.7268960000125,40.7099760004313 -73.7270470003592,40.7094969997221 -73.7268949996603,40.705800000085 -73.7267810004089,40.703144999872 -73.7267789995343,40.703082000306 -73.7267280003627,40.7021459998089 -73.7267830003788,40.7019869998246 -73.726738000226,40.7015880002152 -73.7266539999538,40.7011120000937 -73.7265439998675,40.6989830001743 -73.7265110003849,40.6977810000739 -73.7265030000375,40.6968859999505 -73.7262629995491,40.6907729996208 -73.7262580004454,40.690610999813 -73.7262589998771,40.6902690002671 -73.7262310003659,40.6896600000361 -73.726216999647,40.6893059996971 -73.726200000209,40.6889840000736 -73.726174999768,40.6886500003485 -73.7260890000547,40.687773999821 -73.7259959997981,40.6869319996927 -73.7259410001706,40.6863990003591 -73.7259180001459,40.6860990003762 -73.7259109995681,40.6860849997393 -73.7258779998872,40.6855139997897 -73.7257979999001,40.6843540004402 -73.7258430000082,40.6835749998035 -73.7258610004275,40.6832229999242 -73.7259069997694,40.6826570001831 -73.7258240003407,40.6816360001353 -73.7257539997724,40.6809460002589 -73.7256869996281,40.6802499995614 -73.7256300002595,40.6795879996591 -73.726010999515,40.6780779996203 -73.7261979998499,40.6773810001546 -73.726355000049,40.676973000397 -73.7264560001085,40.6767480000656 -73.7265429995336,40.676486999842 -73.7271410003494,40.675095999847 -73.7274410003492,40.6744290004485 -73.7275419999184,40.6741600001576 -73.7275470004872,40.6740839999656 -73.7275279997638,40.6738710001545 -73.7277260003879,40.6722799996506 -73.7278130004141,40.6716119998821 -73.7278549996256,40.6712610002902 -73.7278869995968,40.6710500001685 -73.7279050005077,40.6708399997533 -73.7279409995274,40.6708090002892 -73.7279370004885,40.6705459996578 -73.728095000177,40.6694419996254 -73.7281779995529,40.6687190002032 -73.7282640001073,40.6680729998286 -73.7282220000684,40.6673140002108 -73.728263999838,40.6666060000441 -73.7282720005428,40.6664399998914 -73.7282239996473,40.665965000192 -73.7279539997284,40.6653439999698 -73.7278400000102,40.6650529995828 -73.7277630003365,40.6639850004216 -73.7278140002466,40.6632239999467 -73.7280850005653,40.6630710004471 -73.7283310005671,40.6630439996661 -73.7281530005657,40.6624540002341 -73.7279309995915,40.6617489996232 -73.7275920002409,40.6610940004255 -73.7272080001513,40.6604219997426 -73.7268100000487,40.6597949999148 -73.7264439999408,40.6591619998288 -73.7262110001441,40.6584789999259 -73.7259270002345,40.6577310002711 -73.7257589995952,40.656998000014 -73.7253349996398,40.6553239996348 -73.7247869999791,40.6540010001262 -73.7248739995158,40.6534469996812 -73.7248209995165,40.6530199997973 -73.7249840002976,40.6526780000271 -73.7250519998076,40.6523410001438 -73.7252480001425,40.6521929999149 -73.7256820003989,40.6520579996573 -73.7259460005333,40.651960999628 -73.7261889997026,40.6518609998998 -73.726430000041,40.6517910000464 -73.726670999486,40.6516850001344 -73.7268730001534,40.6515409999728 -73.727023999433,40.6514980001484 -73.7285300001551,40.6509729998009 -73.7287029998862,40.6509160003922 -73.7289910004204,40.6508389996177 -73.7294970005157,40.6506359998114 -73.7297389998673,40.6505579999908 -73.7300039999453,40.6504800004246 -73.731055000227,40.6502310004052 -73.731427000555,40.6501710003742 -73.7322080005602,40.6500909996207 -73.7343879999792,40.649820999631 -73.7351349997246,40.6497319996589 -73.7367349994101,40.6491000001468 -73.7390450001023,40.6482010000378 -73.739189999406,40.6481220001702 -73.7414370000858,40.6468890003923 -73.7414399998928,40.6460860001108 -73.7414849997576,40.6452480002217 -73.7416229994577,40.6427160001778 -73.7416609995345,40.6421979996518 -73.7420509998044,40.6414740003374 -73.7414280002926,40.6405019998894 -73.7422830003836,40.6401210000536 -73.7415340003786,40.6392300000063 -73.741263000022,40.6389050004254 -73.7410320004327,40.638476000248 -73.7402839998989,40.6371750002844 -73.7394709996637,40.6357060001756 -73.7399600002707,40.6351439999027 -73.7410949996476,40.634930999633 -73.7416779998686,40.6348379999174 -73.7422370005009,40.6348509998267 -73.7426500001993,40.6350450001154 -73.7426730002203,40.6354080003025 -73.742628999428,40.6355369999998 -73.7425799995437,40.6356480003535 -73.7425309997718,40.6357149996853 -73.7420810005099,40.6363809998892 -73.7412699996406,40.637257000248 -73.7411869994361,40.6374119996448 -73.7412009998392,40.6375900002442 -73.7415009994818,40.6378500001674 -73.7423610004367,40.6380929996988 -73.7432949996344,40.6380480001212 -73.7441769997489,40.6373560000774 -73.746021999821,40.6352120002541 -73.7480010000578,40.6346309997634 -73.767425000267,40.6266059996517 -73.7675070002168,40.626468999762 -73.7677080003385,40.6262080002511 -73.7677580003809,40.6261130004437 -73.7677819994155,40.6259120002607 -73.7679329998771,40.6257549996507 -73.7681540004291,40.6254489999287 -73.7682500003094,40.6253979998715 -73.7682689999152,40.6252950002029 -73.7682929997982,40.6252360000552 -73.7683259996809,40.6250970003767 -73.7685000003293,40.6248969998829 -73.76860400056,40.6247330001676 -73.7686239997786,40.6245850000846 -73.7686489994505,40.6244660003497 -73.7687090003201,40.6243859995978 -73.7687609996773,40.6243520001176 -73.7687839998724,40.6242890002299 -73.7687769996157,40.6241950001967 -73.7688299996279,40.6241000003382 -73.7688049997025,40.6240270000063 -73.7688380001178,40.6239520001925 -73.7687569999356,40.6238199997234 -73.7687620004625,40.6237609995715 -73.7686680005703,40.6235889995843 -73.7686429996224,40.6234919996359 -73.7686430003662,40.623431000334 -73.7685839994639,40.6233130002211 -73.7685529994476,40.6231550000236 -73.7675710000394,40.6214770000113 -73.7674589994089,40.620511000305 -73.7667569996348,40.615283999596 -73.7667190004689,40.6150039999762 -73.7652440004559,40.6149420002005 -73.7620839997395,40.6127320002299 -73.7600210003493,40.6113489996982 -73.7593340004768,40.6112580003938 -73.7575460003233,40.6110370001749 -73.7572349998408,40.6109930001194 -73.7551969999949,40.6105939995634 -73.754947000427,40.6104969997314 -73.7547319994628,40.6104049999311 -73.7534580005922,40.6105199995767 -73.7506520000099,40.6114530001368 -73.750087999793,40.6116410000027 -73.7491200005623,40.6117940000169 -73.7482159994081,40.612011000168 -73.7479929994121,40.6123100003799 -73.7476140001342,40.6119979996185 -73.7474950000591,40.6118879996757 -73.7471939999101,40.6119979996143 -73.7471190003942,40.6120360000396 -73.746942000201,40.6117750001509 -73.7468549998911,40.6115740004313 -73.7467470001988,40.6114029999203 -73.7463869998739,40.6115400000871 -73.7455300005014,40.6118710002776 -73.7454920003396,40.6118050000987 -73.7451689997191,40.6113000003905 -73.7444509995545,40.6101690004042 -73.7436759996808,40.6089560000319 -73.7436230002544,40.6088690002469 -73.7432150002403,40.6082339997489 -73.7430589994774,40.6079980002992 -73.7431459995752,40.6079569999221 -73.7430699999621,40.607886000019 -73.7432039994264,40.6077049998687 -73.7435510000551,40.6074519995864 -73.7432920001805,40.6072510003264 -73.7431679994511,40.6071769998791 -73.7424640001734,40.6065939997751 -73.7420739994758,40.6062659996631 -73.7417719998984,40.60602100034 -73.7411480002983,40.6054599995618 -73.7402909996093,40.6045979999873 -73.7394630000867,40.604234999799 -73.7392350005246,40.6040280004055 -73.7385190004291,40.603128000158 -73.7384629998671,40.6028359996741 -73.7383580000337,40.6026599999246 -73.7382650001419,40.6025570002227 -73.7382689996523,40.6023069997442 -73.7382890002499,40.601622000195 -73.7383710002497,40.5994900004493 -73.7384050002868,40.5981869999245 -73.738437999527,40.5978150000206 -73.738446999467,40.5974809998633 -73.7384490001746,40.596982000445 -73.7384659995736,40.5964539996972 -73.7384630005488,40.5958659998291 -73.7380780001469,40.5945859997795 -73.7377039996779,40.5944380004288 -73.737636999951,40.5944149999257 -73.7376039998996,40.5942089995921 -73.7375209994762,40.5939200002646 -73.7374139997551,40.5934249997572 -73.7371850004863,40.5929650002579 -73.7384679995248,40.5929370003491 -73.7400189999495,40.5929059997619 -73.7416280002118,40.5928719996675 -73.7432370003603,40.5928389996098 -73.7444689997047,40.5929040001777 -73.7477489995034,40.5915030000496 -73.7509780000666,40.5890489999541 -73.7521210001365,40.588181999859 -73.7523710005799,40.5879650001391 -73.7551830003253,40.5856489996783 -73.7555019998345,40.5853870001996 -73.7557009995762,40.5786880004027 -73.7569089999993,40.567652000056 -73.7580469999319,40.5572680003545 -73.7582559996007,40.555363999854 -73.7622340000412,40.5502029997225 -73.7649319995874,40.5444019996489 -73.7672720000958,40.5381110001685 -73.7676299996608,40.5371520000695 -73.7687390003565,40.5338730003331 -73.7687810003553,40.5337469999391 -73.7491670001315,40.5339960000271 -73.7060940000003,40.5345420004478 -73.7020539997866,40.5345400000442 -73.6283109997033,40.5345120002633 -73.6245740001595,40.5345109999457 -73.5748770002304,40.5306390004239 -73.5526739999697,40.5289090002146 -73.5500799997139,40.5284920003724 -73.5293299996251,40.5251530003352 -73.517843999844,40.523306000143 -73.5123780003895,40.5228179998226 -73.5010430005064,40.5218050002872 -73.5009469998273,40.5217960001516 -73.4864959999614,40.5205049996796 -73.4849459995234,40.520920999842 -73.4843899999599,40.5526809998225 -73.4847939999792,40.589698999794 -73.4848659999619,40.5896860003316 -73.4849359996333,40.5968529996127 -73.4848599999731,40.5989910000709 -73.4848270002225,40.6002499995713 -73.4848419996075,40.6045240003945 -73.4848940000634,40.6061930002622 -73.4843750004427,40.6078950001872 -73.4849750001663,40.6140819996422 -73.4848400001321,40.6174099998413 -73.4848990000809,40.6175029997087 -73.484870999926,40.6195389996204 -73.484973999519,40.6213179998446 -73.4850399998178,40.622334999976 -73.4849779996832,40.6237659996829 -73.4849109996548,40.6282420004079 -73.4848729995814,40.6350209997756 -73.4848690004335,40.6364399999435 -73.4848660000713,40.6378789996561 -73.4849629995516,40.6413690001356 -73.4849430003419,40.6450519996334 -73.4852460004579,40.6460549998206 -73.4854569998245,40.6462139999948 -73.4854570002542,40.6464890002875 -73.4849189995197,40.647999999894 -73.4847990004534,40.6481369998629 -73.4846469995293,40.6487799996311 -73.4865419996421,40.648866999808 -73.4856130000543,40.6503549996753 -73.486126000048,40.6518190000625 -73.4860670005235,40.652414000364 -73.4858880002098,40.6529859996764 -73.4859479996171,40.6533520001744 -73.4863749996176,40.6535459997888 -73.4859199996736,40.6541090003564 -73.4857750001383,40.6543779997868 -73.4858560001307,40.6547160004515 -73.4860830005177,40.6549890002729 -73.486385999536,40.6552460001228 -73.487032999979,40.6555700002904 -73.4870359994648,40.6573540002845 -73.4867080002616,40.658590000117 -73.4864380002867,40.6593000001937 -73.4859890003406,40.6601009996583 -73.4853889995497,40.6608789998656 -73.4843689995046,40.6617499998993 -73.4838609999059,40.6633280002913 -73.4831420005405,40.6643130003159 -73.4831119996466,40.6646100001384 -73.482901999424,40.6649080000695 -73.4823319995911,40.6653430000373 -73.4822130002813,40.6661210003565 -73.4822010004678,40.6663019999796 -73.4820760001052,40.6667940001773 -73.4810689996485,40.6676009997772 -73.4823689997165,40.668899999633 -73.4820719996657,40.6696440003983 -73.4821689998779,40.6709000003802 -73.4816690005876,40.6722000000079 -73.4821669994116,40.6732009998855 -73.4823689997829,40.6735999997532 -73.4819709995351,40.6749250002961 -73.4819959996042,40.6752789998887 -73.4820680003091,40.6760989997952 -73.4820689994072,40.6772100003148 -73.482067999522,40.67869999964 -73.4815500003591,40.6811960000142 -73.4814770004565,40.6837909998993 -73.4815040005343,40.6844949996129 -73.4815760005455,40.6858169995932 -73.4816580004103,40.6882959996705 -73.4818339994744,40.68958799998 -73.4819409997103,40.690228999835 -73.4820250003609,40.6908850002698 -73.4820899999193,40.6912870002301 -73.4822369999039,40.6920160002039 -73.4827729994937,40.6946549998042 -73.4829060001128,40.6947129999473 -73.4829479996354,40.6949219998945 -73.4825919995967,40.6950009996227 -73.4827460000122,40.6951880001302 -73.4828490001901,40.6952629999801 -73.4829060001272,40.6954599999404 -73.4830469996797,40.6963129999491 -73.4831859995923,40.6970120001528 -73.4832880002945,40.6970520002868 -73.4833090004501,40.6976189995883 -73.4832749994773,40.6976799997621 -73.4834479995218,40.6984819996314 -73.4836439999322,40.6994189996185 -73.4837280005267,40.6997380000462 -73.4838299998354,40.7004139997016 -73.4838949998778,40.7007539998848 -73.4839659996739,40.7012489996489 -73.4840730004243,40.7017930004081 -73.4840779997655,40.7018460002222 -73.4843240003116,40.702060999982 -73.4843760005286,40.7022189998289 -73.4842210002207,40.702522999961 -73.4842450004079,40.7027660003991</coordinates></LinearRing></outerBoundaryIs></Polygon>
  </Placemark>
</Folder>
</Document></kml>
