<?xml version="1.0" encoding="utf-8" ?>
<kml xmlns="http://www.opengis.net/kml/2.2">
<Document id="root_doc">
<Schema name="shape" id="shape">
	<SimpleField name="District" type="string"></SimpleField>
	<SimpleField name="Code" type="string"></SimpleField>
</Schema>
<Folder><name>shape</name>
  <Placemark>
	<Style><LineStyle><color>ff0000ff</color></LineStyle><PolyStyle><fill>0</fill></PolyStyle></Style>
	<ExtendedData><SchemaData schemaUrl="#shape">
		<SimpleData name="District">New York 12</SimpleData>
		<SimpleData name="Code">NY-12</SimpleData>
	</SchemaData></ExtendedData>
      <Polygon><outerBoundaryIs><LinearRing><coordinates>-73.9344120004817,40.778093000081 -73.9372879994932,40.7809629996773 -73.9376079999308,40.7817539997168 -73.9436039995604,40.7826500003713 -73.9437599998803,40.7828290002351 -73.943833000155,40.7828589996509 -73.9439549997645,40.7829159996055 -73.9440540000855,40.7829640004082 -73.9440179998379,40.7830149996335 -73.9439109997929,40.7831770003351 -73.9437910004653,40.7833340003143 -73.9436599999322,40.7834859998063 -73.9435189995774,40.7836329998351 -73.9433040004171,40.7838149995977 -73.9431119998924,40.7839579998702 -73.9429010000166,40.7840969999097 -73.9427780001399,40.7841709999084 -73.9419709996397,40.7845900004366 -73.9433189994446,40.7851739995556 -73.9442230000294,40.7839329996326 -73.9447230001809,40.7832469997013 -73.9470689995672,40.7842359997671 -73.9465879994415,40.7849409999115 -73.9488269997374,40.7858809998301 -73.9483779998875,40.7864969999383 -73.9485890004469,40.7865860002327 -73.9488569996572,40.7866989996731 -73.9499809999984,40.7871729998305 -73.951608999868,40.7878580003788 -73.9527970001374,40.7883590004334 -73.9532099998861,40.7885330004099 -73.9541349999326,40.7889199995592 -73.9548169996416,40.7892050003849 -73.9545640005672,40.7895509998233 -73.9538889997216,40.7904710001255 -73.9534380003528,40.7910849997219 -73.9529839998834,40.7917220000589 -73.9525219994928,40.7923469997437 -73.9520729994664,40.7929669997244 -73.9516020000706,40.7936079999965 -73.9511109996602,40.7942850002131 -73.9506130005248,40.7949650001135 -73.9501580000604,40.7955879996131 -73.9496949994837,40.7962169996199 -73.9494050002213,40.7966310001688 -73.9494860003427,40.7966510002236 -73.9495580001036,40.7966840001806 -73.9496130001376,40.7967280003488 -73.9496489998682,40.79677199958 -73.9496760005262,40.796832000356 -73.9496820003889,40.7968939998757 -73.9496709997717,40.7969519998767 -73.9496410002135,40.7970089999521 -73.9496039994822,40.7970499996392 -73.9505409999346,40.7974420002128 -73.9505780002927,40.7974569996215 -73.9508680005227,40.7975780001624 -73.9509129998895,40.797596999832 -73.9524830000235,40.7982530002661 -73.9552890003075,40.7994350002905 -73.9577620001227,40.8004720000172 -73.957798000373,40.8004790003911 -73.9578680002488,40.8003990000178 -73.9579379999821,40.8003549995931 -73.9580329996073,40.800315000296 -73.9581299996762,40.8002980001387 -73.9582269999262,40.8003010001987 -73.9583539998354,40.8003370000969 -73.9586189997633,40.7999769997171 -73.9590770002839,40.7993519997683 -73.9595369994451,40.7987190003162 -73.9600370005581,40.7980380000562 -73.9605230002748,40.7973690002007 -73.9609790002712,40.7967379999605 -73.9614400001529,40.7961110001929 -73.9618990005339,40.7954799997138 -73.9623590003364,40.7948519997741 -73.9628339996969,40.7942030000706 -73.9641109994706,40.7947110003375 -73.9643030002807,40.7947869995731 -73.9651320004071,40.7952049996079 -73.9656280003152,40.7954560002378 -73.9662259994726,40.7957050002826 -73.9666369996697,40.7958760002897 -73.9670219995691,40.796037000114 -73.9671280003057,40.7960809999509 -73.9684760001153,40.7966429997801 -73.9680380000857,40.7972499998919 -73.9694570004344,40.7978379997609 -73.9690010000676,40.798475999772 -73.9675750003526,40.7978699996952 -73.9671200004965,40.7985029997338 -73.9666620001694,40.799133000061 -73.9682069999082,40.7997860001157 -73.9695050005419,40.80032999965 -73.9690459999855,40.8009569996706 -73.9685839996393,40.801636000388 -73.967877999518,40.8013540002737 -73.9677890003394,40.8022000000039 -73.9675849994651,40.8029319997338 -73.9671420001874,40.8035680000744 -73.9667010005084,40.804169000252 -73.9662250001878,40.804833000081 -73.966049999981,40.8050679995911 -73.9659589997087,40.8051909998849 -73.9657640005423,40.8054529996201 -73.9653080001367,40.8060810000149 -73.9660729994242,40.8063990003712 -73.9661020000785,40.8064119998355 -73.965896000518,40.80671699968 -73.9665859999305,40.8070310002942 -73.9663540000983,40.8073349996218 -73.9669790000145,40.8075959996776 -73.9686950003056,40.8082699998737 -73.9688740005099,40.8083409999466 -73.9692220002035,40.8085060000445 -73.9655109997335,40.8137619996229 -73.9653790000443,40.8139589997299 -73.9664110002528,40.8144050001901 -73.9711519996772,40.8162690003357 -73.9716160005145,40.8156330003462 -73.9734870004821,40.8130710002769 -73.9750849999154,40.8108820003545 -73.9771719997849,40.8080250003799 -73.9788640005879,40.8057070002892 -73.9790939995273,40.8053920000811 -73.9806340004714,40.8032830000787 -73.9825160004551,40.8007060002404 -73.9826550005694,40.8005159996154 -73.9843620005243,40.7981789997835 -73.984739000587,40.7976620002356 -73.98490399963,40.7974360002721 -73.9862559994952,40.7955850003525 -73.9862769994968,40.7955559996076 -73.9881499996074,40.7929909997783 -73.9900090003526,40.7904449999218 -73.9913720004312,40.7885790001265 -73.9916900004042,40.7881430001328 -73.992998000269,40.786353000327 -73.9939389995975,40.7850630003414 -73.994845000064,40.7838230000675 -73.9957690001456,40.7825580002942 -73.9958680004337,40.7824230002723 -73.9974080004088,40.780313000111 -73.9978070001531,40.7797670002217 -73.9986400001573,40.7786249997391 -73.9996370004737,40.7772599997932 -74.0004469998173,40.7761520000356 -74.0009120001722,40.7755140003001 -74.001618000528,40.7745480004491 -74.0023019996307,40.7736100002942 -74.002952999725,40.7727190003085 -74.0034210002025,40.7720779998581 -74.0040860000156,40.7711680000522 -74.0046530001821,40.770391000405 -74.0053710002577,40.7694080000065 -74.0061689996822,40.7683150004218 -74.006583000112,40.767748000157 -74.008603000552,40.7649809998316 -74.009524999634,40.7637190002175 -74.0098840004584,40.7632259996457 -74.0100459997963,40.763005999716 -74.0101360001927,40.7628819998767 -74.0102349994849,40.7627470004058 -74.0111049997673,40.7615559998343 -74.012009000531,40.7603180001023 -74.0129520002576,40.7590260003429 -74.0140290000742,40.7575509999395 -74.0142489995344,40.7566560001509 -74.0150129996252,40.753505999923 -74.0155049998819,40.7514830001388 -74.016013000048,40.7493960001635 -74.0166059997635,40.7469620003006 -74.0172829995172,40.7441800002178 -74.0093310002321,40.7425719996186 -74.0088930000083,40.7423840002356 -74.008699000071,40.7423620002172 -74.0085170005794,40.7431739998101 -74.0083719998035,40.7439689999792 -74.008259000305,40.7446740004051 -74.0068109997836,40.7440609999749 -74.0072379995274,40.7434699998576 -74.0044159998167,40.7422840000888 -74.0015550004052,40.7410799995976 -74.002018999607,40.7404440000834 -74.0015749995814,40.7402560003515 -74.0007760005735,40.7399160001757 -74.0000620001444,40.7396139997578 -73.9991849997425,40.7392430002374 -73.9987130003405,40.7398809999688 -73.9982869998288,40.7404700000554 -73.9978619996375,40.7410560001572 -73.9950180005354,40.7398600002711 -73.9954460005033,40.739271999882 -73.9922249997688,40.7379170003933 -73.9903310001534,40.7371319996608 -73.9907520002491,40.7365310002096 -73.9909290004571,40.7362840004524 -73.9911089998202,40.7360309999784 -73.9912110000175,40.7358879997105 -73.991715000124,40.7352150004433 -73.9911979996907,40.7350109996779 -73.9907539996507,40.7348389996754 -73.9899029998955,40.7344349996365 -73.9899499998248,40.73490199973 -73.9899570004573,40.7350520002364 -73.989945999734,40.7352010000102 -73.9899329997322,40.7352749996039 -73.9899160003477,40.7353490002272 -73.9882859997958,40.7346589999619 -73.9887789998944,40.7339660002465 -73.9884020003262,40.7338069999596 -73.987616000225,40.7334759995774 -73.9871799998806,40.733292000006 -73.9869540002465,40.7336019997072 -73.9866790001224,40.7339779997079 -73.9855450002573,40.7334989997132 -73.9852420000078,40.7333719997173 -73.9847730004549,40.7340119996514 -73.9843470004491,40.7345980001312 -73.9835489994714,40.7342610002163 -73.9844409994495,40.7330330004052 -73.9849409999835,40.7323469997711 -73.9854439997735,40.7316579999892 -73.983077000474,40.7306590001937 -73.9808579997869,40.7297249998995 -73.9813249999569,40.7290860004334 -73.9789979997038,40.7281060003973 -73.9785359994291,40.7287459995574 -73.9780010001172,40.7294289999331 -73.9756960002067,40.7284749996443 -73.9732979994077,40.7274280003202 -73.9720499996829,40.7268810001867 -73.9719769998779,40.7268299999889 -73.9718569994868,40.7267590003134 -73.9713960001703,40.7266620004323 -73.9692929997003,40.7258120002772 -73.9626449994702,40.7227469997284 -73.9620140004027,40.7233689996249 -73.9615430002735,40.7238759996181 -73.9615390003356,40.724401000312 -73.9615380004945,40.7245839997316 -73.9615369996921,40.7246950000229 -73.961550000537,40.7247220000025 -73.9616059994432,40.7248360003447 -73.9616180000771,40.7248610004508 -73.9616110003511,40.7249510003272 -73.9615310001711,40.7259099998893 -73.9615009997402,40.7269860003734 -73.9614359994726,40.7272980003887 -73.9613890002623,40.727524000183 -73.9612830003859,40.7280380003823 -73.9611720005615,40.7280570001157 -73.9611570001232,40.7281140002449 -73.9612150002279,40.7281510001561 -73.9611070004259,40.7281950000292 -73.9610630005846,40.7284400002282 -73.9610550001617,40.728471000128 -73.9610399996938,40.7284899999291 -73.961028000581,40.7285120004324 -73.9609920001503,40.7286559996924 -73.9609859997975,40.7287600003766 -73.9609940003148,40.7287730004123 -73.9610440003931,40.7287820004206 -73.961053999799,40.7289430001025 -73.9610749997366,40.7291070004193 -73.9610799998888,40.7291479995997 -73.9610759994857,40.7291940003239 -73.9610879995055,40.729255999929 -73.9611149997753,40.7293610003137 -73.9611370003247,40.729430000302 -73.9611969999802,40.7294250001489 -73.9612139999934,40.7295080001737 -73.9612599995354,40.7297489998704 -73.9613079996222,40.730298999794 -73.9614500003086,40.7309940003565 -73.9618430005815,40.7316249998119 -73.9619969997246,40.732038000211 -73.9621479997299,40.7324520003744 -73.9618969999991,40.7324850002488 -73.9619319997408,40.732679000016 -73.9622290002736,40.7326490000217 -73.9622519996475,40.7327130000573 -73.962261000589,40.7327409999314 -73.9622680001726,40.7327689998269 -73.9622780000331,40.7328259996277 -73.9622879999798,40.7328990002106 -73.9623070005499,40.7331190002829 -73.9623379995085,40.7334510001822 -73.9623480000917,40.7338120003961 -73.9626050000085,40.734901999733 -73.9626650002358,40.7363340003758 -73.9626680002294,40.7364099999352 -73.9626720005639,40.7364460002453 -73.9626290000997,40.736545000155 -73.9624780002432,40.7368020000755 -73.9626090002452,40.738804999872 -73.9626200005462,40.739033000222 -73.9624410000162,40.7396400003616 -73.96243500021,40.7396720002006 -73.9619109995748,40.7409969999793 -73.9617960001295,40.7411309999832 -73.9616839998124,40.7415819998914 -73.961381000272,40.7428019999435 -73.9612910005211,40.7428940001063 -73.9611830001599,40.7430049999808 -73.9608330002462,40.7436390000932 -73.9605629994444,40.744023999965 -73.9605130003917,40.7441079999447 -73.9602669994588,40.7444279997139 -73.9602109994873,40.7445109996077 -73.9597779999685,40.7451780003054 -73.9597250001691,40.7452609999655 -73.9591930002788,40.7460349997029 -73.9591240001292,40.7461189997388 -73.9587109999408,40.7466350000794 -73.958326999452,40.7470810004261 -73.958216000534,40.7472119996455 -73.9577319995427,40.747774999974 -73.9575840004674,40.7479480003231 -73.9568420000439,40.7488279998041 -73.9561740001799,40.7496649999214 -73.9562000005648,40.7496709995687 -73.9562010002644,40.7496860004019 -73.9561209999945,40.749759999735 -73.9560880000735,40.7497689997123 -73.9560619994207,40.7497639999706 -73.9555320000577,40.7502160000263 -73.9543170003758,40.7512579996553 -73.9539400001782,40.7517460004394 -73.9539939999943,40.7517859998546 -73.953802000158,40.7519579999941 -73.9536789994609,40.7520470004154 -73.9536409997082,40.7520369997733 -73.9529720004148,40.7527469999966 -73.9530090002363,40.7527749995809 -73.9528490000804,40.7529399997031 -73.9526570001225,40.753107000022 -73.9521730004725,40.7537030000904 -73.9520810003211,40.7537569997431 -73.9517789995532,40.7540870002455 -73.9516250001051,40.7542490001733 -73.9513669995899,40.7545240003255 -73.9510180001586,40.7550869999792 -73.9508770005399,40.755167000094 -73.950839999472,40.7552189997911 -73.9507660003779,40.7553129998554 -73.9507349999825,40.7553520000081 -73.9507129999187,40.7553779999947 -73.9506629999555,40.7554359999421 -73.94914999998,40.757328999571 -73.9484450001671,40.7582180000231 -73.9478319994298,40.7589889997539 -73.9459639998171,40.7612929998649 -73.9458060000002,40.7614499996791 -73.9457050004238,40.7614880004036 -73.9447149997202,40.7628790000489 -73.9435029995061,40.7644989999758 -73.9415850002968,40.7666160003338 -73.9413119998931,40.7669179998104 -73.9404630000826,40.7675299998761 -73.9403510002839,40.7676529996362 -73.9398359998513,40.7679880002661 -73.9382039998433,40.7687280000817 -73.9364040004768,40.7694749997092 -73.9353229999819,40.7704849996926 -73.9349560001049,40.771730000367 -73.9374660005551,40.7725039997535 -73.9374660005247,40.7725309996235 -73.9378130003476,40.7735629999133 -73.9378579999481,40.7740879999211 -73.9376550003541,40.7750859998488 -73.9370469997293,40.7758659998893 -73.9363799997415,40.7769210003969 -73.9360889997159,40.7771840002491 -73.935854999509,40.7772119997471 -73.935508999761,40.7775389997144 -73.9350820001057,40.7779440003352 -73.9347439999224,40.778076000352 -73.9344120004817,40.778093000081</coordinates></LinearRing></outerBoundaryIs></Polygon>
  </Placemark>
</Folder>
</Document></kml>
