<?xml version="1.0" encoding="utf-8" ?>
<kml xmlns="http://www.opengis.net/kml/2.2">
<Document id="root_doc">
<Schema name="shape" id="shape">
	<SimpleField name="District" type="string"></SimpleField>
	<SimpleField name="Code" type="string"></SimpleField>
</Schema>
<Folder><name>shape</name>
  <Placemark>
	<Style><LineStyle><color>ff0000ff</color></LineStyle><PolyStyle><fill>0</fill></PolyStyle></Style>
	<ExtendedData><SchemaData schemaUrl="#shape">
		<SimpleData name="District">New York 2</SimpleData>
		<SimpleData name="Code">NY-2</SimpleData>
	</SchemaData></ExtendedData>
      <Polygon><outerBoundaryIs><LinearRing><coordinates>-72.8076439998666,40.6939280002959 -72.807565000575,40.708264000409 -72.807732000577,40.7403189999406 -72.8077480005365,40.7438360003336 -72.8078280003465,40.7496819997273 -72.8078440003334,40.7515199998665 -72.8078450003236,40.7525479996994 -72.8078229994816,40.7527139995762 -72.8078300004351,40.7538589999854 -72.8078980004815,40.7637939998258 -72.8075620005517,40.7647539998859 -72.8073059997534,40.7654900001351 -72.8072740001177,40.7658740002192 -72.8072580001467,40.7659060001091 -72.8072259999291,40.7662900001419 -72.8072259998043,40.7664499998163 -72.8071619998973,40.7669940000712 -72.8071940002509,40.767714000172 -72.8073699995777,40.768721999752 -72.8077379996406,40.7697300000701 -72.8081860000934,40.7706099996813 -72.8087140001977,40.7715540004304 -72.8093060002569,40.7726420002443 -72.8099140003945,40.7737299999066 -72.8103780001733,40.774498000305 -72.810954000393,40.7753459997337 -72.8120259997367,40.77667400044 -72.8122020001861,40.7768659996592 -72.8123150004644,40.7769789995965 -72.8145380004552,40.7792179997196 -72.8189629996118,40.7837669998018 -72.819289999859,40.784102999884 -72.8231029995848,40.7880219997547 -72.8236279995133,40.7885599998596 -72.8262690003466,40.791276999922 -72.8266680003363,40.7916880002936 -72.8279899996267,40.7930460001387 -72.8294340004204,40.7945310002349 -72.8313870002557,40.80235699973 -72.8315480004689,40.8026050001921 -72.8315779997005,40.8026719997431 -72.8319590001996,40.803075000383 -72.8322199994684,40.8035270001817 -72.8324150003253,40.8039409999057 -72.8326689998471,40.8049570000293 -72.8327449994774,40.8057900000818 -72.8328909995682,40.8060829997072 -72.8331109998772,40.8063280000127 -72.8331800002519,40.8064499999359 -72.8336169999442,40.8067839996466 -72.8339669996251,40.8071329998875 -72.8344899994829,40.8075149996648 -72.8349830003289,40.8081919999847 -72.835524000015,40.8097660001073 -72.8357499996617,40.8103860001813 -72.8358980005768,40.8108660003793 -72.8360259994073,40.8114740002744 -72.8366969997852,40.8124350003526 -72.8366059999103,40.8127710003172 -72.8368879998303,40.8135370003593 -72.8368420002217,40.8142579999235 -72.8374379998097,40.8152849996655 -72.8381680004902,40.8157460001664 -72.8383759995757,40.8166920002734 -72.8387960004123,40.8177950001851 -72.8396869997738,40.8187599999033 -72.8399039997091,40.8188609997817 -72.8394589995967,40.8190540001827 -72.8382050000214,40.8195429996033 -72.83754500007,40.8197680004133 -72.8372159998126,40.8198730004125 -72.8374559996209,40.8202290002389 -72.8376189995108,40.8204340002897 -72.8377789998352,40.8207330000733 -72.8380809995493,40.8212300000473 -72.8383290004806,40.8217610003791 -72.838530000098,40.822202999921 -72.8408289999426,40.8219620000357 -72.8411780001443,40.8288490003453 -72.8411979996887,40.8292499998185 -72.8417549994479,40.8294019996054 -72.8422359996672,40.829574000059 -72.8428229995171,40.8298529997867 -72.8435180001011,40.8302450003153 -72.843830999952,40.8303869998616 -72.8439979996511,40.8304440001503 -72.844411000073,40.8305389998844 -72.8448690005894,40.8306389997511 -72.8458439997731,40.8308830001226 -72.846767000479,40.8311529999199 -72.8476530002553,40.83140900027 -72.8479489996522,40.8314699995853 -72.8489199995482,40.831480999658 -72.8493099999598,40.8316259997579 -72.8498280002924,40.8318859997537 -72.8502470000582,40.8320689999065 -72.8507819994081,40.8323119999893 -72.8512019995208,40.8324990002841 -72.8519329998834,40.8328650002178 -72.8522840000645,40.833010999575 -72.8525589995946,40.8331410002223 -72.8531539998744,40.8334339998041 -72.8538720002526,40.8337969999817 -72.853932999584,40.8338349996165 -72.8541839998178,40.8339650001466 -72.8542830000163,40.8339909997432 -72.8546569999725,40.8340219995539 -72.8551529994754,40.8340439998311 -72.8558780004852,40.8340799996726 -72.8560459996569,40.8340449996178 -72.8562590000108,40.8340069995879 -72.8566100002082,40.8339340000044 -72.8570230002046,40.8338579999577 -72.8572819997872,40.8338199998374 -72.8580750001282,40.8337779998004 -72.8585019999618,40.8337780000791 -72.8587619996003,40.8337739998791 -72.8591130000894,40.8337629999017 -72.8595179994942,40.8337399996605 -72.8597990003227,40.8337390000395 -72.8603559996128,40.8338120002955 -72.8608450002661,40.8338690000763 -72.8612730005627,40.8339879996528 -72.8616460005335,40.834068000004 -72.8620739995751,40.8341099998137 -72.8625240004265,40.8341669999428 -72.8629970003661,40.8341979999029 -72.8633469998302,40.8342169997528 -72.8636299997439,40.8342550000334 -72.8650939998649,40.8343770001425 -72.8651479995242,40.8346140002783 -72.8651320004399,40.8347199998362 -72.8651559995394,40.8355600001175 -72.8652620000436,40.838370999825 -72.8653910001061,40.8418010001239 -72.8656509994142,40.8477510000107 -72.8656729999477,40.8487749996236 -72.8656740003365,40.850699999583 -72.8656749995219,40.8509659995873 -72.8658589994521,40.850957000104 -72.8663180005416,40.8509490000114 -72.866929999874,40.8509099997577 -72.8696439995772,40.85080200027 -72.8713909997318,40.8506710002165 -72.8732069999115,40.8504310000267 -72.874473999844,40.8502279997031 -72.8755349995181,40.8500329999398 -72.876417999795,40.8498470004368 -72.8785540005309,40.8493299996692 -72.8801299995552,40.8488789997277 -72.8811849997559,40.8486259997009 -72.8834069995358,40.8480569997876 -72.8842850002229,40.8477599996753 -72.8848269997113,40.8475219996596 -72.8861200003545,40.8469290003654 -72.8867590003467,40.8465610001247 -72.8890809999548,40.8451209999719 -72.8894019998669,40.8449500002217 -72.8898179996602,40.8447460003418 -72.8906819998268,40.8442890000099 -72.8903709998884,40.8439339999169 -72.8901730002119,40.8436980004178 -72.8892129995012,40.8425700000943 -72.8888810003475,40.8421280000059 -72.8883539998107,40.8412260000158 -72.8883020004857,40.8411330000943 -72.8882719994141,40.8410659998808 -72.8882419998153,40.8410130001856 -72.8882309997096,40.8409719997507 -72.8882009995754,40.8409079999639 -72.8878179996234,40.8401300001594 -72.887366000467,40.8391460004573 -72.8871619994589,40.8386999998801 -72.887253999933,40.8386579995973 -72.887295999565,40.8387489999657 -72.8876750000797,40.8395369997069 -72.8880760001225,40.8403300003589 -72.8884799994399,40.8410970000422 -72.8887750005911,40.841610999871 -72.8891360000912,40.8421319998816 -72.8895300003662,40.8426170004083 -72.8902920001834,40.8435039995845 -72.890457999586,40.8437020004395 -72.8905690001876,40.8438289996737 -72.8915519999006,40.8433110001557 -72.891667999417,40.8432400002086 -72.8918690003189,40.8431360001552 -72.8920699994843,40.843024999914 -72.8998649996452,40.838836000289 -72.9029630003343,40.8371689997698 -72.9044530004076,40.8364049999543 -72.9049739997485,40.8361529998541 -72.9053969998114,40.8359549996893 -72.9057920003578,40.8357690001399 -72.9073829998197,40.8350869998338 -72.9082490001078,40.834741999824 -72.9097340003696,40.8341849999374 -72.9112140002605,40.8336939997645 -72.9115650004667,40.8335790000351 -72.9118920000853,40.8334780002548 -72.9133360000283,40.8330720003133 -72.9140460003895,40.8328729996726 -72.9156480002237,40.8324759995695 -72.9171870003158,40.8321620001731 -72.9178890004389,40.8320199999094 -72.9187069997145,40.831873999815 -72.9206379994823,40.8315649997764 -72.9251049997356,40.830840999884 -72.9284149995895,40.8303090001952 -72.9284830002795,40.8302990000038 -72.9304749995696,40.8299779996902 -72.9359739995759,40.8290899999493 -72.9373210003385,40.8288730001892 -72.9378870002969,40.8287829997215 -72.9383730000781,40.8287039995735 -72.9386629996804,40.8286580003074 -72.9447279997111,40.8276800000538 -72.9451810002398,40.8276069999831 -72.947987999926,40.8271620000402 -72.9488119999737,40.8270189997144 -72.950204000187,40.8267730003851 -72.9536680004236,40.8260820001187 -72.9575629999775,40.8252540001503 -72.9576909997544,40.82522600032 -72.9577189994345,40.8255069995432 -72.9580870001098,40.8254180003309 -72.9618210005789,40.824663000086 -72.9619450004098,40.8246420003456 -72.9655340004443,40.8238319999727 -72.9657599994276,40.8237800002699 -72.9658319996111,40.8237660004433 -72.9688029998606,40.8231529999144 -72.9696579994322,40.822975999964 -72.9701349996589,40.8228969995778 -72.971960000242,40.822602999901 -72.9735539994324,40.8223989995488 -72.9740069995643,40.822393000139 -72.9746399995247,40.8223460000252 -72.9751750005512,40.8223270003558 -72.9754550001814,40.8223180000486 -72.9762210004036,40.8222960001083 -72.9763170002357,40.8222910000789 -72.9786810004812,40.8222899998915 -72.981627000543,40.8225900004274 -72.9841599999039,40.8228290000748 -72.9845609995152,40.8228659996868 -72.987018000284,40.8231240000781 -72.9892289997966,40.8233599997277 -72.9896849998682,40.8233960002186 -72.9927389999979,40.8237120003118 -72.9960839999735,40.8239060001629 -72.9964419994638,40.823915999802 -72.9966390003408,40.8239189996274 -72.9976600000246,40.8239380001598 -73.0006130002639,40.8239180000257 -73.0017270003723,40.8238739996325 -73.005143999764,40.8238580001284 -73.0052190004563,40.8238580003008 -73.0061639997839,40.8238430002856 -73.0127380001536,40.8237430001641 -73.0132580002198,40.8237329998539 -73.0150350004415,40.823712000245 -73.0159899997188,40.8236959999875 -73.017031999434,40.8236789998052 -73.018678000225,40.8236359997203 -73.0199160002932,40.8235789998639 -73.0201870004533,40.8235789998727 -73.0201420000304,40.8233080001354 -73.0202739994625,40.8233050001878 -73.0225069996906,40.823167999902 -73.0230850004517,40.8231270001938 -73.0265249998795,40.822835999593 -73.0335699997157,40.8222450002837 -73.0339089997354,40.8222169999764 -73.0370340005165,40.8219549998551 -73.0372959994735,40.8219249997683 -73.0393509996998,40.8217609996511 -73.0418990004747,40.8215440003697 -73.0443789995479,40.8213270004205 -73.0457909996314,40.8211960003096 -73.0456719997918,40.8204099999327 -73.0466570001693,40.8204299998852 -73.0473209996487,40.8205519996458 -73.0471370001513,40.8193659999422 -73.0477249998811,40.8193160000436 -73.0485560004457,40.8192509999623 -73.0494340005348,40.8191750003217 -73.0491209999846,40.8171189999921 -73.0488550004902,40.8151240003677 -73.050616000471,40.8149599995977 -73.0504939996557,40.8140779999857 -73.050409999989,40.8134219995984 -73.0503730000028,40.8131930003677 -73.0505569996588,40.8131759997984 -73.0505330001349,40.8129459997928 -73.0530280002353,40.8127389995884 -73.0533030005276,40.8127139996333 -73.058238000024,40.8122739996999 -73.068613999668,40.8113940002944 -73.0694079996748,40.8113279997651 -73.0723689998217,40.8110730003109 -73.0734740001939,40.8109309998609 -73.0744979995294,40.8108510000116 -73.0762350000011,40.8107179998104 -73.0781859996396,40.8104910002789 -73.0812820002677,40.8102820003324 -73.085464999519,40.8099070001667 -73.0866440004507,40.8098100000379 -73.0906689995219,40.8094590002599 -73.091231999906,40.8094099995567 -73.0967219995438,40.8089129998592 -73.0980350004032,40.808773000105 -73.0995840001655,40.8086280004448 -73.1013759996189,40.8084829996324 -73.1039019996205,40.808287999998 -73.1067709994095,40.8080670003621 -73.1109490004684,40.8077379995577 -73.1109469997652,40.8077149995598 -73.111277000143,40.8076850003581 -73.1138940003973,40.807456000414 -73.1184449996708,40.8070490002416 -73.1184859995837,40.8070409999256 -73.1200210001387,40.8069209996327 -73.1200799997292,40.807636999661 -73.1201300000967,40.8081459999666 -73.1201069998578,40.8083060003858 -73.1201309996799,40.8085900001441 -73.120160999598,40.8088260004082 -73.1201619996534,40.809005000334 -73.1201449998225,40.8093819996745 -73.1201070004807,40.8095349997355 -73.1200999999283,40.8097069998786 -73.1199779995563,40.809973000355 -73.1198559997515,40.8102679995704 -73.1198179998889,40.8104080003152 -73.1197599995573,40.8105589996362 -73.1196120002007,40.8109579996609 -73.1194939998308,40.811447000159 -73.1194880004691,40.8114789999039 -73.1193400001099,40.8119830000099 -73.1192409998376,40.8124910002712 -73.1191889999959,40.8127629999935 -73.1190849997871,40.8132590002728 -73.1189660004253,40.8137400000935 -73.1188359994834,40.8142710001396 -73.1187420000032,40.8146500002531 -73.1186890005348,40.8149360003904 -73.1186479994826,40.8150840001463 -73.1185819997208,40.8153330002494 -73.1183980003031,40.8160389998999 -73.1183509998207,40.8164989997577 -73.1183070001665,40.8172940003064 -73.118252000104,40.8179789998653 -73.1182380003162,40.8181600004438 -73.1182530001241,40.8184729998569 -73.1182769999034,40.818549000252 -73.1184060003955,40.8190230004357 -73.1183900004326,40.819353999695 -73.1182279997245,40.8205519998375 -73.1181490005294,40.8211239999607 -73.1181309999855,40.8213180000722 -73.1180909996588,40.8214260004188 -73.1179179997316,40.8216079995528 -73.1177729994316,40.8217380002314 -73.1179710004918,40.8223710001759 -73.1178260001758,40.822436999566 -73.1170939995741,40.82281799965 -73.1166129995259,40.8239700001118 -73.1172530000424,40.8258439998561 -73.1168770000849,40.8291649997197 -73.1168110004103,40.829755999647 -73.1170439995764,40.8300449996585 -73.1175789998162,40.8305230003923 -73.1179039995034,40.8307750000827 -73.1184180002803,40.8310439995907 -73.1192979998751,40.8314580001992 -73.1214120002635,40.8325449995701 -73.1230739994424,40.8329769998619 -73.1255989999735,40.8323329997133 -73.1263369997991,40.8322750003983 -73.1277059997329,40.8307180001278 -73.1283089997181,40.830194999992 -73.1299120005261,40.8300890001036 -73.1344719999867,40.8298080001324 -73.1351170001125,40.829757000123 -73.1355559994679,40.8297229997667 -73.1364010004814,40.8296630002304 -73.1372419996228,40.8295919997805 -73.1380790005829,40.8295310002635 -73.1385640004135,40.8294679998927 -73.138932999993,40.82947499986 -73.1397739997614,40.8294150001626 -73.1409639999349,40.8293399997642 -73.1410779997965,40.8292360000321 -73.1419800000869,40.8291730003652 -73.1424369995117,40.8291379999401 -73.1428179996057,40.8291159999394 -73.1438409997819,40.8290419997729 -73.1445049997343,40.8289880001916 -73.144667000432,40.8289760002431 -73.1452009997765,40.8289419996143 -73.1456439996205,40.8289340000311 -73.1460709998802,40.8289089996323 -73.1464300004348,40.8289219996125 -73.1485330003681,40.8287799997996 -73.1495949995556,40.8288699997585 -73.1501159999821,40.8287810002484 -73.1535560004178,40.8285560003432 -73.1547099998135,40.8286110002305 -73.1556090005107,40.8285539999075 -73.1560410004329,40.8285210003003 -73.1565189994694,40.8284870003303 -73.1573260004958,40.8284320002483 -73.157885000524,40.8283959999822 -73.1585630000381,40.8283549997628 -73.1588240001807,40.8283360003733 -73.1595470000997,40.828285999603 -73.1605809997831,40.8282160004233 -73.1608990004857,40.8281900001394 -73.161193000023,40.8281739996363 -73.1618409997494,40.8281300003252 -73.1631439997654,40.8280479996764 -73.1655410004658,40.8278740002485 -73.1662009994073,40.8278250003512 -73.1668759994588,40.8277730003878 -73.1675899996859,40.8277149998539 -73.1683109998019,40.8276579996364 -73.168623000443,40.8276319998145 -73.1704099996587,40.8274949995829 -73.1714789994261,40.8274149996015 -73.1752720002267,40.827119999597 -73.1759649997981,40.8270669997145 -73.1769810003111,40.8269950002409 -73.1776029998831,40.8269559995812 -73.1807850005323,40.826758000162 -73.1809730004648,40.8267410004331 -73.1830679999695,40.8266030004059 -73.184049999562,40.8265570003453 -73.184448999787,40.8265110004187 -73.186079,40.8264279996217 -73.1866159998599,40.8263899995692 -73.1873340004769,40.8263510000211 -73.18841700038,40.8262829999264 -73.1891839994639,40.8262309998679 -73.1903169996594,40.8261560003471 -73.1915040000049,40.826086999729 -73.1925140002657,40.826033999904 -73.1949070002761,40.8259200002933 -73.1951840004225,40.8258989997586 -73.1956279997633,40.8258799996797 -73.1969890001694,40.8258199997597 -73.1974559998491,40.8257930001049 -73.1979659997456,40.8257709995877 -73.1998899996875,40.8256649999112 -73.2012149999205,40.825604999788 -73.201761999897,40.8255639998416 -73.2024079995333,40.8255229999769 -73.2028910000644,40.8254819997419 -73.2034390003101,40.8254459995662 -73.2058139999074,40.82531799998 -73.2070499997669,40.8252310000574 -73.2076429996882,40.8251999995694 -73.2076769999652,40.8251869999283 -73.2088859997997,40.8251360002206 -73.2091629994754,40.8250950001008 -73.2094390001405,40.8250310002342 -73.2101839995966,40.8248040002874 -73.2102549998701,40.8251530002794 -73.2109769995712,40.8250060001833 -73.2112780000895,40.8249690001253 -73.2130789998662,40.8248349999628 -73.2147200001506,40.8247310000138 -73.2157810004177,40.8247410001012 -73.2173749994704,40.8247679996577 -73.2175199997764,40.8247669996344 -73.2184329999097,40.8247410002951 -73.2198279997998,40.8246509999334 -73.2211419997314,40.8245559996557 -73.2221950003728,40.8244899998159 -73.222635999646,40.8244620000072 -73.2230430001025,40.824433999866 -73.2241659997608,40.8243590004259 -73.2253059999075,40.8242930000675 -73.2254240002723,40.8243069997334 -73.2259449995288,40.8242990004251 -73.2267889997835,40.8243119999957 -73.2272679999209,40.8241740003495 -73.2277959997515,40.8240240000519 -73.2286750004315,40.8238710002895 -73.2289810005071,40.8238170003894 -73.2293989999496,40.8237200003499 -73.2297389995625,40.8236700001105 -73.2301050001517,40.8196290002029 -73.2301539997784,40.819084000145 -73.2301799994658,40.8186830003363 -73.230194999421,40.8184659998299 -73.2305229998814,40.8136200004477 -73.2305320000345,40.8134729999213 -73.2305450005261,40.8133449998632 -73.2306669995697,40.8121930000951 -73.2306990004576,40.8118939999309 -73.2307310001902,40.8115359997799 -73.2309509996955,40.8088340002061 -73.2326050002272,40.8086990003234 -73.2337819996356,40.8084899998739 -73.2353939996139,40.8083149999385 -73.2378060004313,40.807954999967 -73.2409359998321,40.8077649998129 -73.2419309996834,40.807705000149 -73.2467970003527,40.8073539996316 -73.2488609999586,40.8071879996923 -73.2490160002458,40.8072789996326 -73.2519279997309,40.8070739997645 -73.2555950000853,40.8068440004165 -73.2580740002065,40.8066909998029 -73.2693869996892,40.80580699963 -73.2699360003057,40.8057799996269 -73.2750139996879,40.8054690001123 -73.2754670000188,40.8054420000666 -73.2746590004951,40.8050699996649 -73.2799629998113,40.8051530003253 -73.2801920003411,40.8051570003269 -73.2805290003873,40.8051709998148 -73.2809369994417,40.8051699997716 -73.281264000346,40.8051109999427 -73.281456000197,40.8050779999672 -73.2814720000871,40.8048029996655 -73.2814889994624,40.8045589997721 -73.2838659998602,40.8045830001941 -73.2861860001036,40.8046060002574 -73.2871549994818,40.8043489996304 -73.2878060000502,40.8044460001373 -73.2899149996172,40.8043909999656 -73.2925710002412,40.8041599996398 -73.2945680005734,40.8039869997282 -73.2946520000851,40.8039829998671 -73.2947590003098,40.795257000373 -73.2947610002926,40.7950979996564 -73.2947929999067,40.7949780001037 -73.2947819999294,40.7949010004274 -73.2946520002147,40.7946960003328 -73.294834000115,40.7895529996455 -73.2949069996246,40.7870699997572 -73.2949109995122,40.7868759999549 -73.2949190002938,40.7858919998588 -73.2949570003789,40.7849949998063 -73.2949640004183,40.7847959998077 -73.2949660001067,40.7842969996645 -73.2951060002904,40.7842660004263 -73.299929999888,40.7832019995965 -73.3001699996163,40.7831699995941 -73.3012900000994,40.7827849998059 -73.3015620002506,40.7826979995782 -73.3057539999538,40.781825999554 -73.3086820002269,40.7812819998447 -73.3099349996859,40.7808639998268 -73.3102860004261,40.7807520003791 -73.3103940002681,40.7807089997586 -73.3104659995859,40.7806040003205 -73.3106619998631,40.7805980003934 -73.3124620002675,40.7802979996364 -73.3132620003389,40.7802980002755 -73.3133430001631,40.7802689996044 -73.3143160002399,40.7798220001504 -73.3148960005586,40.7797879997347 -73.315058999551,40.7798070002302 -73.3152140005313,40.7797750001791 -73.3153649998636,40.7797359999164 -73.3156770004022,40.7796029996125 -73.3157899999044,40.7795520002265 -73.3166139994547,40.7792200000479 -73.3176009994537,40.7791080000211 -73.317934000411,40.7790709999774 -73.3204330004335,40.7783790001373 -73.320834000439,40.778218999865 -73.32506199975,40.7773170000532 -73.3260940004037,40.7770980003515 -73.3268220001427,40.7769419997935 -73.3317649994926,40.7758710004261 -73.3325629998787,40.7756980001223 -73.3332429999134,40.775512999708 -73.3339319997236,40.7753250003416 -73.3340509994086,40.775291000145 -73.3343019995671,40.7752239996088 -73.3347629996865,40.7750979996608 -73.3349129996134,40.7750710002562 -73.3349650001946,40.7750660000214 -73.3352460001746,40.7750130000638 -73.3364629994863,40.7747979996975 -73.3374839997023,40.774498 -73.3375819998649,40.7744719998309 -73.3382649995755,40.7742950002691 -73.339230000485,40.7740650004402 -73.3393150005092,40.7740469999505 -73.3399410004711,40.7739239999962 -73.3406699999954,40.7737830000028 -73.3425160005537,40.7732610002328 -73.3426920004917,40.7732180001957 -73.3432850002967,40.773076000043 -73.3434350002764,40.7730410002777 -73.3445259996875,40.7727790001541 -73.3446640001916,40.7727470001312 -73.3454119998113,40.7725769998347 -73.3458839996877,40.7724709999601 -73.3511400004711,40.7713029999111 -73.3545299999762,40.7705500004239 -73.3548649996975,40.7704720001014 -73.3595080005014,40.7694029996099 -73.3596009995724,40.7693880002244 -73.359850000326,40.7693239996951 -73.3601900005068,40.7692450000667 -73.3608060005705,40.7691030002327 -73.3609699997822,40.7690660000903 -73.3637190003715,40.7683140002617 -73.3637259998898,40.7683230003884 -73.3638180004048,40.7682850002757 -73.3644610001562,40.7681060000893 -73.3655639999165,40.7677980000735 -73.3655930004797,40.7678099997615 -73.3659849997304,40.7678900001142 -73.3660440004001,40.7679059998606 -73.3661359996649,40.7678790003086 -73.3666109994126,40.7677530003049 -73.3674970003191,40.7675149999065 -73.3676490003919,40.7674720003293 -73.3684930001664,40.7672439995717 -73.3686609994652,40.7672030003807 -73.3693580005679,40.7671090003575 -73.3693849996977,40.767058999862 -73.3696380002789,40.7670279996057 -73.369964000218,40.7668980001445 -73.3704490002961,40.7668050004409 -73.3727600001431,40.7663599998959 -73.3731669997439,40.7662809996191 -73.3737080004998,40.7661780003115 -73.3798390003453,40.7648239996563 -73.3838930001225,40.7639290002549 -73.388603999693,40.7628879998861 -73.3902449998506,40.7625309997283 -73.390864999645,40.7623979997017 -73.3916250004262,40.7621909999621 -73.3925649997875,40.7619260002116 -73.3926649995184,40.7618989998507 -73.3929650004178,40.7618989998494 -73.3985520000855,40.7605320000923 -73.4024079994466,40.7595870003258 -73.4027700002008,40.7594989998988 -73.4030419995298,40.7594339997751 -73.4034340001805,40.7593420003016 -73.4049160002586,40.7589929998732 -73.4057369999179,40.7587989999666 -73.4066050004348,40.7585950001939 -73.4140929998772,40.7568339999411 -73.4146659994462,40.7566990002205 -73.4149130004912,40.756651999614 -73.4152480002015,40.7565780000534 -73.4218659997997,40.7551989998455 -73.4222770003084,40.7551000001886 -73.423741999561,40.7547529996065 -73.4239310002636,40.7547069996918 -73.4297019994642,40.7533229998081 -73.4328889995286,40.7525580000697 -73.4330150001569,40.7525279999614 -73.4331630001708,40.7524980002761 -73.4343699995239,40.7522579999156 -73.4351669999637,40.7520989999713 -73.4368670000119,40.7515989996265 -73.4385000004023,40.7513109997247 -73.4386170002351,40.7512869998912 -73.4382389995994,40.7490399997127 -73.438180000463,40.7487160002348 -73.4380250005055,40.7478139997292 -73.4378519995116,40.7469079997187 -73.4376450005786,40.7458060003411 -73.4369899997995,40.7423340003445 -73.436945000481,40.7420850003707 -73.4368170003298,40.7414209997129 -73.4366829996024,40.7406270003376 -73.4364980001581,40.7396120002889 -73.4362870005063,40.7384970002859 -73.4361920004148,40.7379790003053 -73.436010000168,40.7370280003003 -73.4358780004216,40.7363230001109 -73.4357120005189,40.7354550002833 -73.4356470003185,40.7350840004247 -73.4355819998203,40.734634999838 -73.4355810001777,40.7346020002427 -73.4355349997131,40.7345600003835 -73.4354930002557,40.7343340002254 -73.4352800005755,40.7332010001157 -73.4352080001995,40.7328259999461 -73.4349759996991,40.7315879999899 -73.4347700004474,40.7305329995901 -73.4346310003035,40.7297899996928 -73.4345209994548,40.72919100009 -73.4343829998199,40.7284610003939 -73.4341669996874,40.7273230003425 -73.433922999459,40.7260449995486 -73.4338770003013,40.7257569996427 -73.433747999743,40.725074000355 -73.4337240005567,40.7249389999023 -73.4334710004317,40.7236129999051 -73.4334380000893,40.7234369999322 -73.4331120005619,40.7217100002879 -73.4328040003649,40.7200710004363 -73.432587999931,40.7189000001186 -73.4325240002763,40.718584999748 -73.4324049999025,40.7179409998844 -73.4322279997791,40.717085999931 -73.4320200000846,40.7158849996464 -73.4319819995821,40.7156899995606 -73.4318230001547,40.7148289997299 -73.4316350000754,40.7138780002388 -73.4315480002325,40.7133589999395 -73.4314409999948,40.7128260001484 -73.4313259994759,40.7121570003884 -73.4311869995748,40.7114790002497 -73.4310810002005,40.7108740003932 -73.4309800002363,40.7103150001766 -73.4308249996178,40.7095089999286 -73.4305700003983,40.7082780000067 -73.4302959998317,40.7067520002326 -73.4302900002176,40.7067309998225 -73.4302869999468,40.7066150002288 -73.4303970005756,40.7065869998502 -73.4304730005611,40.7065709998218 -73.4307420005716,40.7065310003734 -73.4311059994807,40.7064539997032 -73.431756000407,40.7063419996592 -73.4319880001017,40.7062860004479 -73.4322040000664,40.7062459999696 -73.4332980001788,40.7060639997358 -73.4347979994869,40.7058139997389 -73.4354479995062,40.7057179998746 -73.4360100004667,40.7056500003482 -73.4367190005085,40.7055649999792 -73.4372430003582,40.7055129998317 -73.4375420003646,40.7054839996319 -73.438725999857,40.7053909996098 -73.439664000305,40.705334999744 -73.440326000346,40.7053059996914 -73.4410350003924,40.7052870001189 -73.4418949998012,40.7052720003568 -73.4430690003989,40.705275000342 -73.4430650002747,40.7051529997105 -73.4430569999583,40.7050329998844 -73.4429369999119,40.7047519998915 -73.4428680000865,40.7045289998037 -73.4437929995202,40.7045200001426 -73.4498149999345,40.705169000212 -73.4507450004723,40.7056079998104 -73.4507189999191,40.7058490003342 -73.4506889996904,40.7063920002323 -73.4514430003055,40.7067940003729 -73.4514369998398,40.7068569997865 -73.4517509994448,40.706941999743 -73.4520789999236,40.7070360002484 -73.4522799996391,40.7071169996228 -73.4525250003373,40.7072329999451 -73.4526470000608,40.7073029997801 -73.4528329996787,40.7074270004186 -73.4530269995575,40.7075839996327 -73.4531269996404,40.7076839995633 -73.45334199962,40.7079030002896 -73.4535200001589,40.7080230001839 -73.4535930003456,40.7080820001335 -73.4540890000695,40.7086130004447 -73.4543430004302,40.7089000003049 -73.4548500002192,40.7095060000766 -73.4554960004632,40.7103550001017 -73.4558209996475,40.7108169995915 -73.4563730002167,40.7116869997785 -73.4567499994241,40.7123370004155 -73.4569839998989,40.7127769996198 -73.4573819995573,40.7136129999485 -73.457625999534,40.7141849997038 -73.4578590001181,40.714790000283 -73.458076999995,40.7154500003388 -73.4581859996049,40.7158789997656 -73.4582769998938,40.7161760003121 -73.4584180001581,40.7165199995887 -73.4584930005483,40.7166710003694 -73.4586950004162,40.7171109999809 -73.4589510005482,40.717562000441 -73.4591830002831,40.7179200000365 -73.4594359996807,40.7182760004064 -73.4599159996083,40.7178410001299 -73.4601110005602,40.7177229996237 -73.460170000419,40.7176809997355 -73.4602779998208,40.7176259998372 -73.460540000584,40.7174669998584 -73.4610450005291,40.7173959997425 -73.4612780003323,40.7173480003349 -73.4614750002359,40.7173330003893 -73.4615470002928,40.7173410001045 -73.4621110005202,40.7173380000219 -73.4639529999493,40.7173250001018 -73.4646320004429,40.7173210004464 -73.4654750001816,40.7173170002237 -73.465930000169,40.7173119997219 -73.4679149998267,40.7172959998516 -73.468436999687,40.7172930003972 -73.4698980003429,40.7172799996656 -73.470175999856,40.7172809997107 -73.4713769995069,40.7172709995613 -73.4718789997622,40.7172659999623 -73.475010999953,40.7172389996942 -73.4760249996622,40.7172159998877 -73.4762659996247,40.717210999868 -73.4765619997908,40.7171880000257 -73.4768720003983,40.7172019998143 -73.477550999987,40.7171759999232 -73.4781969995887,40.7171620003237 -73.4800749996215,40.7171130001171 -73.48245000031,40.7170270004218 -73.483498999809,40.7170280001992 -73.4834720003723,40.7167770001918 -73.4834209998301,40.7164140001309 -73.483391999668,40.7162229999797 -73.4833699998767,40.7161259996678 -73.4831830000611,40.7155239999683 -73.4831450000271,40.7154229995639 -73.4828049994789,40.7142509999009 -73.4827850001989,40.7139550001647 -73.4827650002843,40.7137520002664 -73.4827410005483,40.7136309999617 -73.4827259996119,40.7135760004024 -73.4827279997527,40.7134339996452 -73.4827039998551,40.7131920001343 -73.4827109998128,40.7131149998898 -73.4827230000379,40.7128219998247 -73.4826830001196,40.7127770004164 -73.4826220002358,40.7122040004158 -73.4831589995524,40.7121729995984 -73.4832890004823,40.7121740000452 -73.4834209996088,40.7121639996492 -73.4838380000757,40.712153999655 -73.4840830000354,40.7121140001129 -73.4842660000488,40.7120720003321 -73.4844159995237,40.712028000379 -73.4845309999519,40.7120089996834 -73.4854479999643,40.7119119997645 -73.4855310004383,40.7119090001094 -73.4856290001081,40.7118849999741 -73.4859030000073,40.7118500000837 -73.4862099997486,40.7118550000644 -73.4862070005375,40.7114800000616 -73.4860349994413,40.7105080004234 -73.4856249998286,40.7105539998178 -73.4853419997982,40.7091339997753 -73.4853980004083,40.7086940003695 -73.4852569999172,40.7084290000159 -73.4853330004827,40.7082499996996 -73.4852770000327,40.7077039998865 -73.4850679998232,40.7071000003538 -73.4847699995148,40.7056769997903 -73.4846730004692,40.7052210001969 -73.4846270000795,40.7051220003133 -73.4846090002688,40.7048869997515 -73.4843549998143,40.703551000311 -73.4842640004751,40.7030690002145 -73.4842450004079,40.7027660003991 -73.4842210002207,40.702522999961 -73.4843760005286,40.7022189998289 -73.4843240003116,40.702060999982 -73.4840779997655,40.7018460002222 -73.4840730004243,40.7017930004081 -73.484020000251,40.7015319998079 -73.4839659996739,40.7012489996489 -73.4838949998778,40.7007539998848 -73.4838299998354,40.7004139997016 -73.4837280005267,40.6997380000462 -73.4836439999322,40.6994189996185 -73.4834479995218,40.6984819996314 -73.4832749994773,40.6976799997621 -73.4833090004501,40.6976189995883 -73.4832880002945,40.6970520002868 -73.4831859995923,40.6970120001528 -73.4830469996797,40.6963129999491 -73.4829060001272,40.6954599999404 -73.4828490001901,40.6952629999801 -73.4827460000122,40.6951880001302 -73.4825919995967,40.6950009996227 -73.4829479996354,40.6949219998945 -73.4829060001128,40.6947129999473 -73.4827729994937,40.6946549998042 -73.4826060000477,40.693834999662 -73.4822369999039,40.6920160002039 -73.4820899999193,40.6912870002301 -73.4820250003609,40.6908850002698 -73.4819409997103,40.690228999835 -73.4818339994744,40.68958799998 -73.4816580004103,40.6882959996705 -73.4815760005455,40.6858169995932 -73.4815040005343,40.6844949996129 -73.4814770004565,40.6837909998993 -73.4815500003591,40.6811960000142 -73.482067999522,40.67869999964 -73.4820689994072,40.6772100003148 -73.4820680003091,40.6760989997952 -73.4819959996042,40.6752789998887 -73.4819709995351,40.6749250002961 -73.4823689997829,40.6735999997532 -73.4821669994116,40.6732009998855 -73.4816690005876,40.6722000000079 -73.4819210005139,40.6715439998317 -73.4821689998779,40.6709000003802 -73.4820719996657,40.6696440003983 -73.4823689997165,40.668899999633 -73.4810689996485,40.6676009997772 -73.4820760001052,40.6667940001773 -73.4822010004678,40.6663019999796 -73.4822130002813,40.6661210003565 -73.4823319995911,40.6653430000373 -73.482901999424,40.6649080000695 -73.4831119996466,40.6646100001384 -73.4831420005405,40.6643130003159 -73.4838609999059,40.6633280002913 -73.4842440002815,40.6621390003908 -73.4843689995046,40.6617499998993 -73.4853889995497,40.6608789998656 -73.4859619999078,40.6601370003116 -73.4859890003406,40.6601009996583 -73.4863460003413,40.6594649996582 -73.4864380002867,40.6593000001937 -73.4867080002616,40.658590000117 -73.4869450005475,40.6576950003631 -73.4870359994648,40.6573540002845 -73.4870339994422,40.6564969995847 -73.4870339998274,40.6559479997529 -73.487032999979,40.6555700002904 -73.486385999536,40.6552460001228 -73.4860830005177,40.6549890002729 -73.4858560001307,40.6547160004515 -73.4857750001383,40.6543779997868 -73.4859199996736,40.6541090003564 -73.4863749996176,40.6535459997888 -73.4859479996171,40.6533520001744 -73.4858880002098,40.6529859996764 -73.4860670005235,40.652414000364 -73.486126000048,40.6518190000625 -73.4856130000543,40.6503549996753 -73.4858759998397,40.6499329995786 -73.4865419996421,40.648866999808 -73.4846469995293,40.6487799996311 -73.4847990004534,40.6481369998629 -73.4849189995197,40.647999999894 -73.4854570002542,40.6464890002875 -73.4854569998245,40.6462139999948 -73.4852460004579,40.6460549998206 -73.4849430003419,40.6450519996334 -73.4849629995516,40.6413690001356 -73.4848660000713,40.6378789996561 -73.4848690004335,40.6364399999435 -73.4848729995814,40.6350209997756 -73.4849109996548,40.6282420004079 -73.4849779996832,40.6237659996829 -73.4850399998178,40.622334999976 -73.484973999519,40.6213179998446 -73.484870999926,40.6195389996204 -73.4848990000809,40.6175029997087 -73.4848400001321,40.6174099998413 -73.4849750001663,40.6140819996422 -73.4843750004427,40.6078950001872 -73.4848940000634,40.6061930002622 -73.4848419996075,40.6045240003945 -73.4848270002225,40.6002499995713 -73.4848599999731,40.5989910000709 -73.4849359996333,40.5968529996127 -73.4848659999619,40.5896860003316 -73.4847939999792,40.589698999794 -73.4843899999599,40.5526809998225 -73.4849459995234,40.520920999842 -73.4709800002842,40.5246640000039 -73.4655969999083,40.5261069996304 -73.4412150000252,40.5317089998966 -73.4253100002521,40.534265000312 -73.4063839998706,40.5373099998039 -73.3785189997342,40.5457129996033 -73.3436879995126,40.5541159998935 -73.3262720001699,40.5569159999583 -73.3123400002037,40.5541149998433 -73.291440999783,40.5513139996943 -73.2740250001278,40.5513139996522 -73.2645239998105,40.555696999966 -73.2496420004429,40.5625650000664 -73.2495620004535,40.5625650001253 -73.1245579996245,40.5983660002102 -73.1202079996168,40.5994070003736 -73.1120909999571,40.6013510002323 -73.1033450003112,40.6033959999107 -73.0953010001129,40.6052730002349 -73.0851489998866,40.6070129996749 -73.0791280000925,40.6083530002879 -73.0720070003712,40.6097580002019 -73.0640930000159,40.6116669997141 -73.0593449997326,40.6128720000568 -73.0541569996981,40.6141769998358 -73.0511239994708,40.6148799999147 -73.0454520001453,40.616283999679 -73.0389869997076,40.6178889995683 -73.0320839994639,40.6195280001667 -73.0257059999093,40.6216359996542 -73.0140439997258,40.6250869999878 -73.0140039995813,40.6250989996367 -72.8745420000137,40.6750189999714 -72.8491169997276,40.6815959998099 -72.8286069999061,40.6869010002743 -72.8076439998666,40.6939280002959</coordinates></LinearRing></outerBoundaryIs></Polygon>
  </Placemark>
</Folder>
</Document></kml>
