<?xml version="1.0" encoding="utf-8" ?>
<kml xmlns="http://www.opengis.net/kml/2.2">
<Document id="root_doc">
<Schema name="shape" id="shape">
	<SimpleField name="District" type="string"></SimpleField>
	<SimpleField name="Code" type="string"></SimpleField>
</Schema>
<Folder><name>shape</name>
  <Placemark>
	<Style><LineStyle><color>ff0000ff</color></LineStyle><PolyStyle><fill>0</fill></PolyStyle></Style>
	<ExtendedData><SchemaData schemaUrl="#shape">
		<SimpleData name="District">New York 13</SimpleData>
		<SimpleData name="Code">NY-13</SimpleData>
	</SchemaData></ExtendedData>
      <Polygon><outerBoundaryIs><LinearRing><coordinates>-73.931800999433,40.8078760001428 -73.9318250005364,40.8079019996381 -73.9321119999592,40.8081819998057 -73.9323459996878,40.8085860000099 -73.9324769995453,40.808863999688 -73.9325699997677,40.8092559999813 -73.9325860002148,40.8096759999654 -73.9326149997244,40.8100150003926 -73.9326300005475,40.8106060002278 -73.9326049998908,40.8115170003269 -73.932602000354,40.8119879996283 -73.9324929999092,40.812883999974 -73.9324249998682,40.8135659999598 -73.932417000103,40.8140249997065 -73.932409999561,40.8140599997307 -73.9323900005113,40.8142540002643 -73.9323680005659,40.8143989996453 -73.932364999408,40.8145909999768 -73.9323329995551,40.8149230001481 -73.9323330002499,40.8150999996989 -73.9322629999075,40.8180020003898 -73.9323330004552,40.8196539997429 -73.9324009996692,40.821192999931 -73.9324250000254,40.8215609998244 -73.9324679996887,40.8222030004203 -73.9324909996815,40.8225539995524 -73.932519999967,40.822800000449 -73.9325379998687,40.8230510000325 -73.9325669999341,40.8232500001655 -73.932567999471,40.8234880002101 -73.9325910004996,40.8236659996509 -73.9326320005152,40.8241339999679 -73.9326429998478,40.8243560001006 -73.9327189994622,40.8251159997552 -73.9327280004773,40.8251830001581 -73.9327359996948,40.8252899997776 -73.9327489994695,40.8253859997011 -73.9327490005371,40.8254920001707 -73.9327809995231,40.8257149998576 -73.9327929998833,40.8258299998004 -73.9328130004077,40.8259410002041 -73.9328250003606,40.826078000161 -73.9328979997995,40.8265579997797 -73.9330029998539,40.8276760004318 -73.9330210002175,40.8278340000791 -73.9330470002982,40.8279949995981 -73.9330620000445,40.8282019999347 -73.9330739996959,40.8282749996001 -73.9331399999513,40.8286290002469 -73.9331600003062,40.8288860003978 -73.9331819996133,40.8289850003267 -73.9331929996874,40.8291610003757 -73.9332630000132,40.8295040000548 -73.9334169999458,40.8313770003866 -73.9334590002477,40.8331840004484 -73.9331440002476,40.8348150003875 -73.9330059999812,40.8356789996608 -73.9306059997513,40.8396789999987 -73.9304060000005,40.8402790001159 -73.9303679998484,40.8406499997082 -73.9300390003494,40.8412500000076 -73.9297270005135,40.8418490003603 -73.9295790002135,40.8420469995836 -73.9296950000477,40.842194999723 -73.929635000018,40.8422559999994 -73.9295030005297,40.8423809996476 -73.9290059994266,40.8440790002633 -73.9281499998977,40.8455069997051 -73.9281059996994,40.8455790000503 -73.9280320003064,40.8456700001458 -73.927397000017,40.846435999599 -73.9272959995645,40.8465569996206 -73.925036000469,40.8491799999216 -73.923903999858,40.8504880000286 -73.9233049997205,40.8503409997551 -73.9228099996097,40.8502209996694 -73.9224199999498,40.8501230000714 -73.9222880005114,40.8502770004396 -73.9216330003459,40.8500569996627 -73.9212819999666,40.849992000376 -73.9203189997971,40.8498040002279 -73.9212779994927,40.8486480000071 -73.9204819999442,40.8482640004378 -73.919679999605,40.8479020003631 -73.9192410002248,40.8484230000013 -73.9184089996811,40.8494399996343 -73.9172859998297,40.8491889997487 -73.9160509994349,40.8500429995888 -73.9161270004944,40.8490059997911 -73.9161420004838,40.8488780003315 -73.9161740005842,40.8482889999536 -73.9144260000626,40.847964000122 -73.9139680001139,40.8486090000221 -73.9128750003349,40.8501250001703 -73.9127310005755,40.850170000178 -73.9124820004344,40.8503779996063 -73.9122909998555,40.8506100001791 -73.9122120000545,40.8507809998924 -73.912171999656,40.8509429996944 -73.9121130000799,40.851091999767 -73.9119469996307,40.8513529997128 -73.9118440000162,40.8514450002507 -73.9115359996761,40.8516919997048 -73.9114529997917,40.8517399996246 -73.9113220003975,40.8518049999036 -73.9110250000885,40.8519059999622 -73.9107769999431,40.8519390003119 -73.9101750001117,40.8519829997374 -73.9098640005738,40.8519579996986 -73.9095309996539,40.8519019997834 -73.9092149999391,40.8518009996148 -73.9084179996137,40.8526439999236 -73.907333000051,40.8538160000691 -73.9055700001531,40.8557870000798 -73.9052220005807,40.8562039996717 -73.9043049996348,40.8558880001001 -73.9036149998115,40.8570209997825 -73.9027790004611,40.8567339997194 -73.9017620000432,40.856387999654 -73.9009389999347,40.8577590001566 -73.9001379996068,40.8574849998566 -73.8997769997493,40.8573609998884 -73.8990670005773,40.857118999786 -73.8981719994053,40.856812000394 -73.8981039998917,40.8567879996838 -73.8973069997899,40.8565100002986 -73.8972629996714,40.8563299998688 -73.8972349999614,40.8563819996667 -73.8968740001939,40.8570610004385 -73.8961970001182,40.8567929997008 -73.896125999688,40.8569150004458 -73.8958260004907,40.8570260000049 -73.8958710003568,40.8570929997183 -73.8958829994314,40.8572019996204 -73.8958229999353,40.8573220002538 -73.8955569997076,40.8577449998924 -73.89550900021,40.8578290004094 -73.8955090001252,40.8579130002323 -73.8955809994177,40.8580219999657 -73.8957400001682,40.8581389995666 -73.8946939997412,40.859425999594 -73.8940419999673,40.8602789998663 -73.8932149996175,40.8598740003084 -73.8925630000747,40.8605230002236 -73.8924279997428,40.8606570000633 -73.8914470004558,40.8616339998731 -73.8912920003449,40.8617650000601 -73.8901049994123,40.8626159998613 -73.8894529998794,40.863091999818 -73.8881220002681,40.8642550002975 -73.8868329997434,40.8653900001453 -73.8859369997965,40.865924000265 -73.88528300001,40.8663009999748 -73.8851400001887,40.8663830003958 -73.8844290004756,40.8668009999358 -73.8836250004667,40.8672580002983 -73.8828429997614,40.8677359998938 -73.8818409995036,40.8683700003117 -73.8814689995688,40.8685729997532 -73.8803749994177,40.8691939996863 -73.8806949994158,40.8698199997302 -73.8809109994955,40.8704880002783 -73.8811420004308,40.8708440003586 -73.8813939995106,40.8712080002138 -73.8817540005843,40.8723489995862 -73.8824700002152,40.8721279999768 -73.8829570000276,40.8730519999354 -73.8833999997082,40.8739469995826 -73.8834399997708,40.8747939996743 -73.8834359994664,40.8753839998226 -73.8834239999877,40.8757420004471 -73.8838300003343,40.8767830003633 -73.8847099998509,40.8782950001307 -73.8846049995274,40.8783539998825 -73.8844709999732,40.8783589996545 -73.8843039996281,40.8783429999423 -73.8841119995024,40.8782639999027 -73.8842289995484,40.8787219998218 -73.8843320001994,40.8793399998783 -73.8846610004124,40.8797489997024 -73.8852650004274,40.8792279996084 -73.8856560004582,40.8788899997661 -73.8857739997425,40.879599999896 -73.8858260003207,40.8799080001045 -73.8859359995166,40.8804810001555 -73.8870110003694,40.8824719995956 -73.8869669998485,40.8828140000422 -73.8872470001764,40.8828440004073 -73.8875729999998,40.8829060003503 -73.8878320000282,40.8829060003836 -73.8880970001267,40.8828550002422 -73.8886349998687,40.8827650002404 -73.8904249994583,40.8825099998897 -73.8888960002565,40.8845040003799 -73.8898469997094,40.8846849997096 -73.890805999447,40.8848680004063 -73.8917660004351,40.8850500001493 -73.8928860000861,40.8852639999516 -73.8945289999777,40.8855039996545 -73.8947240001091,40.8855570000058 -73.8947839998633,40.8854310002582 -73.8949220002031,40.8853520004033 -73.8951450001006,40.8853520002976 -73.8953909994586,40.885362000233 -73.8957539995924,40.8853160000518 -73.8960009997064,40.8852619997723 -73.8962229998579,40.8851960004165 -73.8964280000549,40.8851170004039 -73.8965960000794,40.8850090000196 -73.8979670003063,40.8840340004065 -73.8984649995595,40.8843250002078 -73.8976259997642,40.8851520000663 -73.8965799994541,40.8859379997485 -73.8973830004388,40.8860870002716 -73.8982589997794,40.8853060002674 -73.8989589998003,40.8845919997257 -73.8996890003479,40.8839589997302 -73.9010429996479,40.8843710004173 -73.900647000329,40.8850990002095 -73.9010140003955,40.8851860003091 -73.9011890005758,40.8852470001977 -73.9013660000406,40.885325000184 -73.9015399996427,40.8854220002014 -73.9016920001114,40.8855259996929 -73.9017939999355,40.88561000033 -73.9033090002109,40.8843010003566 -73.9040170003865,40.8847719999287 -73.9047209997176,40.8852419995816 -73.906474999848,40.8837319999938 -73.9080119996766,40.8824000003378 -73.9093359994215,40.8813460003753 -73.9102699996179,40.8807350003692 -73.9105369999678,40.8805690004296 -73.9104759994939,40.8803270001768 -73.9104490004599,40.8802380000259 -73.9103050001823,40.8800520004406 -73.9096779997186,40.8795150001885 -73.9101029995564,40.8792000003848 -73.9103099996986,40.8790470002094 -73.9114050003284,40.8792780004226 -73.9122049997429,40.8781779996513 -73.9149049997889,40.8765780001633 -73.9151249999949,40.8758449999734 -73.9151999995426,40.8755810004179 -73.9173090002981,40.8760369998335 -73.9189319998963,40.8763879998654 -73.9198079997651,40.8765769997008 -73.9216300000259,40.8783210003574 -73.9226019998317,40.8787790001977 -73.9245030005626,40.8789739996202 -73.9246500004759,40.8790379998606 -73.9249739997295,40.8791440003439 -73.9337879994303,40.8822069998735 -73.9339069996963,40.8820119996292 -73.9381180005252,40.875134000455 -73.938353999691,40.8747490002348 -73.9389089997928,40.873842000231 -73.9389460000477,40.8737829999416 -73.9429529995408,40.8672369999734 -73.943042000586,40.8670920004068 -73.945783000508,40.8626150002166 -73.9458399994671,40.8625199996915 -73.9458849994701,40.8624480000949 -73.9482920004468,40.8585169997157 -73.9483360003419,40.8584459998019 -73.9488219998495,40.8576510000766 -73.9523970003419,40.85181200012 -73.9524860001275,40.851666000039 -73.9528289994544,40.8511059996563 -73.9539880002292,40.8484679997857 -73.9541939997692,40.8480030003391 -73.9543120004644,40.8477320000346 -73.955660999781,40.8446610001101 -73.955726999561,40.844510000271 -73.957795999857,40.8398009997439 -73.9580190000414,40.8392920002801 -73.9587049995895,40.8377320001739 -73.9588240004274,40.8374620000145 -73.9600859997517,40.8345869999947 -73.9601359998094,40.8344740004437 -73.9612109998663,40.8320270001979 -73.9613289998455,40.8317589996688 -73.9616459999955,40.8310360000495 -73.9616800005687,40.8309610004183 -73.9624629997475,40.8291769995705 -73.9625850004258,40.8289009999857 -73.9626539995608,40.8287419998745 -73.9635770004647,40.8266419999023 -73.9650199999911,40.8246659999418 -73.9651700004058,40.8244599998034 -73.9655919999722,40.8238829996841 -73.9664700003419,40.8226800003705 -73.9665630002892,40.8225530003176 -73.9678030001094,40.8208539997371 -73.9678940000184,40.8207310001667 -73.9706929999364,40.8168970003631 -73.9711230001755,40.8163079999387 -73.9711519996772,40.8162690003357 -73.9664110002528,40.8144050001901 -73.9653790000443,40.8139589997299 -73.9655109997335,40.8137619996229 -73.9692220002035,40.8085060000445 -73.9688740005099,40.8083409999466 -73.9686950003056,40.8082699998737 -73.9669790000145,40.8075959996776 -73.9663540000983,40.8073349996218 -73.9665859999305,40.8070310002942 -73.965896000518,40.80671699968 -73.9661020000785,40.8064119998355 -73.9660729994242,40.8063990003712 -73.9653080001367,40.8060810000149 -73.9657640005423,40.8054529996201 -73.9662250001878,40.804833000081 -73.9667010005084,40.804169000252 -73.9671420001874,40.8035680000744 -73.9675849994651,40.8029319997338 -73.9677890003394,40.8022000000039 -73.967877999518,40.8013540002737 -73.9685839996393,40.801636000388 -73.9690459999855,40.8009569996706 -73.9695050005419,40.80032999965 -73.9682069999082,40.7997860001157 -73.9666620001694,40.799133000061 -73.9671200004965,40.7985029997338 -73.9675750003526,40.7978699996952 -73.9690010000676,40.798475999772 -73.9694570004344,40.7978379997609 -73.9680380000857,40.7972499998919 -73.9684760001153,40.7966429997801 -73.9671280003057,40.7960809999509 -73.9666369996697,40.7958760002897 -73.9656280003152,40.7954560002378 -73.9651320004071,40.7952049996079 -73.9643030002807,40.7947869995731 -73.9641109994706,40.7947110003375 -73.9628339996969,40.7942030000706 -73.9623590003364,40.7948519997741 -73.9618990005339,40.7954799997138 -73.9614400001529,40.7961110001929 -73.9609790002712,40.7967379999605 -73.9605230002748,40.7973690002007 -73.9600370005581,40.7980380000562 -73.9595369994451,40.7987190003162 -73.9590770002839,40.7993519997683 -73.9586189997633,40.7999769997171 -73.9583539998354,40.8003370000969 -73.9582269999262,40.8003010001987 -73.9581299996762,40.8002980001387 -73.9580329996073,40.800315000296 -73.9579379999821,40.8003549995931 -73.9578680002488,40.8003990000178 -73.957798000373,40.8004790003911 -73.9577620001227,40.8004720000172 -73.9552890003075,40.7994350002905 -73.9524830000235,40.7982530002661 -73.9505780002927,40.7974569996215 -73.9505409999346,40.7974420002128 -73.9496039994822,40.7970499996392 -73.9496410002135,40.7970089999521 -73.9496709997717,40.7969519998767 -73.9496820003889,40.7968939998757 -73.9496760005262,40.796832000356 -73.9496489998682,40.79677199958 -73.9496130001376,40.7967280003488 -73.9495580001036,40.7966840001806 -73.9494860003427,40.7966510002236 -73.9494050002213,40.7966310001688 -73.9496949994837,40.7962169996199 -73.9501580000604,40.7955879996131 -73.9506130005248,40.7949650001135 -73.9511109996602,40.7942850002131 -73.9516020000706,40.7936079999965 -73.9520729994664,40.7929669997244 -73.9525219994928,40.7923469997437 -73.9529839998834,40.7917220000589 -73.9534380003528,40.7910849997219 -73.9538889997216,40.7904710001255 -73.9545640005672,40.7895509998233 -73.9548169996416,40.7892050003849 -73.9541349999326,40.7889199995592 -73.9532099998861,40.7885330004099 -73.9527970001374,40.7883590004334 -73.951608999868,40.7878580003788 -73.9499809999984,40.7871729998305 -73.9483779998875,40.7864969999383 -73.9488269997374,40.7858809998301 -73.9465879994415,40.7849409999115 -73.9470689995672,40.7842359997671 -73.9447230001809,40.7832469997013 -73.9442230000294,40.7839329996326 -73.9433189994446,40.7851739995556 -73.9419709996397,40.7845900004366 -73.9427780001399,40.7841709999084 -73.9429010000166,40.7840969999097 -73.9431119998924,40.7839579998702 -73.9433040004171,40.7838149995977 -73.9435189995774,40.7836329998351 -73.9436599999322,40.7834859998063 -73.9437910004653,40.7833340003143 -73.9439109997929,40.7831770003351 -73.9440179998379,40.7830149996335 -73.9440540000855,40.7829640004082 -73.9439549997645,40.7829159996055 -73.943833000155,40.7828589996509 -73.9437599998803,40.7828290002351 -73.9436039995604,40.7826500003713 -73.9376079999308,40.7817539997168 -73.9372879994932,40.7809629996773 -73.9344120004817,40.778093000081 -73.9339079996353,40.7781170001937 -73.9327749996891,40.7779220003903 -73.9327219996319,40.778035000129 -73.9326489994169,40.7780219996619 -73.9318470005312,40.7778919998239 -73.9317879996752,40.777871000167 -73.9310499997107,40.7774420000238 -73.9310739995635,40.7772610003872 -73.9308830004869,40.7769740002311 -73.9306289994106,40.776591000294 -73.9298809998572,40.7762220001236 -73.9290359999255,40.7764669997875 -73.9286050005257,40.776593000091 -73.9283960002871,40.7767909997373 -73.9282769996923,40.7768990001073 -73.9270839997869,40.7777169998601 -73.9263180001332,40.7782419999161 -73.9259079999095,40.7783610003864 -73.9257450000021,40.7784050003707 -73.9255729994652,40.7784590002623 -73.9248160002952,40.7787579995826 -73.9242340002672,40.779100999938 -73.9231870001982,40.7802480003004 -73.9229569999814,40.7804409996607 -73.9226300000223,40.7805649997127 -73.9220999995121,40.7808520004053 -73.9209990004029,40.7817489997491 -73.9207629998932,40.7819500001042 -73.9199650000531,40.7826350001435 -73.9190900000588,40.7833680002389 -73.9184739997945,40.7837539997519 -73.9181890002896,40.7839330000994 -73.9177380003559,40.7840760003441 -73.9172449994426,40.7841419995838 -73.9171709999041,40.7841930004023 -73.917182000133,40.784552000314 -73.9168330002484,40.7851910000971 -73.9157520003598,40.7861080002626 -73.9153989996792,40.786057999597 -73.9153439997041,40.7861159998218 -73.9152600003446,40.7861919998983 -73.915587000369,40.7864300001821 -73.9142390005196,40.7878559998547 -73.912600000309,40.7893760004499 -73.912230000427,40.7891790004119 -73.9120689994375,40.7893389999607 -73.9119509995009,40.7894020004438 -73.9120799994386,40.7895219997599 -73.911774000217,40.7897229995741 -73.9116179996248,40.7895859996473 -73.9112500002435,40.7897440001959 -73.9111310001391,40.7901139995694 -73.910296000447,40.7906569999093 -73.9106730003187,40.7931160000378 -73.9124560004702,40.796095999874 -73.9136239999708,40.7967860000989 -73.9138020003785,40.796834000371 -73.9139030005463,40.7968430001123 -73.9144619998063,40.7970420000829 -73.9157540000439,40.7975889996862 -73.9162520000767,40.7978380003397 -73.9163059995041,40.797880999785 -73.918668999826,40.7988009998406 -73.9188119996247,40.7988530000562 -73.9190979994476,40.7990130001578 -73.9198609998077,40.7993529995492 -73.9203570002339,40.799671999832 -73.9207280002667,40.8001010003568 -73.9210519998801,40.8006420001341 -73.921203999482,40.8010110003639 -73.9216219995574,40.8014469999762 -73.9217419999492,40.8016890002405 -73.922340000118,40.8019620001557 -73.9230219994642,40.8024249998293 -73.9236330002376,40.8025540003112 -73.9237479995655,40.8025479998035 -73.9238010005573,40.8025040003463 -73.9240690005575,40.8024680001988 -73.9250810005528,40.8025210002115 -73.9264190005245,40.8024759997842 -73.9265619997635,40.8024759998131 -73.9267369995651,40.8025000000318 -73.9272500005271,40.8025580003171 -73.9275250000361,40.8027639998289 -73.9282249994147,40.80384999977 -73.9284010004555,40.8041059996599 -73.9299860004376,40.8057930000702 -73.9303470000233,40.8061960004028 -73.930405999737,40.8064790002648 -73.931165999571,40.8072049995473 -73.931800999433,40.8078760001428</coordinates></LinearRing></outerBoundaryIs></Polygon>
  </Placemark>
</Folder>
</Document></kml>
