{"type":"FeatureCollection", "features": [
{"type":"Feature","geometry":{"type":"Polygon","coordinates":[[[-73.93180099943301,40.80787600014277],[-73.93182500053645,40.80790199963809],[-73.93211199995922,40.80818199980568],[-73.93234599968781,40.80858600000986],[-73.93247699954529,40.80886399968796],[-73.93256999976774,40.80925599998127],[-73.93258600021481,40.80967599996544],[-73.93261499972442,40.81001500039264],[-73.93263000054752,40.810606000227786],[-73.9326049998908,40.81151700032686],[-73.93260200035397,40.81198799962832],[-73.9324929999092,40.81288399997399],[-73.93242499986823,40.81356599995979],[-73.93241700010296,40.81402499970647],[-73.93240999956102,40.81405999973065],[-73.9323900005113,40.81425400026427],[-73.93236800056586,40.81439899964532],[-73.93236499940801,40.814590999976815],[-73.93233299955507,40.81492300014808],[-73.93233300024993,40.815099999698866],[-73.93226299990745,40.81800200038982],[-73.93233300045524,40.81965399974293],[-73.93240099966921,40.821192999930986],[-73.93242500002545,40.821560999824364],[-73.93246799968871,40.822203000420316],[-73.93249099968148,40.82255399955238],[-73.93251999996697,40.82280000044899],[-73.93253799986873,40.82305100003247],[-73.93256699993411,40.823250000165494],[-73.93256799947103,40.8234880002101],[-73.93259100049956,40.82366599965089],[-73.93263200051523,40.82413399996793],[-73.93264299984783,40.82435600010056],[-73.93271899946224,40.82511599975517],[-73.93272800047731,40.82518300015814],[-73.93273599969476,40.82528999977755],[-73.9327489994695,40.825385999701055],[-73.93274900053711,40.82549200017072],[-73.93278099952306,40.825714999857595],[-73.93279299988329,40.82582999980044],[-73.93281300040768,40.82594100020411],[-73.93282500036064,40.82607800016103],[-73.93289799979947,40.8265579997797],[-73.93300299985391,40.8276760004318],[-73.93302100021745,40.82783400007907],[-73.93304700029819,40.82799499959809],[-73.9330620000445,40.82820199993471],[-73.93307399969595,40.82827499960006],[-73.93313999995134,40.82862900024689],[-73.9331600003062,40.82888600039779],[-73.93318199961331,40.828985000326696],[-73.93319299968745,40.82916100037567],[-73.93326300001324,40.829504000054776],[-73.93341699994585,40.83137700038662],[-73.93345900024772,40.83318400044839],[-73.93314400024762,40.83481500038748],[-73.9330059999812,40.835678999660765],[-73.93060599975128,40.839678999998675],[-73.93040600000049,40.840279000115856],[-73.93036799984837,40.84064999970819],[-73.93003900034944,40.84125000000764],[-73.92972700051345,40.841849000360256],[-73.92957900021347,40.842046999583566],[-73.92969500004773,40.842194999723006],[-73.92963500001802,40.84225599999941],[-73.92950300052969,40.842380999647574],[-73.92900599942656,40.84407900026335],[-73.92814999989768,40.84550699970511],[-73.9281059996994,40.84557900005031],[-73.92803200030637,40.84567000014582],[-73.92739700001695,40.846435999599045],[-73.92729599956454,40.846556999620596],[-73.92503600046896,40.84917999992161],[-73.923903999858,40.85048800002858],[-73.92330499972054,40.8503409997551],[-73.92280999960973,40.85022099966938],[-73.92241999994975,40.850123000071356],[-73.92228800051141,40.85027700043965],[-73.92163300034588,40.85005699966268],[-73.92128199996662,40.84999200037603],[-73.92031899979712,40.84980400022786],[-73.92127799949274,40.84864800000711],[-73.92048199994419,40.84826400043782],[-73.91967999960504,40.847902000363135],[-73.91924100022479,40.84842300000134],[-73.91840899968115,40.849439999634285],[-73.91728599982969,40.849188999748684],[-73.91605099943489,40.850042999588844],[-73.91612700049444,40.849005999791125],[-73.91614200048379,40.84887800033154],[-73.91617400058419,40.848288999953596],[-73.91442600006265,40.847964000121976],[-73.9139680001139,40.84860900002213],[-73.9128750003349,40.85012500017032],[-73.9127310005755,40.850170000178046],[-73.91248200043442,40.85037799960633],[-73.91229099985551,40.85061000017909],[-73.9122120000545,40.850780999892415],[-73.91217199965595,40.8509429996944],[-73.91211300007993,40.851091999767014],[-73.91194699963074,40.85135299971275],[-73.91184400001616,40.85144500025069],[-73.91153599967613,40.85169199970481],[-73.91145299979168,40.851739999624584],[-73.91132200039746,40.85180499990365],[-73.91102500008854,40.85190599996218],[-73.91077699994312,40.8519390003119],[-73.91017500011172,40.85198299973737],[-73.90986400057385,40.85195799969862],[-73.90953099965394,40.8519019997834],[-73.90921499993907,40.85180099961475],[-73.90841799961372,40.85264399992357],[-73.90733300005097,40.85381600006908],[-73.90557000015309,40.85578700007976],[-73.90522200058071,40.856203999671706],[-73.90430499963477,40.85588800010007],[-73.90361499981152,40.85702099978246],[-73.90277900046111,40.85673399971944],[-73.90176200004318,40.856387999654046],[-73.90093899993474,40.85775900015657],[-73.90013799960677,40.857484999856595],[-73.89977699974929,40.857360999888414],[-73.8990670005773,40.85711899978602],[-73.89817199940529,40.85681200039401],[-73.89810399989166,40.85678799968382],[-73.89730699978989,40.85651000029859],[-73.89726299967138,40.85632999986883],[-73.89723499996141,40.85638199966666],[-73.89687400019392,40.857061000438534],[-73.89619700011824,40.85679299970082],[-73.89612599968801,40.85691500044583],[-73.8958260004907,40.85702600000494],[-73.89587100035678,40.857092999718276],[-73.89588299943144,40.857201999620365],[-73.89582299993535,40.85732200025383],[-73.89555699970757,40.857744999892404],[-73.89550900021,40.85782900040943],[-73.89550900012519,40.857913000232344],[-73.89558099941769,40.858021999965715],[-73.89574000016816,40.85813899956661],[-73.89469399974124,40.85942599959403],[-73.89404199996729,40.860278999866296],[-73.89321499961751,40.85987400030838],[-73.89256300007466,40.8605230002236],[-73.8924279997428,40.86065700006331],[-73.89144700045584,40.86163399987308],[-73.89129200034495,40.86176500006006],[-73.8901049994123,40.8626159998613],[-73.88945299987937,40.863091999817954],[-73.88812200026813,40.864255000297504],[-73.88683299974338,40.86539000014529],[-73.88593699979646,40.865924000264975],[-73.88528300001,40.86630099997482],[-73.88514000018868,40.86638300039577],[-73.88442900047563,40.8668009999358],[-73.88362500046672,40.86725800029832],[-73.8828429997614,40.86773599989376],[-73.88184099950358,40.86837000031169],[-73.88146899956875,40.86857299975321],[-73.88037499941767,40.86919399968625],[-73.88069499941581,40.869819999730225],[-73.88091099949554,40.8704880002783],[-73.88114200043084,40.87084400035855],[-73.8813939995106,40.871208000213784],[-73.88175400058432,40.87234899958622],[-73.88247000021515,40.87212799997683],[-73.88295700002756,40.87305199993538],[-73.88339999970817,40.873946999582586],[-73.88343999977079,40.874793999674324],[-73.88343599946637,40.87538399982259],[-73.88342399998771,40.875742000447076],[-73.88383000033433,40.87678300036327],[-73.88470999985088,40.87829500013067],[-73.88460499952737,40.87835399988252],[-73.88447099997319,40.87835899965448],[-73.88430399962812,40.878342999942255],[-73.88411199950238,40.8782639999027],[-73.88422899954837,40.87872199982181],[-73.8843320001994,40.8793399998783],[-73.88466100041236,40.87974899970239],[-73.88526500042738,40.87922799960841],[-73.88565600045817,40.878889999766066],[-73.88577399974253,40.87959999989603],[-73.88582600032072,40.8799080001045],[-73.88593599951665,40.88048100015547],[-73.88701100036943,40.8824719995956],[-73.88696699984853,40.882814000042174],[-73.8872470001764,40.88284400040727],[-73.88757299999982,40.882906000350324],[-73.88783200002815,40.88290600038356],[-73.88809700012675,40.88285500024219],[-73.88863499986866,40.88276500024045],[-73.89042499945829,40.88250999988974],[-73.88889600025651,40.88450400037994],[-73.88984699970938,40.884684999709634],[-73.89080599944702,40.88486800040631],[-73.8917660004351,40.88505000014934],[-73.8928860000861,40.88526399995156],[-73.89452899997767,40.885503999654524],[-73.89472400010905,40.88555700000584],[-73.89478399986334,40.885431000258194],[-73.89492200020311,40.88535200040334],[-73.89514500010064,40.885352000297594],[-73.89539099945857,40.885362000233044],[-73.89575399959243,40.88531600005181],[-73.89600099970639,40.885261999772254],[-73.89622299985794,40.88519600041654],[-73.89642800005487,40.88511700040394],[-73.8965960000794,40.88500900001962],[-73.89796700030627,40.88403400040646],[-73.89846499955951,40.88432500020782],[-73.89762599976422,40.88515200006628],[-73.89657999945413,40.88593799974847],[-73.89738300043875,40.886087000271615],[-73.89825899977939,40.8853060002674],[-73.89895899980027,40.88459199972571],[-73.8996890003479,40.883958999730226],[-73.9010429996479,40.88437100041731],[-73.90064700032902,40.8850990002095],[-73.90101400039553,40.88518600030914],[-73.9011890005758,40.88524700019767],[-73.90136600004055,40.885325000184],[-73.9015399996427,40.885422000201395],[-73.90169200011135,40.88552599969293],[-73.90179399993552,40.88561000033003],[-73.90330900021091,40.88430100035656],[-73.90401700038653,40.884771999928724],[-73.90472099971764,40.885241999581574],[-73.90647499984802,40.88373199999376],[-73.9080119996766,40.88240000033775],[-73.90933599942153,40.88134600037528],[-73.91026999961787,40.88073500036925],[-73.91053699996777,40.880569000429595],[-73.91047599949391,40.88032700017684],[-73.91044900045986,40.88023800002594],[-73.91030500018233,40.88005200044057],[-73.90967799971855,40.87951500018846],[-73.91010299955637,40.879200000384806],[-73.9103099996986,40.879047000209404],[-73.91140500032841,40.87927800042262],[-73.91220499974291,40.878177999651314],[-73.9149049997889,40.876578000163256],[-73.91512499999487,40.87584499997341],[-73.91519999954257,40.87558100041787],[-73.9173090002981,40.876036999833524],[-73.91893199989627,40.87638799986541],[-73.91980799976506,40.87657699970081],[-73.92163000002587,40.87832100035743],[-73.92260199983167,40.87877900019768],[-73.92450300056255,40.87897399962017],[-73.92465000047594,40.87903799986056],[-73.92497399972946,40.87914400034389],[-73.93378799943031,40.882206999873546],[-73.93390699969633,40.88201199962921],[-73.9381180005252,40.87513400045504],[-73.93835399969096,40.874749000234765],[-73.93890899979277,40.87384200023101],[-73.9389460000477,40.87378299994164],[-73.9429529995408,40.86723699997341],[-73.94304200058596,40.86709200040681],[-73.94578300050802,40.86261500021661],[-73.9458399994671,40.8625199996915],[-73.94588499947005,40.86244800009493],[-73.94829200044678,40.858516999715725],[-73.94833600034193,40.85844599980191],[-73.9488219998495,40.85765100007657],[-73.95239700034188,40.85181200011999],[-73.95248600012751,40.85166600003901],[-73.9528289994544,40.8511059996563],[-73.95398800022924,40.84846799978575],[-73.95419399976916,40.848003000339084],[-73.9543120004644,40.84773200003458],[-73.95566099978099,40.84466100011012],[-73.95572699956101,40.84451000027099],[-73.95779599985703,40.83980099974388],[-73.95801900004143,40.839292000280096],[-73.9587049995895,40.83773200017391],[-73.95882400042741,40.83746200001447],[-73.96008599975168,40.83458699999474],[-73.96013599980937,40.83447400044371],[-73.96121099986628,40.83202700019795],[-73.96132899984553,40.8317589996688],[-73.96164599999545,40.83103600004945],[-73.96168000056873,40.83096100041827],[-73.96246299974753,40.8291769995705],[-73.96258500042578,40.828900999985684],[-73.96265399956077,40.82874199987452],[-73.9635770004647,40.82664199990228],[-73.96501999999113,40.82466599994176],[-73.96517000040579,40.82445999980335],[-73.9655919999722,40.823882999684145],[-73.96647000034194,40.822680000370475],[-73.96656300028918,40.82255300031759],[-73.9678030001094,40.82085399973714],[-73.96789400001836,40.820731000166724],[-73.97069299993639,40.816897000363056],[-73.97112300017551,40.81630799993871],[-73.97115199967716,40.816269000335744],[-73.96641100025276,40.814405000190064],[-73.96537900004425,40.813958999729856],[-73.96551099973348,40.81376199962295],[-73.96922200020352,40.80850600004451],[-73.96887400050991,40.80834099994659],[-73.96869500030559,40.80826999987373],[-73.96697900001449,40.80759599967759],[-73.96635400009835,40.80733499962179],[-73.9665859999305,40.807031000294174],[-73.96589600051801,40.80671699968004],[-73.96610200007855,40.80641199983548],[-73.96607299942423,40.806399000371165],[-73.96530800013666,40.80608100001489],[-73.96576400054225,40.80545299962011],[-73.96622500018776,40.80483300008104],[-73.9667010005084,40.80416900025195],[-73.9671420001874,40.80356800007442],[-73.96758499946515,40.8029319997338],[-73.96778900033937,40.802200000003936],[-73.96787799951798,40.80135400027373],[-73.96858399963935,40.80163600038803],[-73.96904599998551,40.80095699967058],[-73.96950500054187,40.80032999965],[-73.96820699990818,40.79978600011574],[-73.96666200016942,40.799133000061026],[-73.96712000049655,40.7985029997338],[-73.96757500035257,40.797869999695166],[-73.9690010000676,40.798475999772045],[-73.96945700043439,40.79783799976086],[-73.96803800008567,40.797249999891854],[-73.96847600011532,40.79664299978008],[-73.9671280003057,40.79608099995088],[-73.96663699966972,40.79587600028968],[-73.96562800031525,40.79545600023785],[-73.96513200040708,40.79520499960787],[-73.96430300028071,40.79478699957312],[-73.9641109994706,40.79471100033753],[-73.96283399969685,40.79420300007056],[-73.96235900033638,40.79485199977409],[-73.96189900053388,40.79547999971379],[-73.96144000015292,40.79611100019285],[-73.96097900027122,40.796737999960484],[-73.96052300027482,40.797369000200675],[-73.96003700055809,40.798038000056245],[-73.95953699944512,40.79871900031624],[-73.95907700028386,40.79935199976833],[-73.95861899976327,40.79997699971707],[-73.95835399983538,40.80033700009685],[-73.95822699992617,40.80030100019868],[-73.95812999967622,40.800298000138696],[-73.9580329996073,40.80031500029599],[-73.95793799998206,40.80035499959313],[-73.95786800024882,40.800399000017755],[-73.95779800037305,40.8004790003911],[-73.95776200012271,40.80047200001718],[-73.95528900030753,40.79943500029049],[-73.95248300002355,40.798253000266136],[-73.95057800029271,40.79745699962149],[-73.95054099993459,40.79744200021284],[-73.94960399948224,40.7970499996392],[-73.9496410002135,40.79700899995211],[-73.94967099977168,40.796951999876654],[-73.94968200038895,40.796893999875685],[-73.94967600052618,40.796832000355955],[-73.94964899986824,40.79677199957996],[-73.94961300013759,40.79672800034875],[-73.94955800010362,40.79668400018058],[-73.94948600034274,40.796651000223605],[-73.9494050002213,40.796631000168816],[-73.94969499948373,40.79621699961993],[-73.95015800006044,40.79558799961311],[-73.95061300052483,40.794965000113535],[-73.95111099966024,40.79428500021308],[-73.95160200007061,40.79360799999646],[-73.95207299946637,40.792966999724364],[-73.95252199949282,40.7923469997437],[-73.95298399988344,40.791722000058904],[-73.9534380003528,40.79108499972191],[-73.95388899972158,40.790471000125464],[-73.95456400056717,40.7895509998233],[-73.95481699964157,40.78920500038486],[-73.95413499993263,40.788919999559184],[-73.95320999988607,40.788533000409885],[-73.9527970001374,40.78835900043343],[-73.95160899986801,40.78785800037882],[-73.94998099999837,40.78717299983054],[-73.94837799988753,40.786496999938315],[-73.94882699973743,40.785880999830084],[-73.94658799944155,40.7849409999115],[-73.94706899956718,40.78423599976715],[-73.9447230001809,40.78324699970133],[-73.94422300002944,40.783932999632555],[-73.94331899944463,40.78517399955557],[-73.94197099963974,40.784590000436566],[-73.9427780001399,40.78417099990838],[-73.9429010000166,40.784096999909664],[-73.94311199989244,40.78395799987019],[-73.94330400041709,40.78381499959769],[-73.94351899957736,40.78363299983506],[-73.94365999993217,40.78348599980631],[-73.94379100046527,40.78333400031433],[-73.9439109997929,40.783177000335115],[-73.94401799983791,40.783014999633465],[-73.94405400008553,40.78296400040822],[-73.94395499976451,40.78291599960548],[-73.94383300015498,40.78285899965088],[-73.94375999988034,40.78282900023512],[-73.94360399956038,40.7826500003713],[-73.9376079999308,40.78175399971677],[-73.93728799949321,40.78096299967725],[-73.93441200048167,40.77809300008105],[-73.93390799963527,40.77811700019369],[-73.9327749996891,40.77792200039031],[-73.93272199963191,40.778035000128966],[-73.93264899941686,40.77802199966193],[-73.93184700053119,40.77789199982394],[-73.93178799967524,40.777871000167],[-73.93104999971072,40.77744200002378],[-73.93107399956348,40.777261000387185],[-73.93088300048687,40.77697400023113],[-73.93062899941064,40.776591000294005],[-73.9298809998572,40.776222000123575],[-73.92903599992552,40.77646699978747],[-73.92860500052572,40.776593000090955],[-73.92839600028708,40.77679099973727],[-73.92827699969227,40.776899000107335],[-73.9270839997869,40.77771699986009],[-73.92631800013324,40.7782419999161],[-73.9259079999095,40.77836100038645],[-73.92574500000208,40.778405000370675],[-73.92557299946516,40.77845900026225],[-73.92481600029515,40.778757999582574],[-73.9242340002672,40.77910099993802],[-73.92318700019818,40.78024800030042],[-73.9229569999814,40.78044099966074],[-73.9226300000223,40.78056499971268],[-73.92209999951206,40.780852000405346],[-73.92099900040289,40.78174899974907],[-73.9207629998932,40.781950000104224],[-73.9199650000531,40.7826350001435],[-73.91909000005884,40.783368000238895],[-73.91847399979451,40.783753999751895],[-73.91818900028963,40.783933000099374],[-73.91773800035594,40.78407600034408],[-73.91724499944257,40.784141999583795],[-73.91717099990412,40.784193000402325],[-73.91718200013301,40.784552000313965],[-73.91683300024839,40.78519100009711],[-73.91575200035982,40.78610800026256],[-73.9153989996792,40.786057999596956],[-73.91534399970408,40.786115999821824],[-73.91526000034457,40.78619199989827],[-73.91558700036904,40.78643000018212],[-73.91423900051964,40.78785599985468],[-73.91260000030904,40.789376000449906],[-73.91223000042703,40.789179000411885],[-73.91206899943751,40.78933899996072],[-73.91195099950095,40.78940200044379],[-73.91207999943863,40.78952199975991],[-73.91177400021702,40.78972299957406],[-73.91161799962475,40.789585999647315],[-73.91125000024353,40.78974400019586],[-73.91113100013911,40.790113999569364],[-73.91029600044705,40.790656999909324],[-73.91067300031872,40.79311600003782],[-73.91245600047017,40.796095999874034],[-73.9136239999708,40.79678600009895],[-73.91380200037848,40.79683400037097],[-73.91390300054626,40.79684300011232],[-73.91446199980628,40.79704200008287],[-73.91575400004395,40.79758899968621],[-73.91625200007671,40.79783800033966],[-73.91630599950409,40.79788099978495],[-73.91866899982602,40.79880099984064],[-73.91881199962465,40.798853000056155],[-73.91909799944756,40.799013000157835],[-73.91986099980771,40.799352999549214],[-73.92035700023395,40.79967199983198],[-73.92072800026672,40.80010100035676],[-73.9210519998801,40.80064200013409],[-73.92120399948203,40.80101100036391],[-73.92162199955739,40.80144699997617],[-73.92174199994922,40.80168900024053],[-73.92234000011803,40.80196200015575],[-73.92302199946424,40.802424999829285],[-73.92363300023756,40.80255400031124],[-73.92374799956546,40.802547999803465],[-73.9238010005573,40.8025040003463],[-73.92406900055752,40.8024680001988],[-73.92508100055278,40.80252100021147],[-73.92641900052449,40.80247599978419],[-73.92656199976354,40.802475999813055],[-73.92673699956508,40.802500000031756],[-73.92725000052705,40.80255800031708],[-73.92752500003614,40.80276399982891],[-73.92822499941472,40.803849999769994],[-73.92840100045554,40.80410599965993],[-73.9299860004376,40.805793000070246],[-73.93034700002333,40.806196000402785],[-73.93040599973696,40.806479000264765],[-73.93116599957101,40.807204999547274],[-73.93180099943301,40.80787600014277]]]},"properties":{"District":"New York 13","Code":"NY-13"}}
]}