<?xml version="1.0" encoding="utf-8" ?>
<kml xmlns="http://www.opengis.net/kml/2.2">
<Document id="root_doc">
<Schema name="shape" id="shape">
	<SimpleField name="District" type="string"></SimpleField>
	<SimpleField name="Code" type="string"></SimpleField>
</Schema>
<Folder><name>shape</name>
  <Placemark>
	<Style><LineStyle><color>ff0000ff</color></LineStyle><PolyStyle><fill>0</fill></PolyStyle></Style>
	<ExtendedData><SchemaData schemaUrl="#shape">
		<SimpleData name="District">New York 11</SimpleData>
		<SimpleData name="Code">NY-11</SimpleData>
	</SchemaData></ExtendedData>
      <Polygon><outerBoundaryIs><LinearRing><coordinates>-74.0532290004166,40.6556570001268 -74.0534840003184,40.6552030002537 -74.0541979994392,40.654071000129 -74.0544230003308,40.6536959999863 -74.0545969999968,40.6534039995775 -74.0553549999932,40.6521349998352 -74.0557489994714,40.6514759996793 -74.0557740004374,40.6514759996328 -74.0697799996782,40.6514889997927 -74.0716609995015,40.6514959998131 -74.0725570004073,40.6514919997053 -74.0869859997453,40.6515060001849 -74.0906150003559,40.649572000318 -74.0911270005048,40.6493010003218 -74.0934419999643,40.6480649995519 -74.0941900002081,40.6480649997398 -74.1002399995965,40.6480639996707 -74.1039280001913,40.6480640004308 -74.1061429998048,40.6480639995564 -74.1098479997664,40.6480640004454 -74.119293999724,40.644609999724 -74.120960000126,40.6440009995546 -74.1216429997057,40.643754000209 -74.1234440001,40.6430920002469 -74.1260180005319,40.6421510000024 -74.1280769995232,40.6426079997185 -74.130221999627,40.6430849998685 -74.1318149999002,40.6434380000012 -74.1329210000508,40.6436839995514 -74.1342710004244,40.6434589996838 -74.135839000209,40.6431990000217 -74.1365400003432,40.6430820003011 -74.1417950001233,40.6422079999557 -74.1420029994078,40.6421740002224 -74.1431100005296,40.641990000054 -74.1490950000603,40.6426950003627 -74.1579429999044,40.6437380001339 -74.1581070003038,40.6437569997403 -74.1612099996892,40.6441230001841 -74.1614280002587,40.6441479997077 -74.1615360000939,40.6441569998483 -74.162124999846,40.6442310002981 -74.1706230005189,40.6452299995651 -74.1773729996723,40.6460250003346 -74.1775959996464,40.6460510004248 -74.1816500005137,40.6465279998866 -74.1856409994447,40.6460420003706 -74.1856889998333,40.6460099996145 -74.186985000226,40.6451099999143 -74.1877560000524,40.6445750000709 -74.1892159999424,40.6435609995691 -74.1914300000321,40.6420249998665 -74.1952420001516,40.6385950004203 -74.1962029995259,40.6377340002039 -74.1962469998777,40.6376890000622 -74.1973930004725,40.63595599994 -74.1981639995257,40.6347869996329 -74.2001759999474,40.6332699999285 -74.2006679998301,40.6329000003769 -74.2023999995027,40.6315919997334 -74.2023280003968,40.6299070003237 -74.202281000393,40.6287809999205 -74.2027080004878,40.6276349996883 -74.2034580004128,40.6256239998271 -74.2036170000223,40.6251979997332 -74.2039249999293,40.6243700001806 -74.2025450004514,40.6173800001696 -74.2024249996047,40.6167700002333 -74.2025709995244,40.6165209997443 -74.203888999574,40.614275999736 -74.2048330003516,40.6060619998108 -74.2023659994322,40.6033890000955 -74.1995890003643,40.6003820004175 -74.1995889995875,40.5978460003986 -74.2003030003223,40.59691899985 -74.2024610005247,40.5941179996239 -74.2036050002147,40.5926349996758 -74.2042439994913,40.5918080003913 -74.20487699956,40.5909860001136 -74.2072420000867,40.5879149996572 -74.2073829996141,40.5872219997737 -74.2089240004817,40.5796900002745 -74.2090950002756,40.5788530002932 -74.2095439994325,40.5766660001152 -74.2101439997381,40.5737240001823 -74.2106670000746,40.5721670003671 -74.2118840000093,40.5685439997777 -74.2120299999225,40.568111000373 -74.2145749995162,40.5605330002527 -74.2164949995336,40.5585880002036 -74.2180030004474,40.5570580002692 -74.2274119995594,40.5585479997675 -74.2283059995835,40.5586899997943 -74.231415000109,40.5591820003394 -74.2321339994424,40.5587429997985 -74.239135000553,40.5544719998015 -74.2396399997584,40.5541659997918 -74.2474840001327,40.5493769998325 -74.2475269998932,40.549270000135 -74.248981999562,40.545591999926 -74.2491920004179,40.5450619997187 -74.2502840003559,40.5423000001402 -74.2499369998138,40.5405600002358 -74.2497349995555,40.539550999707 -74.2474609999018,40.5281710000998 -74.2468340004689,40.5250319998628 -74.2467820001485,40.5247710003367 -74.2460270001032,40.520995000357 -74.2460199998408,40.5209580003106 -74.2530170000627,40.5163690001405 -74.254095000023,40.5156610004207 -74.2547600002215,40.5145169997232 -74.2557100001408,40.5128810001208 -74.2562869999156,40.5118870003003 -74.2569839995234,40.5106879997911 -74.2572330003332,40.5102590001505 -74.2581289994203,40.5087170001792 -74.25816899997,40.5081630003712 -74.2581859995962,40.5079190001133 -74.258313000019,40.506178000187 -74.2583919999652,40.505078999648 -74.2585590005316,40.5027819999823 -74.2585959997752,40.5022810002651 -74.2587040002611,40.5007890003381 -74.258753999444,40.5001030003925 -74.2588430005118,40.4988750000575 -74.2581359994648,40.4973889996062 -74.2571170000086,40.4952450002513 -74.2562900003916,40.4935060001472 -74.2561340005749,40.4931829996062 -74.253635000183,40.487919999587 -74.2533000005388,40.4872150002572 -74.2531429995475,40.4868859998026 -74.2530360003328,40.4866599996815 -74.2499469999981,40.4855359997609 -74.2489699995227,40.485180999792 -74.2466679997159,40.484343000361 -74.2438110005478,40.4833009999775 -74.2409819998132,40.4822740001177 -74.2379559997122,40.4811719996373 -74.2352899994433,40.4802020003726 -74.2295179994243,40.4781019999786 -74.228196000587,40.4776209999413 -74.2277629998308,40.4774630000195 -74.2253310001055,40.4765780002816 -74.2185409996786,40.4777470002742 -74.216801999911,40.47804599999 -74.2064430002994,40.4798179997108 -74.2000030000235,40.4809379995842 -74.1763320003799,40.4850120000857 -74.1622070004675,40.4874440002485 -74.1588209996779,40.4880230000015 -74.1370599997294,40.4917719998351 -74.1305779999996,40.4928880001745 -74.1025469997206,40.4977130004219 -74.0980350001303,40.4984889998899 -74.0946819998394,40.4990670003968 -74.0927280001729,40.4994060000981 -74.0919119998273,40.4995429998136 -74.0912639997111,40.4996630000104 -74.0856199999324,40.500626999842 -74.0832430000179,40.5010370003314 -74.0697210003585,40.5033690001311 -74.0567290002136,40.5055990000684 -74.0437799998567,40.5078280003438 -74.042278999557,40.5080849997629 -74.0381309998782,40.5382939995841 -74.0374939995839,40.5427900002103 -74.036672000212,40.5483699998625 -74.0365490005636,40.5492090000905 -74.0363000004636,40.5509050003298 -74.036285000103,40.5511850002419 -74.0362089999521,40.552524000268 -74.0359780003026,40.5565630004024 -74.0351529995297,40.5710029995515 -74.0350469995765,40.5728499996673 -74.0345469999826,40.5762500000565 -74.037876999639,40.5892009995607 -74.034655999822,40.5886819996982 -74.0094679997886,40.5842349997079 -74.0093190003688,40.5842080002671 -74.0080930002283,40.5839920004014 -74.0065779997898,40.5837159999146 -74.0041679999188,40.5831929999113 -74.003058999784,40.582935000136 -73.990679000029,40.5800599998469 -73.988236999879,40.5797040001055 -73.9888560004852,40.5799920001449 -73.9890969995898,40.5802050000296 -73.9893600005463,40.5802380003383 -73.9895349996126,40.5804169996234 -73.9895679999848,40.5804350002688 -73.9897580003155,40.5804990004373 -73.9900060004175,40.5806759997177 -73.9898580000297,40.5808099996354 -73.9895450000144,40.5819329996836 -73.9887490003693,40.5828200003488 -73.9883579994654,40.5834749997098 -73.9885230000712,40.5838799999289 -73.9887810003317,40.5843630004159 -73.9891499999573,40.5846700000278 -73.9900350003569,40.5852110001644 -73.9908770005806,40.5858479998081 -73.9917570004604,40.5867279996436 -73.992222999917,40.5874539995672 -73.9919019995175,40.5876150002785 -73.9917700001882,40.5876729999454 -73.9914880004978,40.5877999997845 -73.9918660003066,40.5884820000385 -73.9925580004819,40.5899220004104 -73.9915389995072,40.5903910004031 -73.9903640005366,40.5914320003098 -73.9896209996776,40.5909820003583 -73.9879880001117,40.5925529999626 -73.9860190000995,40.594446000247 -73.9850149997313,40.5954129999413 -73.9850610000029,40.5956710003071 -73.9840640002436,40.5957830003749 -73.9837219995207,40.5958209998738 -73.982210999718,40.5959870000657 -73.9812830000949,40.5960879998821 -73.9803580000659,40.596191999673 -73.979432000299,40.596291999584 -73.9789270004329,40.5963480004225 -73.9785039998925,40.5963960003292 -73.9765099998741,40.5966160002163 -73.9769350005151,40.5988700002311 -73.9773880000297,40.6012629996257 -73.977828000509,40.6035860004335 -73.9788280001076,40.6034750001712 -73.9798269998284,40.6033700001742 -73.9801710004312,40.6051789998949 -73.9806850000647,40.6052370001634 -73.9811340004601,40.6052800001161 -73.9821000005734,40.605378999919 -73.9830660004305,40.6054969998698 -73.9834030004219,40.6072739995853 -73.9834769998831,40.6076629996482 -73.9825479997637,40.6077640001125 -73.9816239994359,40.6078660002015 -73.9821059995152,40.6104210000798 -73.982517999788,40.6125880003441 -73.9826599998933,40.6126930000636 -73.9822110002313,40.6131680001121 -73.9821070003102,40.6132729997229 -73.9822640002838,40.6133670001684 -73.9824900005068,40.6144239996701 -73.983667999787,40.6151849998899 -73.9858600005787,40.6165219996617 -73.9880659999357,40.6178519996832 -73.9874349997698,40.6184550002017 -73.9871360001562,40.6187419998908 -73.9892510004724,40.6200449998883 -73.9914970000436,40.6214410002964 -73.9912560003388,40.6216719996646 -73.9937109998429,40.6231560002228 -73.9959249997752,40.6244799999411 -73.9964980004942,40.6239229998018 -73.9974839996583,40.6245200000866 -73.9972410003995,40.6252889997181 -73.9981169997763,40.6258160000147 -74.000313999945,40.6271450002378 -74.0008949997361,40.6265840001588 -74.0030989997974,40.6279159997862 -74.0025149999784,40.6284750003419 -74.0047179997007,40.6298040000636 -74.0052980005369,40.6292459999214 -74.0075030004246,40.6305759997983 -74.0087539998543,40.6293709996247 -74.0100039994248,40.6301130003126 -74.0107000004399,40.6296460003171 -74.0114279995962,40.6291619995757 -74.0121220002675,40.6295829996414 -74.0143230002625,40.6309110003698 -74.0149029997376,40.6303529995924 -74.0160480005615,40.6310329995759 -74.0162229994587,40.6311450001106 -74.0164580005666,40.6312969997963 -74.0166960001998,40.6314539999923 -74.0169559999647,40.6316220000206 -74.0184480001034,40.6322960003077 -74.0185299998241,40.6323340001345 -74.0197360001213,40.6328850003026 -74.0210120001481,40.6334689997371 -74.0212169999686,40.6335620001436 -74.0230349994449,40.6343949997237 -74.0235179996214,40.6346159997914 -74.026039000444,40.6357410000242 -74.0278880005496,40.636309000085 -74.028657999828,40.6365460000929 -74.0282789996215,40.6374680000035 -74.0301650004262,40.6380520004177 -74.0308909997763,40.6382790002064 -74.0316090002481,40.6385019997016 -74.0335020003829,40.6390889997356 -74.0343819999699,40.6393549999185 -74.035588999861,40.6397629997947 -74.0359579999883,40.6388209996807 -74.0364260005902,40.6389839997258 -74.0365080004524,40.639011999854 -74.0365460002247,40.6389119997476 -74.0367729995047,40.6383699996092 -74.0371399997097,40.6382880001769 -74.0367249998741,40.6391410001078 -74.0367609996398,40.6391890000936 -74.0366820000808,40.6393249998653 -74.0366100001874,40.6394279999891 -74.0365490004959,40.6395250002258 -74.036433000327,40.6397230000308 -74.0362230001731,40.6400639997661 -74.0361369999423,40.6401869998443 -74.0360740003933,40.6402650001845 -74.0360200001724,40.6403499996319 -74.0359830003505,40.6403960003881 -74.035864999555,40.6405339999786 -74.0357580002043,40.6406300004016 -74.0357620003315,40.6406629998969 -74.035787000309,40.640707000388 -74.0358469996101,40.6407819998452 -74.035912999439,40.6408219995875 -74.0359830003714,40.6409030002305 -74.0360869999829,40.6409689997417 -74.0362120003499,40.6410309998564 -74.0363370000703,40.6411099999698 -74.036455999736,40.6411750000555 -74.0366599995713,40.6413479998636 -74.0367509996539,40.6414089995528 -74.0368019995688,40.6414780002799 -74.0367970004915,40.6415750001744 -74.036743999568,40.6416719996307 -74.0366620001735,40.6417570000103 -74.0364849998021,40.64192200043 -74.0364100000871,40.6420179999812 -74.0363490004315,40.6420819997442 -74.0362469996033,40.6421649996478 -74.0361869998555,40.6421999999642 -74.0361199995522,40.642219000188 -74.0346049999552,40.6436710003364 -74.0344440004243,40.6438250002909 -74.0345269998875,40.6438750001713 -74.0340729995663,40.6443120003786 -74.0334209999801,40.6439239996568 -74.0328659999914,40.6435870000392 -74.0326440002188,40.6438000000568 -74.0532290004166,40.6556570001268</coordinates></LinearRing></outerBoundaryIs></Polygon>
  </Placemark>
</Folder>
</Document></kml>
