<?xml version="1.0" encoding="utf-8" ?>
<kml xmlns="http://www.opengis.net/kml/2.2">
<Document id="root_doc">
<Schema name="shape" id="shape">
	<SimpleField name="District" type="string"></SimpleField>
	<SimpleField name="Code" type="string"></SimpleField>
</Schema>
<Folder><name>shape</name>
  <Placemark>
	<Style><LineStyle><color>ff0000ff</color></LineStyle><PolyStyle><fill>0</fill></PolyStyle></Style>
	<ExtendedData><SchemaData schemaUrl="#shape">
		<SimpleData name="District">Georgia 5</SimpleData>
		<SimpleData name="Code">GA-5</SimpleData>
	</SchemaData></ExtendedData>
      <Polygon><outerBoundaryIs><LinearRing><coordinates>-84.348089,33.88209 -84.348091,33.88191 -84.348114,33.880129 -84.348138,33.879316 -84.348125,33.879203 -84.348125,33.877803 -84.348187,33.874734 -84.348213,33.873596 -84.348285,33.870003 -84.348297,33.869375 -84.348313,33.868565 -84.348318,33.868329 -84.348325,33.867903 -84.348324,33.867633 -84.348325,33.867193 -84.348324,33.866696 -84.348244,33.86634 -84.348244,33.866128 -84.348242,33.865753 -84.348242,33.865209 -84.348235,33.864077 -84.348234,33.863471 -84.34823,33.862224 -84.348314,33.862146 -84.348363,33.862089 -84.34837,33.861548 -84.348379,33.861052 -84.348353,33.860527 -84.34832,33.859888 -84.348311,33.859375 -84.348304,33.858433 -84.3483,33.857634 -84.348298,33.857486 -84.348268,33.854337 -84.348279,33.854238 -84.348304,33.854034 -84.348309,33.853945 -84.348386,33.85263 -84.348383,33.85249 -84.348331,33.850504 -84.348325,33.850285 -84.348325,33.846003 -84.34823,33.845708 -84.348091,33.845293 -84.348005,33.84502 -84.34808,33.844333 -84.348165,33.8435 -84.348319,33.84216 -84.348339,33.841967 -84.348415,33.841428 -84.348418,33.841078 -84.34846,33.839732 -84.348463,33.839602 -84.348453,33.839068 -84.348483,33.838169 -84.34849,33.83772 -84.34847,33.837159 -84.348465,33.837001 -84.34847,33.836823 -84.348453,33.836449 -84.34844,33.836177 -84.348428,33.835086 -84.348446,33.8322 -84.348449,33.83144 -84.348483,33.830969 -84.348501,33.830706 -84.348524,33.830075 -84.348523,33.829246 -84.348501,33.828548 -84.348498,33.828366 -84.348498,33.82828 -84.348488,33.827855 -84.348487,33.827751 -84.348478,33.827537 -84.348464,33.827046 -84.348462,33.82695 -84.348468,33.826353 -84.348466,33.825922 -84.348469,33.825572 -84.348506,33.825117 -84.348823,33.824972 -84.349231,33.824751 -84.349709,33.824555 -84.350166,33.824337 -84.350442,33.824224 -84.350745,33.824111 -84.351194,33.823933 -84.351663,33.823772 -84.351988,33.823671 -84.352133,33.823627 -84.352658,33.823466 -84.354211,33.823217 -84.35464,33.823148 -84.355488,33.823056 -84.355895,33.823013 -84.356455,33.822942 -84.35699,33.822819 -84.357433,33.822686 -84.35781,33.822538 -84.358084,33.822412 -84.358319,33.82229 -84.358546,33.822157 -84.358844,33.821962 -84.358982,33.82188 -84.35935,33.821604 -84.359374,33.821592 -84.359548,33.821442 -84.359743,33.82123 -84.359968,33.820929 -84.360114,33.820713 -84.360165,33.820657 -84.360424,33.820258 -84.360682,33.819858 -84.360871,33.819566 -84.361573,33.818483 -84.362111,33.818324 -84.362248,33.818288 -84.362687,33.818175 -84.363243,33.818015 -84.363289,33.818006 -84.364022,33.817848 -84.364336,33.817826 -84.364694,33.817825 -84.36491,33.817813 -84.365123,33.817788 -84.365334,33.817749 -84.365541,33.817698 -84.365743,33.817634 -84.365939,33.817558 -84.366608,33.817264 -84.366805,33.817191 -84.367009,33.817132 -84.367113,33.817108 -84.367325,33.817073 -84.367477,33.817057 -84.368442,33.816857 -84.368646,33.816798 -84.368843,33.816725 -84.369032,33.816638 -84.369212,33.816538 -84.36938,33.816425 -84.369616,33.81624 -84.369765,33.81611 -84.369883,33.815996 -84.369945,33.815922 -84.370021,33.815858 -84.370109,33.815806 -84.370206,33.815768 -84.37031,33.815743 -84.370418,33.815734 -84.370739,33.815765 -84.371062,33.815784 -84.371278,33.815784 -84.371494,33.81577 -84.371601,33.815759 -84.371767,33.815734 -84.372197,33.815707 -84.372629,33.815691 -84.373152,33.815688 -84.37358,33.815737 -84.373902,33.815765 -84.374333,33.815789 -84.374765,33.815799 -84.375197,33.815795 -84.375736,33.81577 -84.375949,33.815744 -84.376159,33.815701 -84.376362,33.81564 -84.376461,33.815604 -84.376651,33.815519 -84.376828,33.815421 -84.377864,33.814957 -84.37883,33.814604 -84.379375,33.814406 -84.38021,33.814154 -84.38089,33.813909 -84.381594,33.813719 -84.382078,33.813567 -84.382503,33.813412 -84.382336,33.813129 -84.382251,33.81303 -84.382173,33.812968 -84.382117,33.812935 -84.382216,33.8129 -84.382785,33.81269 -84.384382,33.812123 -84.384679,33.812033 -84.385228,33.811922 -84.385586,33.811869 -84.385986,33.811824 -84.386439,33.81179 -84.386817,33.811772 -84.387663,33.81174 -84.389291,33.81168 -84.390863,33.811604 -84.392205,33.811553 -84.392186,33.811658 -84.392166,33.811914 -84.392165,33.812161 -84.392193,33.812314 -84.392301,33.812557 -84.392358,33.812726 -84.392397,33.812884 -84.392417,33.813058 -84.392393,33.81323 -84.392212,33.81372 -84.391958,33.814302 -84.39175,33.814753 -84.391597,33.815023 -84.391453,33.815235 -84.391316,33.815389 -84.391135,33.815559 -84.390796,33.815756 -84.390496,33.816001 -84.390126,33.816403 -84.389742,33.81683 -84.389417,33.81718 -84.389196,33.817442 -84.389055,33.817659 -84.390082,33.81811 -84.390376,33.818224 -84.390579,33.818286 -84.390786,33.818337 -84.390996,33.818377 -84.391209,33.818405 -84.391353,33.818417 -84.392023,33.818518 -84.392333,33.818575 -84.392808,33.818664 -84.393014,33.818717 -84.393224,33.818758 -84.393438,33.818786 -84.393653,33.818801 -84.393761,33.818797 -84.393867,33.818781 -84.39397,33.818755 -84.394068,33.818718 -84.394247,33.818616 -84.394416,33.818504 -84.394574,33.818382 -84.394675,33.818293 -84.395146,33.817699 -84.39589,33.816635 -84.395936,33.816553 -84.395989,33.816475 -84.396049,33.8164 -84.396116,33.816329 -84.396188,33.816262 -84.396266,33.8162 -84.39635,33.816143 -84.396438,33.81609 -84.39653,33.816044 -84.396626,33.816003 -84.396726,33.815968 -84.396828,33.81594 -84.397038,33.815898 -84.397145,33.815883 -84.397252,33.815873 -84.39736,33.815868 -84.397556,33.815871 -84.398119,33.815861 -84.398333,33.815883 -84.398441,33.815887 -84.398657,33.815881 -84.398764,33.815872 -84.398976,33.81584 -84.399184,33.81579 -84.399283,33.815755 -84.399386,33.815728 -84.399491,33.815707 -84.399598,33.815695 -84.399706,33.81569 -84.399814,33.815694 -84.399922,33.815705 -84.400137,33.815697 -84.400353,33.815707 -84.40046,33.815719 -84.400671,33.815756 -84.400877,33.815811 -84.401075,33.815883 -84.401263,33.81597 -84.401352,33.816022 -84.401436,33.816079 -84.401514,33.816141 -84.401586,33.816208 -84.401652,33.816279 -84.401823,33.816509 -84.401982,33.816744 -84.402129,33.816985 -84.402195,33.817102 -84.402732,33.817934 -84.402815,33.818101 -84.402922,33.818356 -84.402981,33.818529 -84.403052,33.818793 -84.403082,33.81888 -84.403121,33.818963 -84.403169,33.819044 -84.403226,33.819121 -84.403291,33.819193 -84.403428,33.819309 -84.404019,33.819862 -84.404102,33.81992 -84.404188,33.819974 -84.404372,33.820068 -84.404468,33.820109 -84.404567,33.820145 -84.404669,33.820176 -84.404772,33.820202 -84.404877,33.820223 -84.405091,33.820249 -84.405199,33.820254 -84.405307,33.820254 -84.405431,33.820248 -84.406671,33.820306 -84.407289,33.820308 -84.407614,33.820308 -84.407615,33.820209 -84.407629,33.819227 -84.407664,33.816976 -84.407693,33.815345 -84.407704,33.814672 -84.407734,33.812985 -84.407743,33.81246 -84.407749,33.812169 -84.407769,33.810923 -84.407782,33.810189 -84.407791,33.808318 -84.407793,33.807651 -84.407798,33.805806 -84.407802,33.804165 -84.407803,33.80386 -84.407803,33.803632 -84.407806,33.8031 -84.408286,33.803276 -84.40934,33.803672 -84.410418,33.804068 -84.411053,33.804344 -84.41251,33.804979 -84.413211,33.805397 -84.413311,33.805179 -84.41344,33.804873 -84.413612,33.804452 -84.413752,33.804131 -84.413826,33.803998 -84.413916,33.803858 -84.415282,33.801832 -84.41559,33.801378 -84.415755,33.801372 -84.417229,33.801412 -84.417231,33.800467 -84.417474,33.800467 -84.417609,33.800479 -84.417771,33.800517 -84.417924,33.800577 -84.418229,33.80075 -84.41917,33.801407 -84.419974,33.801966 -84.420182,33.802119 -84.420343,33.802273 -84.420431,33.802381 -84.42079,33.802877 -84.422604,33.801735 -84.422665,33.801672 -84.422706,33.8016 -84.42279,33.801322 -84.422799,33.801242 -84.423043,33.801231 -84.424066,33.801105 -84.423788,33.800769 -84.423493,33.800439 -84.420326,33.796893 -84.417896,33.794814 -84.417676,33.794569 -84.41748,33.794315 -84.417326,33.794051 -84.417261,33.793804 -84.417224,33.793638 -84.41723,33.793443 -84.417254,33.793229 -84.417301,33.792993 -84.417408,33.792539 -84.417741,33.791291 -84.418156,33.790039 -84.418241,33.789745 -84.418319,33.789446 -84.418476,33.789047 -84.418532,33.788923 -84.418649,33.788702 -84.418948,33.788243 -84.41922,33.787856 -84.419408,33.787608 -84.419574,33.78738 -84.419893,33.787104 -84.420107,33.786944 -84.420579,33.786682 -84.42082,33.786591 -84.421124,33.786505 -84.421346,33.786466 -84.421562,33.786436 -84.421853,33.786418 -84.422079,33.786423 -84.42227,33.786437 -84.422999,33.786534 -84.423901,33.786861 -84.424701,33.787127 -84.425084,33.78723 -84.425408,33.787303 -84.425544,33.787322 -84.42573,33.787331 -84.426119,33.787323 -84.426393,33.787299 -84.426926,33.787239 -84.42711,33.787228 -84.427549,33.787237 -84.427991,33.787314 -84.427933,33.787009 -84.427904,33.786879 -84.428701,33.786928 -84.431001,33.787101 -84.431531,33.787195 -84.432104,33.787347 -84.432373,33.787426 -84.432383,33.787223 -84.432372,33.786942 -84.432337,33.786253 -84.432436,33.786263 -84.432603,33.786295 -84.432764,33.786344 -84.432905,33.786403 -84.433136,33.78654 -84.433602,33.786916 -84.433974,33.787195 -84.434473,33.787469 -84.43509,33.787751 -84.43581,33.788039 -84.43659,33.788397 -84.442136,33.791115 -84.443295,33.791683 -84.447118,33.793558 -84.448336,33.794144 -84.449075,33.794501 -84.449639,33.793706 -84.450266,33.792828 -84.451717,33.793591 -84.45186,33.793379 -84.451971,33.793242 -84.451976,33.793062 -84.451923,33.792893 -84.451886,33.792766 -84.451928,33.792602 -84.452125,33.792365 -84.452095,33.792263 -84.452132,33.792038 -84.452184,33.791893 -84.452249,33.791818 -84.452327,33.791679 -84.452432,33.791556 -84.452507,33.791462 -84.45261,33.791383 -84.452676,33.79127 -84.452722,33.791144 -84.452774,33.791032 -84.452844,33.790914 -84.452844,33.79076 -84.452797,33.790549 -84.452732,33.790302 -84.455103,33.790166 -84.45624,33.789917 -84.456307,33.789903 -84.457857,33.789404 -84.459715,33.789155 -84.458694,33.788732 -84.458202,33.78849 -84.458076,33.788391 -84.457963,33.788263 -84.457881,33.78812 -84.457834,33.78797 -84.4578,33.787607 -84.457743,33.787416 -84.457203,33.786546 -84.457114,33.786458 -84.457003,33.786391 -84.45641,33.786168 -84.456459,33.78599 -84.456553,33.785716 -84.45686,33.784462 -84.457009,33.783427 -84.457008,33.78318 -84.457384,33.782906 -84.458144,33.782565 -84.458456,33.782727 -84.458684,33.782874 -84.458926,33.783047 -84.459911,33.783783 -84.460288,33.784101 -84.46054,33.784369 -84.461249,33.785198 -84.461741,33.785831 -84.462073,33.786207 -84.462419,33.786537 -84.46275,33.786806 -84.464046,33.787742 -84.464463,33.787511 -84.464411,33.787333 -84.464115,33.786511 -84.464031,33.786184 -84.464007,33.785909 -84.465192,33.785487 -84.465167,33.78483 -84.465263,33.784353 -84.465542,33.783685 -84.465561,33.783574 -84.465563,33.783422 -84.465606,33.783307 -84.465866,33.782983 -84.465992,33.782842 -84.466076,33.782769 -84.466129,33.782675 -84.466141,33.782613 -84.466139,33.78244 -84.466165,33.782062 -84.466151,33.781937 -84.46609,33.781754 -84.465922,33.781471 -84.465852,33.78131 -84.4658,33.781261 -84.465801,33.781187 -84.465882,33.779925 -84.465909,33.779076 -84.46658,33.779038 -84.467115,33.779022 -84.46677,33.778391 -84.466709,33.778226 -84.466724,33.777392 -84.467523,33.777161 -84.46777,33.777094 -84.468718,33.776746 -84.469627,33.776503 -84.470821,33.77619 -84.471026,33.776136 -84.471449,33.77603 -84.471665,33.77539 -84.472037,33.775504 -84.472402,33.775634 -84.472844,33.775834 -84.473065,33.775948 -84.473739,33.776318 -84.47366,33.774767 -84.473612,33.773874 -84.473601,33.773677 -84.473505,33.77175 -84.473468,33.771167 -84.473428,33.770929 -84.473372,33.770717 -84.4732,33.770479 -84.473012,33.770259 -84.474206,33.770252 -84.474409,33.770227 -84.474573,33.770161 -84.474704,33.770057 -84.474791,33.769924 -84.475177,33.768636 -84.475231,33.768528 -84.47531,33.768431 -84.475466,33.76832 -84.475653,33.768256 -84.476623,33.768169 -84.477924,33.768168 -84.478438,33.768179 -84.478701,33.768164 -84.479016,33.768108 -84.479318,33.768012 -84.479617,33.76789 -84.480597,33.767433 -84.481859,33.766838 -84.482679,33.766452 -84.481767,33.765764 -84.481665,33.765661 -84.481543,33.765493 -84.48142,33.765261 -84.481346,33.765037 -84.48132,33.764894 -84.481314,33.764688 -84.481278,33.764326 -84.481926,33.764316 -84.482354,33.764294 -84.482584,33.764231 -84.482795,33.76414 -84.482953,33.764046 -84.484082,33.763248 -84.484436,33.763017 -84.483186,33.762176 -84.483032,33.762039 -84.482869,33.761832 -84.482726,33.761486 -84.482572,33.760949 -84.482536,33.76078 -84.482522,33.760564 -84.482537,33.760325 -84.482569,33.760147 -84.482636,33.75996 -84.482694,33.759701 -84.482785,33.759315 -84.482912,33.758725 -84.482932,33.758456 -84.482937,33.758099 -84.482926,33.757849 -84.482906,33.757737 -84.482869,33.757592 -84.482762,33.757371 -84.482531,33.756979 -84.482376,33.756676 -84.482303,33.756481 -84.482163,33.75593 -84.481925,33.754975 -84.481894,33.754819 -84.482231,33.75481 -84.482827,33.754768 -84.483228,33.754706 -84.48363,33.7546 -84.483905,33.754512 -84.48416,33.754424 -84.484449,33.754309 -84.484654,33.754199 -84.485144,33.753912 -84.485378,33.753737 -84.485589,33.753562 -84.486119,33.753141 -84.4864,33.752946 -84.48684,33.752626 -84.487264,33.752354 -84.487642,33.752158 -84.487978,33.752013 -84.488326,33.751903 -84.488795,33.751756 -84.489272,33.751652 -84.489662,33.751597 -84.490987,33.75148 -84.493019,33.751345 -84.494428,33.751218 -84.495733,33.751139 -84.496351,33.751096 -84.496604,33.751079 -84.497634,33.751005 -84.498469,33.750928 -84.499004,33.750873 -84.499234,33.750842 -84.499528,33.75079 -84.499663,33.750753 -84.499697,33.750742 -84.500495,33.750492 -84.500744,33.750378 -84.501195,33.750091 -84.501459,33.749834 -84.501663,33.749637 -84.501782,33.749491 -84.50191,33.749307 -84.502029,33.749145 -84.50231,33.748731 -84.502586,33.748274 -84.503081,33.747523 -84.503814,33.746489 -84.504453,33.745529 -84.505137,33.744479 -84.505795,33.743501 -84.506371,33.742685 -84.507796,33.740608 -84.50841,33.739631 -84.508155,33.739528 -84.507943,33.73946 -84.507735,33.739413 -84.507498,33.739361 -84.507244,33.73933 -84.50702,33.739318 -84.505679,33.739359 -84.505662,33.73936 -84.505707,33.736707 -84.505793,33.731577 -84.502609,33.731559 -84.50237,33.731556 -84.50182,33.731555 -84.501934,33.730023 -84.501858,33.729591 -84.502031,33.72828 -84.502109,33.727134 -84.502052,33.727135 -84.502099,33.725181 -84.502072,33.725007 -84.502005,33.724561 -84.501906,33.723909 -84.5017,33.723907 -84.501212,33.724267 -84.500995,33.724043 -84.501204,33.723903 -84.500922,33.7239 -84.500809,33.723889 -84.500809,33.724011 -84.500827,33.724226 -84.500827,33.72432 -84.500799,33.724489 -84.500715,33.724733 -84.500621,33.724949 -84.500594,33.724994 -84.500339,33.724996 -84.499605,33.724997 -84.499496,33.724998 -84.498388,33.725 -84.498257,33.725043 -84.498201,33.725071 -84.498167,33.725067 -84.49804,33.725009 -84.497949,33.724939 -84.497915,33.724926 -84.497853,33.724912 -84.497699,33.724939 -84.497666,33.724932 -84.497612,33.724907 -84.497568,33.724893 -84.497525,33.724906 -84.497499,33.7249 -84.497419,33.724866 -84.497372,33.724893 -84.497334,33.724942 -84.497319,33.724953 -84.497272,33.724964 -84.497212,33.72495 -84.49716,33.724932 -84.497064,33.724884 -84.497049,33.724888 -84.497017,33.724934 -84.496996,33.724953 -84.496936,33.724933 -84.496896,33.724883 -84.49688,33.724881 -84.496809,33.724954 -84.496778,33.724931 -84.496764,33.724878 -84.496724,33.724886 -84.496664,33.724912 -84.496624,33.724911 -84.496486,33.724853 -84.496431,33.724885 -84.496361,33.724963 -84.496359,33.725025 -84.496341,33.724992 -84.496376,33.723514 -84.496437,33.721599 -84.49643,33.719112 -84.497964,33.719111 -84.500457,33.719109 -84.500906,33.719108 -84.50113,33.719108 -84.50113,33.717808 -84.499927,33.715709 -84.501342,33.715441 -84.501532,33.715411 -84.505946,33.715408 -84.505979,33.71514 -84.506013,33.713013 -84.506059,33.713014 -84.506038,33.71283 -84.50604,33.71252 -84.506044,33.710457 -84.506056,33.710311 -84.506084,33.710182 -84.506194,33.709901 -84.506286,33.70974 -84.506828,33.7091 -84.507034,33.708826 -84.507116,33.708646 -84.507149,33.708462 -84.507147,33.708167 -84.507055,33.707574 -84.50685,33.706589 -84.506754,33.706227 -84.50656,33.705673 -84.506451,33.705138 -84.506193,33.703968 -84.506138,33.703586 -84.506126,33.703329 -84.50613,33.702804 -84.506221,33.702017 -84.506243,33.701604 -84.506283,33.701303 -84.506355,33.701005 -84.506531,33.70048 -84.506685,33.7001 -84.506842,33.699741 -84.507037,33.699444 -84.507223,33.699232 -84.507446,33.699053 -84.508839,33.698214 -84.50903,33.698091 -84.509439,33.697788 -84.510266,33.697111 -84.510332,33.697037 -84.510364,33.696952 -84.510839,33.693646 -84.510914,33.693266 -84.511304,33.69156 -84.511435,33.690611 -84.511484,33.690311 -84.51158,33.688455 -84.511859,33.686368 -84.512023,33.685179 -84.511964,33.685096 -84.511808,33.684834 -84.511699,33.684626 -84.511535,33.684176 -84.511494,33.683996 -84.511434,33.683552 -84.511427,33.683308 -84.511472,33.683008 -84.511497,33.682783 -84.511592,33.682484 -84.51172,33.682185 -84.511873,33.681913 -84.512082,33.681643 -84.512528,33.68103 -84.513363,33.679918 -84.513581,33.679659 -84.513728,33.679464 -84.514189,33.678829 -84.514473,33.678457 -84.514834,33.677812 -84.514956,33.67754 -84.51501,33.677404 -84.515263,33.676513 -84.515326,33.676228 -84.515495,33.675617 -84.51559,33.675138 -84.515679,33.674606 -84.515792,33.673983 -84.515939,33.673326 -84.516003,33.673022 -84.516035,33.67284 -84.516224,33.671993 -84.516291,33.671731 -84.516456,33.671201 -84.516583,33.670917 -84.516757,33.670593 -84.517232,33.669916 -84.517572,33.669534 -84.517956,33.66916 -84.518493,33.668744 -84.519046,33.668404 -84.520714,33.66748 -84.52116,33.667203 -84.52136,33.667066 -84.521491,33.666965 -84.521729,33.66676 -84.521937,33.66652 -84.522036,33.666412 -84.522178,33.666213 -84.522466,33.665707 -84.522544,33.665545 -84.522652,33.665288 -84.522754,33.664897 -84.522783,33.664703 -84.522819,33.664402 -84.522822,33.664124 -84.522722,33.663012 -84.522643,33.662404 -84.522612,33.662056 -84.522492,33.661243 -84.522437,33.660915 -84.52241,33.660567 -84.522276,33.659475 -84.522174,33.658745 -84.522085,33.657999 -84.521987,33.657247 -84.521974,33.657152 -84.521916,33.656698 -84.521726,33.656704 -84.521669,33.656304 -84.521651,33.65615 -84.521616,33.655835 -84.521425,33.655852 -84.521363,33.655848 -84.521305,33.655825 -84.521198,33.655791 -84.521132,33.655787 -84.521071,33.655787 -84.520914,33.65574 -84.520781,33.65579 -84.520592,33.655802 -84.520453,33.655763 -84.520361,33.65574 -84.519964,33.655701 -84.519899,33.655697 -84.51923,33.655809 -84.51562,33.655062 -84.515603,33.65594 -84.515591,33.656124 -84.514393,33.655835 -84.512913,33.655472 -84.511402,33.655121 -84.510255,33.654855 -84.509993,33.654794 -84.509308,33.654636 -84.508729,33.654492 -84.50798,33.654303 -84.507535,33.654221 -84.507194,33.654179 -84.506901,33.654163 -84.506655,33.654157 -84.506231,33.65417 -84.505969,33.654197 -84.505835,33.654215 -84.505494,33.654273 -84.505229,33.654343 -84.504927,33.654441 -84.504641,33.654541 -84.504193,33.654733 -84.503832,33.654876 -84.503721,33.6549 -84.503632,33.654947 -84.501718,33.655789 -84.501337,33.655957 -84.501012,33.656088 -84.500793,33.656178 -84.500512,33.656275 -84.500275,33.656345 -84.500103,33.656393 -84.499889,33.656441 -84.499819,33.656449 -84.499345,33.656559 -84.49899,33.656603 -84.498603,33.656631 -84.498504,33.656629 -84.49776,33.656606 -84.497733,33.652778 -84.497726,33.65245 -84.497731,33.651309 -84.49771,33.649016 -84.497704,33.648755 -84.49768,33.648386 -84.497652,33.648181 -84.497407,33.646581 -84.49733,33.646063 -84.497248,33.645505 -84.497211,33.645363 -84.496575,33.643443 -84.496441,33.643139 -84.495601,33.641238 -84.495433,33.640934 -84.495096,33.640388 -84.49487,33.639992 -84.494792,33.639865 -84.494226,33.63902 -84.492148,33.636298 -84.492103,33.636251 -84.491949,33.635996 -84.491517,33.635434 -84.491306,33.635111 -84.491043,33.634644 -84.490675,33.634011 -84.490489,33.633635 -84.490472,33.63362 -84.490461,33.63357 -84.490375,33.633392 -84.490345,33.633324 -84.490082,33.63332 -84.489734,33.633323 -84.489659,33.633148 -84.489544,33.632867 -84.489433,33.632583 -84.489355,33.63237 -84.489304,33.632227 -84.48894,33.632228 -84.488959,33.631868 -84.487525,33.631884 -84.487438,33.631857 -84.487438,33.631886 -84.487408,33.632094 -84.487338,33.632316 -84.487236,33.632523 -84.487099,33.632719 -84.486976,33.632854 -84.486633,33.633179 -84.486513,33.633331 -84.484083,33.633337 -84.480916,33.633294 -84.480945,33.633186 -84.480566,33.633165 -84.480426,33.632837 -84.479918,33.632877 -84.480248,33.633248 -84.480199,33.633285 -84.477345,33.633245 -84.477366,33.630729 -84.478157,33.630723 -84.478857,33.630713 -84.478866,33.629884 -84.47892,33.628837 -84.478923,33.628432 -84.479018,33.624253 -84.479031,33.624141 -84.478658,33.624237 -84.478243,33.624372 -84.478154,33.624402 -84.477667,33.624596 -84.477212,33.624811 -84.476758,33.625063 -84.476349,33.625328 -84.475947,33.625627 -84.474391,33.626876 -84.473576,33.627529 -84.472435,33.628447 -84.472602,33.628593 -84.472661,33.628701 -84.47268,33.629329 -84.472695,33.631043 -84.472665,33.633079 -84.472637,33.633562 -84.472546,33.634405 -84.472521,33.634501 -84.472391,33.635854 -84.468271,33.634679 -84.467983,33.634572 -84.467768,33.634505 -84.467366,33.634315 -84.466944,33.634096 -84.466534,33.633835 -84.466135,33.633515 -84.465909,33.633312 -84.465669,33.633076 -84.465528,33.63293 -84.465362,33.632741 -84.46509,33.63239 -84.464964,33.632215 -84.464094,33.63063 -84.463944,33.630412 -84.46375,33.630176 -84.463578,33.630012 -84.463412,33.629861 -84.463057,33.629597 -84.462834,33.629475 -84.462606,33.629356 -84.462372,33.62925 -84.462133,33.629153 -84.461784,33.629028 -84.461218,33.628936 -84.460947,33.628913 -84.46067,33.628912 -84.460226,33.628941 -84.459185,33.629054 -84.458053,33.629241 -84.458052,33.629153 -84.45804,33.628777 -84.458017,33.628033 -84.458026,33.627394 -84.458031,33.627004 -84.458045,33.626007 -84.45805,33.625602 -84.458134,33.625284 -84.458206,33.625133 -84.458296,33.624981 -84.458309,33.624784 -84.458321,33.624624 -84.458327,33.624501 -84.458328,33.624303 -84.458328,33.623762 -84.458327,33.623401 -84.458328,33.62321 -84.458357,33.622582 -84.458351,33.622563 -84.458362,33.622465 -84.458382,33.622017 -84.458428,33.62101 -84.458327,33.62061 -84.458381,33.619935 -84.458398,33.619703 -84.458403,33.619619 -84.458427,33.61931 -84.458428,33.618987 -84.458427,33.61886 -84.458427,33.617932 -84.458426,33.617377 -84.458426,33.616183 -84.458438,33.61583 -84.458451,33.615606 -84.458456,33.615334 -84.458487,33.61428 -84.458508,33.613486 -84.458516,33.613361 -84.458528,33.61301 -84.458426,33.612811 -84.458501,33.609232 -84.458507,33.608975 -84.458514,33.608625 -84.458527,33.60801 -84.458527,33.607096 -84.458528,33.600412 -84.458528,33.599938 -84.45854,33.599128 -84.458601,33.596899 -84.458614,33.596448 -84.458614,33.596423 -84.458627,33.59591 -84.458606,33.595477 -84.458526,33.593812 -84.458535,33.593412 -84.458539,33.593204 -84.458566,33.591925 -84.458609,33.589662 -84.458623,33.588918 -84.458627,33.588192 -84.458627,33.586421 -84.458643,33.584527 -84.458579,33.583096 -84.458555,33.58254 -84.458489,33.581055 -84.458327,33.577395 -84.458322,33.577273 -84.458335,33.576642 -84.458351,33.576093 -84.458332,33.5756 -84.458337,33.575205 -84.458345,33.574652 -84.458346,33.574543 -84.458352,33.574327 -84.458376,33.573513 -84.458399,33.572743 -84.458512,33.57237 -84.45863,33.572107 -84.458667,33.571343 -84.458706,33.570516 -84.45872,33.570237 -84.458784,33.568938 -84.458904,33.566394 -84.458927,33.565911 -84.458927,33.565411 -84.458925,33.564211 -84.458924,33.559759 -84.458919,33.55971 -84.458765,33.558134 -84.458751,33.557997 -84.458579,33.556242 -84.458576,33.555842 -84.458604,33.553227 -84.458608,33.553007 -84.458626,33.552134 -84.458648,33.55145 -84.458665,33.550933 -84.457439,33.550908 -84.456756,33.550899 -84.455006,33.550865 -84.453977,33.550857 -84.45246,33.550901 -84.45233,33.550894 -84.452123,33.550899 -84.451704,33.5509 -84.451162,33.550902 -84.450346,33.55089 -84.448769,33.550885 -84.448349,33.550894 -84.447811,33.550898 -84.447341,33.550901 -84.446596,33.550885 -84.44533,33.550852 -84.444898,33.550848 -84.444754,33.550846 -84.443223,33.550807 -84.442013,33.550769 -84.440883,33.550745 -84.440508,33.550738 -84.440028,33.550739 -84.439649,33.550725 -84.439531,33.55072 -84.439448,33.55072 -84.439447,33.55048 -84.439249,33.549863 -84.439119,33.549582 -84.438957,33.549294 -84.438836,33.549137 -84.438717,33.548937 -84.43866,33.548811 -84.438587,33.54869 -84.43853,33.548614 -84.438267,33.548326 -84.438151,33.548174 -84.438036,33.547995 -84.437967,33.547874 -84.437891,33.547705 -84.437832,33.547531 -84.437761,33.547241 -84.4377,33.547069 -84.437644,33.546942 -84.437609,33.546872 -84.437309,33.546442 -84.437216,33.54628 -84.437137,33.546112 -84.437074,33.54594 -84.43696,33.54555 -84.436901,33.545369 -84.436534,33.544747 -84.436242,33.544095 -84.435834,33.543388 -84.43541,33.542599 -84.435045,33.541904 -84.43491,33.54162 -84.434836,33.541404 -84.434765,33.54114 -84.434712,33.540872 -84.434588,33.539895 -84.434525,33.539509 -84.434383,33.538193 -84.434184,33.536732 -84.434137,33.536231 -84.434042,33.535635 -84.433963,33.535362 -84.433936,33.535247 -84.433921,33.535007 -84.433796,33.534211 -84.433624,33.533462 -84.433499,33.532656 -84.433438,33.532196 -84.433358,33.53181 -84.43335,33.53175 -84.433281,33.531485 -84.433218,33.531174 -84.433185,33.530951 -84.433174,33.530771 -84.433178,33.530591 -84.43318,33.530571 -84.433237,33.529859 -84.433421,33.528638 -84.43353,33.528056 -84.433613,33.52758 -84.433778,33.52646 -84.433798,33.525748 -84.4338,33.525691 -84.433792,33.525421 -84.433765,33.525151 -84.43372,33.524884 -84.433667,33.524662 -84.433599,33.524445 -84.433531,33.524274 -84.433446,33.524108 -84.433395,33.524029 -84.433303,33.523918 -84.433232,33.52385 -84.433193,33.523818 -84.432956,33.523527 -84.432781,33.523283 -84.43245,33.522885 -84.432031,33.522359 -84.431489,33.521793 -84.43112,33.521317 -84.43071,33.520888 -84.43049,33.520625 -84.430345,33.520474 -84.430053,33.520147 -84.429837,33.519888 -84.429656,33.519669 -84.429257,33.519241 -84.428859,33.518802 -84.428453,33.518228 -84.427621,33.517235 -84.427543,33.517139 -84.427414,33.516976 -84.427391,33.516955 -84.427375,33.516928 -84.427158,33.516652 -84.426539,33.51597 -84.42597,33.515318 -84.425628,33.514909 -84.425053,33.514274 -84.424634,33.513798 -84.424151,33.513328 -84.423694,33.512936 -84.42334,33.512565 -84.422942,33.512127 -84.42262,33.511795 -84.422414,33.511637 -84.422247,33.511481 -84.421982,33.511179 -84.421673,33.510818 -84.420425,33.509614 -84.420427,33.507422 -84.420425,33.504298 -84.420425,33.502333 -84.420425,33.499813 -84.420432,33.499564 -84.420522,33.497839 -84.420525,33.497712 -84.420521,33.497591 -84.420507,33.497027 -84.420464,33.495377 -84.420429,33.494013 -84.420428,33.493992 -84.418999,33.493985 -84.418652,33.493993 -84.417692,33.494013 -84.413437,33.493958 -84.409996,33.493913 -84.409739,33.49391 -84.409718,33.493889 -84.409555,33.493699 -84.409163,33.493383 -84.408781,33.493111 -84.408293,33.492719 -84.40789,33.49241 -84.407423,33.492074 -84.406601,33.491448 -84.406144,33.491129 -84.405292,33.490602 -84.404577,33.490206 -84.404083,33.489868 -84.40375,33.489646 -84.40263,33.488905 -84.402572,33.488866 -84.401063,33.487859 -84.399661,33.487057 -84.3987,33.486538 -84.398348,33.486358 -84.397839,33.485965 -84.397479,33.485738 -84.396484,33.486264 -84.395794,33.486629 -84.395393,33.486834 -84.395425,33.48687 -84.395451,33.48691 -84.39547,33.486952 -84.39548,33.486995 -84.395483,33.487038 -84.395479,33.487085 -84.395469,33.48713 -84.395452,33.487173 -84.395399,33.487251 -84.395242,33.487429 -84.39505,33.487703 -84.39503,33.487744 -84.395018,33.487789 -84.395013,33.487834 -84.395015,33.487879 -84.395024,33.487923 -84.395039,33.487966 -84.395062,33.488007 -84.395172,33.488394 -84.395198,33.488528 -84.395187,33.488728 -84.395134,33.489027 -84.395137,33.489179 -84.395162,33.489359 -84.395196,33.489491 -84.395211,33.489719 -84.39521,33.489801 -84.395197,33.48989 -84.395172,33.489978 -84.395136,33.490063 -84.39504,33.49035 -84.39487,33.490783 -84.394699,33.49107 -84.394528,33.49134 -84.394446,33.491548 -84.39416,33.49205 -84.393972,33.492345 -84.393924,33.492376 -84.393847,33.492399 -84.393803,33.492424 -84.393768,33.492458 -84.393743,33.492497 -84.393729,33.492552 -84.39364,33.492666 -84.393581,33.492846 -84.393512,33.493341 -84.393348,33.493625 -84.393192,33.493862 -84.393026,33.494089 -84.392878,33.494219 -84.392757,33.494309 -84.392608,33.494405 -84.392254,33.494695 -84.392033,33.494822 -84.391805,33.494942 -84.391533,33.495068 -84.3912,33.495201 -84.391186,33.495215 -84.39103,33.495292 -84.390633,33.495617 -84.390624,33.495662 -84.390542,33.495769 -84.390332,33.495963 -84.39009,33.496129 -84.389937,33.496198 -84.389884,33.496203 -84.38983,33.496198 -84.389778,33.496187 -84.38973,33.496167 -84.38967,33.496129 -84.389644,33.49609 -84.389602,33.496007 -84.389551,33.495868 -84.389515,33.495835 -84.389465,33.495818 -84.389388,33.495825 -84.38934,33.495845 -84.389298,33.495873 -84.389263,33.495907 -84.389238,33.495947 -84.389221,33.496011 -84.389207,33.496035 -84.389087,33.49615 -84.388925,33.496204 -84.388847,33.496291 -84.388835,33.496336 -84.388834,33.496381 -84.388844,33.496425 -84.388884,33.496492 -84.388955,33.496628 -84.388959,33.496673 -84.388955,33.496718 -84.388944,33.496761 -84.388925,33.496805 -84.3889,33.496844 -84.388868,33.496879 -84.388794,33.496949 -84.388752,33.496978 -84.388705,33.497 -84.388654,33.497014 -84.388601,33.49702 -84.388545,33.497017 -84.38835,33.497048 -84.388068,33.497115 -84.388015,33.497121 -84.387964,33.497134 -84.387916,33.497155 -84.387874,33.497183 -84.387838,33.497216 -84.387794,33.49729 -84.387318,33.497985 -84.387262,33.498043 -84.387154,33.498133 -84.386968,33.498247 -84.386812,33.498433 -84.386601,33.498627 -84.386356,33.4989 -84.386326,33.498939 -84.386302,33.498979 -84.386286,33.499021 -84.386278,33.499066 -84.386278,33.499111 -84.386285,33.499156 -84.386412,33.499533 -84.386763,33.500038 -84.386838,33.500075 -84.38688,33.500103 -84.386911,33.50014 -84.386927,33.500182 -84.386918,33.500258 -84.386901,33.5003 -84.386881,33.500389 -84.386879,33.500473 -84.386971,33.500585 -84.387107,33.500776 -84.387295,33.500978 -84.387452,33.501117 -84.387505,33.501123 -84.387552,33.501145 -84.387588,33.501179 -84.38761,33.501264 -84.387636,33.501455 -84.387652,33.501626 -84.387667,33.501669 -84.387714,33.501751 -84.38778,33.501821 -84.387863,33.501879 -84.387913,33.501903 -84.388178,33.502052 -84.388233,33.50213 -84.388277,33.502212 -84.388309,33.502298 -84.38833,33.502387 -84.388339,33.502476 -84.388335,33.50257 -84.388295,33.502831 -84.388262,33.502916 -84.38824,33.503005 -84.388227,33.50314 -84.388232,33.50323 -84.388248,33.503317 -84.388272,33.503566 -84.38826,33.503642 -84.388259,33.503687 -84.388246,33.503731 -84.38822,33.50377 -84.388183,33.503802 -84.388138,33.503827 -84.388038,33.503845 -84.387941,33.503884 -84.387803,33.503954 -84.387676,33.504036 -84.387501,33.504181 -84.387473,33.504199 -84.387323,33.504353 -84.387078,33.504619 -84.387051,33.504658 -84.386981,33.504725 -84.386939,33.504755 -84.386894,33.504779 -84.386846,33.504799 -84.38677,33.50482 -84.386718,33.50483 -84.386611,33.504838 -84.38635,33.504829 -84.386298,33.504817 -84.386245,33.504817 -84.386193,33.504831 -84.386149,33.504855 -84.386114,33.50489 -84.386088,33.50495 -84.385929,33.505072 -84.385802,33.50515 -84.385704,33.505189 -84.385602,33.505215 -84.385518,33.505229 -84.385384,33.505294 -84.385366,33.505322 -84.385345,33.505304 -84.385182,33.505355 -84.384974,33.50545 -84.384938,33.505482 -84.384908,33.505519 -84.384885,33.505561 -84.38487,33.505604 -84.384863,33.505649 -84.384869,33.505718 -84.384861,33.506006 -84.384914,33.506377 -84.384928,33.506421 -84.384935,33.506466 -84.384933,33.506511 -84.384923,33.506555 -84.384906,33.506597 -84.384881,33.506638 -84.38485,33.506673 -84.384796,33.506718 -84.384555,33.506866 -84.384272,33.506942 -84.384223,33.506959 -84.384171,33.50697 -84.384117,33.506974 -84.384064,33.506971 -84.384011,33.506963 -84.383961,33.506946 -84.383896,33.506915 -84.383741,33.506791 -84.383693,33.506771 -84.383556,33.506763 -84.383506,33.506779 -84.383465,33.506808 -84.383435,33.506861 -84.383106,33.507033 -84.383019,33.507086 -84.382924,33.507129 -84.382823,33.507161 -84.382772,33.507173 -84.382618,33.507196 -84.382517,33.507227 -84.382423,33.507271 -84.382338,33.507326 -84.382266,33.507393 -84.382233,33.50743 -84.382011,33.507607 -84.381851,33.507733 -84.381781,33.507801 -84.381728,33.50788 -84.381692,33.507965 -84.381675,33.508054 -84.381666,33.508352 -84.385175,33.510734 -84.38537,33.510702 -84.38549,33.510697 -84.385866,33.510706 -84.386085,33.510731 -84.386181,33.510772 -84.386341,33.510863 -84.38651,33.510982 -84.386941,33.510357 -84.387108,33.510132 -84.38718,33.510014 -84.387211,33.509943 -84.38722,33.509901 -84.388215,33.510092 -84.389671,33.510437 -84.390819,33.510689 -84.390814,33.510848 -84.390815,33.511651 -84.39084,33.511972 -84.390862,33.51216 -84.39086,33.512346 -84.390838,33.512521 -84.390742,33.512862 -84.390382,33.513523 -84.390396,33.513539 -84.390621,33.513706 -84.39074,33.513816 -84.390791,33.513877 -84.390848,33.513964 -84.390899,33.514082 -84.390932,33.514204 -84.390954,33.514325 -84.390962,33.514452 -84.390949,33.514637 -84.390925,33.514767 -84.3909,33.514864 -84.39086,33.514961 -84.390799,33.515065 -84.39065,33.515261 -84.390589,33.515338 -84.390406,33.51551 -84.390569,33.515706 -84.390632,33.515805 -84.39068,33.515906 -84.390712,33.515993 -84.390729,33.516067 -84.390745,33.516216 -84.390731,33.516591 -84.390717,33.51677 -84.390691,33.516919 -84.390689,33.516975 -84.390672,33.517038 -84.390632,33.517114 -84.390585,33.517162 -84.39053,33.517194 -84.390493,33.517203 -84.39,33.517197 -84.387955,33.517111 -84.387662,33.517091 -84.387484,33.517068 -84.387441,33.518078 -84.387339,33.518071 -84.386715,33.518079 -84.385103,33.518138 -84.384742,33.518152 -84.383999,33.518157 -84.383311,33.518124 -84.382528,33.518062 -84.382374,33.51806 -84.381998,33.518046 -84.38003,33.51797 -84.380164,33.518147 -84.3804,33.518419 -84.380754,33.518793 -84.381264,33.519255 -84.38148,33.519489 -84.381609,33.519678 -84.381706,33.519911 -84.381752,33.520077 -84.381789,33.520251 -84.381805,33.520417 -84.3818,33.520561 -84.381776,33.520806 -84.381589,33.521324 -84.381607,33.521847 -84.381632,33.52312 -84.381646,33.523328 -84.381621,33.523716 -84.381561,33.52469 -84.381564,33.524814 -84.381446,33.525629 -84.381458,33.525784 -84.381499,33.525987 -84.38158,33.526204 -84.381703,33.526364 -84.381883,33.526519 -84.381717,33.526674 -84.381089,33.526977 -84.380883,33.527108 -84.380795,33.527227 -84.380709,33.527405 -84.380649,33.5276 -84.380658,33.527748 -84.380635,33.528407 -84.380605,33.528629 -84.380519,33.528793 -84.379939,33.529615 -84.379649,33.529967 -84.37952,33.530251 -84.379502,33.530631 -84.379538,33.531198 -84.379588,33.531346 -84.37977,33.531557 -84.380523,33.531886 -84.380783,33.531982 -84.38095,33.532031 -84.380961,33.532427 -84.380935,33.532503 -84.380763,33.532826 -84.380725,33.532915 -84.380711,33.532997 -84.380681,33.533462 -84.380687,33.533913 -84.380671,33.534636 -84.38063,33.535105 -84.380628,33.535165 -84.380642,33.535213 -84.380719,33.535316 -84.380167,33.535486 -84.379654,33.535654 -84.379517,33.535711 -84.379394,33.535781 -84.379287,33.535876 -84.379183,33.535981 -84.379037,33.536066 -84.378888,33.536108 -84.378732,33.536127 -84.378507,33.536126 -84.378357,33.536078 -84.378216,33.536009 -84.378102,33.535926 -84.377991,33.535854 -84.37797,33.535862 -84.377886,33.535913 -84.37784,33.535981 -84.377769,33.536109 -84.377734,33.536217 -84.377744,33.536299 -84.377718,33.536624 -84.377688,33.536703 -84.377647,33.536762 -84.377574,33.536823 -84.377449,33.53689 -84.377337,33.536931 -84.377281,33.536976 -84.377141,33.537179 -84.37664,33.536999 -84.376577,33.537101 -84.376487,33.53721 -84.376337,33.537512 -84.37622,33.537836 -84.376073,33.538049 -84.375717,33.53842 -84.375395,33.538738 -84.375198,33.538961 -84.375151,33.539042 -84.375122,33.539129 -84.375112,33.539211 -84.37512,33.539257 -84.375106,33.539319 -84.375114,33.539408 -84.375144,33.539552 -84.375181,33.539685 -84.375234,33.539809 -84.375258,33.539897 -84.375276,33.540031 -84.375273,33.540166 -84.375251,33.540287 -84.375228,33.54072 -84.375186,33.541378 -84.375101,33.542043 -84.375093,33.542341 -84.375112,33.542475 -84.375137,33.542563 -84.375268,33.54288 -84.37539,33.543177 -84.375479,33.543459 -84.375488,33.543503 -84.375516,33.54359 -84.375556,33.543674 -84.375609,33.543751 -84.375672,33.543825 -84.375767,33.543906 -84.375825,33.543982 -84.375898,33.544103 -84.375954,33.54423 -84.375991,33.544362 -84.376008,33.54448 -84.376019,33.544851 -84.376005,33.544939 -84.375964,33.545116 -84.375909,33.545273 -84.375725,33.545648 -84.375587,33.545941 -84.375529,33.546356 -84.375531,33.546401 -84.375552,33.546489 -84.375571,33.546532 -84.375595,33.546571 -84.375641,33.546629 -84.375745,33.546733 -84.375866,33.546823 -84.375947,33.54687 -84.376045,33.546906 -84.376136,33.546954 -84.376218,33.547013 -84.376289,33.54708 -84.376337,33.54714 -84.37662,33.547417 -84.376869,33.547728 -84.37692,33.547808 -84.376988,33.547877 -84.377069,33.547936 -84.377114,33.547961 -84.377212,33.548 -84.37728,33.548017 -84.377386,33.548035 -84.377484,33.548071 -84.377558,33.548113 -84.377598,33.548144 -84.377642,33.548169 -84.377689,33.54819 -84.37774,33.548205 -84.377793,33.548215 -84.377867,33.548219 -84.37792,33.548214 -84.377973,33.548204 -84.378024,33.548189 -84.378072,33.54817 -84.378118,33.548146 -84.378161,33.548116 -84.378254,33.548073 -84.378305,33.548057 -84.378357,33.548046 -84.37841,33.54804 -84.378464,33.548039 -84.378518,33.548043 -84.378622,33.548065 -84.378671,33.548083 -84.378743,33.548121 -84.378777,33.548155 -84.378817,33.548186 -84.37886,33.548212 -84.378907,33.548235 -84.378956,33.548251 -84.379092,33.548279 -84.379146,33.548281 -84.379245,33.548267 -84.379538,33.548201 -84.379763,33.548167 -84.379817,33.548167 -84.379869,33.548178 -84.379916,33.5482 -84.379955,33.548231 -84.379998,33.548301 -84.380143,33.54851 -84.380219,33.548639 -84.380234,33.548703 -84.380244,33.548793 -84.380232,33.549 -84.380232,33.54918 -84.380247,33.549343 -84.380288,33.549416 -84.380367,33.549644 -84.380554,33.549864 -84.380707,33.550165 -84.380745,33.550319 -84.380739,33.550373 -84.38075,33.550417 -84.380775,33.550455 -84.380813,33.550488 -84.380859,33.550511 -84.380912,33.550521 -84.381008,33.550561 -84.38105,33.550589 -84.381087,33.550621 -84.381118,33.550658 -84.381143,33.550697 -84.381192,33.550763 -84.381256,33.550835 -84.381362,33.550936 -84.381399,33.55098 -84.381418,33.551022 -84.381424,33.551067 -84.381417,33.551111 -84.381397,33.551153 -84.381366,33.55119 -84.381319,33.551266 -84.381229,33.55143 -84.381251,33.551505 -84.381298,33.551586 -84.381329,33.551623 -84.381458,33.55173 -84.381492,33.551766 -84.38155,33.551842 -84.381591,33.551924 -84.381571,33.552079 -84.38158,33.552169 -84.381593,33.552213 -84.381611,33.552255 -84.381663,33.552334 -84.381696,33.55237 -84.381898,33.552481 -84.382132,33.552585 -84.382588,33.552802 -84.382993,33.552965 -84.383102,33.553012 -84.383235,33.553088 -84.383353,33.553179 -84.383519,33.553392 -84.383556,33.553454 -84.383586,33.553492 -84.383657,33.553559 -84.383742,33.553615 -84.383789,33.553637 -84.383889,33.553669 -84.384041,33.553697 -84.384092,33.553713 -84.384184,33.553759 -84.38426,33.553821 -84.384291,33.553859 -84.384323,33.553918 -84.384353,33.553955 -84.384388,33.553989 -84.38443,33.554018 -84.384475,33.554042 -84.384524,33.55406 -84.384576,33.554073 -84.384623,33.554101 -84.384674,33.554115 -84.384728,33.554115 -84.384779,33.554102 -84.384806,33.554088 -84.384801,33.554122 -84.384912,33.554172 -84.384948,33.554333 -84.384922,33.55442 -84.384885,33.554505 -84.384806,33.554628 -84.384767,33.554711 -84.384758,33.554801 -84.384778,33.554889 -84.384829,33.554972 -84.385374,33.555691 -84.385654,33.555985 -84.385704,33.556065 -84.385745,33.556148 -84.385778,33.556234 -84.385801,33.556322 -84.385818,33.556435 -84.385827,33.556901 -84.385889,33.557414 -84.385979,33.55775 -84.385983,33.557992 -84.385971,33.558089 -84.384712,33.557755 -84.38387,33.557547 -84.382851,33.557286 -84.382526,33.557206 -84.382238,33.557112 -84.381289,33.556927 -84.380154,33.556785 -84.377513,33.556485 -84.376447,33.556401 -84.375707,33.556347 -84.375203,33.556173 -84.375114,33.556129 -84.375018,33.556073 -84.374891,33.555989 -84.374611,33.555779 -84.37441,33.555734 -84.374273,33.555711 -84.374071,33.555693 -84.37398,33.555688 -84.373231,33.555655 -84.371917,33.555569 -84.370939,33.555533 -84.370766,33.55555 -84.370524,33.555572 -84.369068,33.555647 -84.368557,33.555659 -84.367509,33.555664 -84.367111,33.555659 -84.366805,33.555653 -84.366467,33.555651 -84.36635,33.555645 -84.365809,33.555611 -84.365252,33.555498 -84.365,33.555391 -84.364707,33.555291 -84.363597,33.554787 -84.363217,33.554614 -84.363033,33.554535 -84.362605,33.554342 -84.362181,33.554169 -84.361746,33.554011 -84.361403,33.553894 -84.361052,33.5538 -84.360879,33.553753 -84.360463,33.553665 -84.360274,33.553632 -84.359783,33.553586 -84.35877,33.553534 -84.358341,33.553514 -84.358018,33.55352 -84.356806,33.553509 -84.355171,33.553444 -84.354233,33.553362 -84.353649,33.553303 -84.352601,33.553244 -84.352024,33.553236 -84.351748,33.55323 -84.348245,33.553156 -84.347717,33.553158 -84.347323,33.55316 -84.346924,33.553151 -84.346424,33.553197 -84.34605,33.553229 -84.3458,33.553246 -84.345532,33.553257 -84.345401,33.553244 -84.344988,33.55322 -84.344478,33.553179 -84.343373,33.553108 -84.34287,33.553082 -84.341699,33.553009 -84.34099,33.552945 -84.340543,33.552887 -84.339971,33.552791 -84.338744,33.552568 -84.337526,33.552472 -84.336449,33.552484 -84.336295,33.55249 -84.335891,33.552503 -84.334948,33.552635 -84.334282,33.552767 -84.333395,33.55297 -84.333218,33.553148 -84.332189,33.554343 -84.331777,33.554793 -84.331428,33.555175 -84.330305,33.556022 -84.329397,33.556415 -84.32834,33.556766 -84.327876,33.556908 -84.327278,33.557119 -84.327008,33.557219 -84.32678,33.557332 -84.326449,33.557549 -84.326104,33.557789 -84.32596,33.557915 -84.325407,33.558456 -84.324399,33.559441 -84.323332,33.560484 -84.322669,33.561118 -84.322438,33.561323 -84.322221,33.561673 -84.322058,33.561976 -84.321842,33.562553 -84.321282,33.563492 -84.321087,33.563775 -84.320893,33.563996 -84.320332,33.564638 -84.320301,33.564674 -84.32008,33.564946 -84.320116,33.564969 -84.322098,33.566294 -84.323167,33.566996 -84.323978,33.567556 -84.324967,33.568201 -84.327092,33.569644 -84.327064,33.569726 -84.32699,33.56997 -84.32696,33.570103 -84.326946,33.570238 -84.326947,33.570373 -84.326962,33.570507 -84.326997,33.570654 -84.327004,33.570789 -84.32702,33.570878 -84.327058,33.571009 -84.327114,33.571136 -84.327161,33.571217 -84.327244,33.571333 -84.327308,33.571405 -84.327416,33.571506 -84.327491,33.571563 -84.32783,33.571862 -84.328238,33.572259 -84.328311,33.572325 -84.328374,33.572398 -84.328428,33.572476 -84.32847,33.572559 -84.328513,33.572689 -84.328526,33.572779 -84.328527,33.572869 -84.328516,33.572958 -84.328502,33.573002 -84.328413,33.573052 -84.328317,33.573094 -84.328168,33.573146 -84.327877,33.573233 -84.327656,33.573298 -84.327551,33.573318 -84.327444,33.573328 -84.327336,33.573327 -84.327229,33.573317 -84.327104,33.573291 -84.326698,33.573282 -84.32597,33.57312 -84.324853,33.57289 -84.324238,33.572784 -84.324136,33.572757 -84.324038,33.572718 -84.323961,33.572676 -84.323803,33.572647 -84.323642,33.572638 -84.323527,33.572643 -84.322871,33.57275 -84.322286,33.572895 -84.322134,33.572941 -84.321977,33.572971 -84.321817,33.572988 -84.321655,33.572989 -84.3215,33.572975 -84.321046,33.572978 -84.320761,33.572959 -84.320529,33.572954 -84.320297,33.572961 -84.320138,33.572998 -84.319849,33.573035 -84.319743,33.573059 -84.31935,33.572887 -84.318969,33.572751 -84.31893,33.57272 -84.318841,33.572669 -84.318792,33.57265 -84.318689,33.572625 -84.318635,33.57262 -84.318552,33.57262 -84.318448,33.572598 -84.318348,33.572564 -84.318251,33.572516 -84.317556,33.572206 -84.317359,33.572133 -84.317106,33.572057 -84.316846,33.571999 -84.316688,33.571972 -84.316225,33.571914 -84.315821,33.571832 -84.315634,33.57178 -84.315528,33.571764 -84.315421,33.571761 -84.315314,33.57177 -84.315209,33.57179 -84.315158,33.571805 -84.314921,33.571898 -84.314767,33.57194 -84.314609,33.571965 -84.314501,33.571972 -84.314424,33.571972 -84.313959,33.571998 -84.313726,33.572054 -84.313305,33.572069 -84.312882,33.572121 -84.312534,33.572113 -84.312303,33.572084 -84.312061,33.572065 -84.311901,33.572074 -84.311795,33.572093 -84.311693,33.572122 -84.311596,33.57216 -84.311504,33.572207 -84.311442,33.572247 -84.311115,33.572507 -84.310805,33.572707 -84.31062,33.572871 -84.310537,33.572928 -84.310441,33.57297 -84.310338,33.572994 -84.310285,33.572999 -84.310186,33.572997 -84.309951,33.573113 -84.309845,33.573098 -84.309742,33.573071 -84.30962,33.573021 -84.309449,33.572932 -84.309349,33.572899 -84.309297,33.572887 -84.309179,33.572874 -84.309127,33.572864 -84.309076,33.572848 -84.309028,33.572828 -84.308946,33.572776 -84.308803,33.5727 -84.308592,33.572501 -84.308449,33.572437 -84.308047,33.572235 -84.307932,33.572161 -84.306883,33.572754 -84.306613,33.572907 -84.30618,33.573142 -84.304754,33.573915 -84.304481,33.57414 -84.304049,33.574558 -84.303484,33.575316 -84.303141,33.576138 -84.30308,33.576787 -84.303121,33.576932 -84.303258,33.577365 -84.303527,33.578463 -84.303534,33.578583 -84.303562,33.579007 -84.303564,33.579566 -84.303511,33.580661 -84.303371,33.581809 -84.303265,33.582198 -84.302898,33.583351 -84.302503,33.584454 -84.302196,33.585341 -84.302114,33.585756 -84.302079,33.586125 -84.302052,33.587293 -84.302074,33.590404 -84.302052,33.591113 -84.302066,33.591302 -84.301947,33.59349 -84.300681,33.592872 -84.298976,33.592039 -84.298141,33.591661 -84.297638,33.591488 -84.297357,33.591445 -84.297077,33.591446 -84.296805,33.591469 -84.296549,33.591522 -84.295579,33.591651 -84.295244,33.591696 -84.294181,33.591636 -84.294306,33.592015 -84.294475,33.592572 -84.294712,33.593259 -84.294929,33.593735 -84.295365,33.594535 -84.295807,33.595314 -84.297038,33.597565 -84.298247,33.599711 -84.298742,33.600534 -84.299013,33.601019 -84.299227,33.601433 -84.299472,33.601911 -84.299707,33.602362 -84.302274,33.607108 -84.303258,33.608962 -84.303286,33.60901 -84.305492,33.613075 -84.305531,33.613147 -84.306638,33.615256 -84.306817,33.615554 -84.307303,33.61645 -84.307822,33.617491 -84.308175,33.61821 -84.308564,33.61913 -84.308676,33.619402 -84.308869,33.619868 -84.308894,33.61993 -84.309595,33.621627 -84.309653,33.621757 -84.310005,33.622538 -84.310993,33.624721 -84.311095,33.624972 -84.311232,33.625348 -84.311241,33.625429 -84.311292,33.625601 -84.311332,33.62571 -84.311406,33.625904 -84.311504,33.626135 -84.311625,33.626425 -84.311797,33.626823 -84.311936,33.627156 -84.312218,33.627668 -84.312452,33.628019 -84.312858,33.628545 -84.31289,33.628582 -84.312765,33.628645 -84.312433,33.628855 -84.311728,33.629409 -84.310914,33.630021 -84.310338,33.630436 -84.309977,33.630746 -84.309814,33.630867 -84.309494,33.631107 -84.309127,33.631363 -84.308936,33.631477 -84.308777,33.631535 -84.309015,33.631949 -84.309222,33.632448 -84.309314,33.632797 -84.309413,33.633418 -84.309367,33.635259 -84.309347,33.636034 -84.309408,33.637155 -84.309566,33.637636 -84.309797,33.637982 -84.311152,33.639305 -84.313984,33.642072 -84.314428,33.642506 -84.314667,33.642653 -84.315202,33.642961 -84.31535,33.643058 -84.315458,33.643165 -84.315572,33.643298 -84.315635,33.643429 -84.315627,33.643602 -84.314873,33.643536 -84.314597,33.643525 -84.314144,33.643529 -84.313596,33.64357 -84.313341,33.643615 -84.31135,33.64394 -84.309579,33.644097 -84.309206,33.644089 -84.308029,33.644312 -84.307001,33.644551 -84.306732,33.644613 -84.306396,33.64482 -84.305609,33.645707 -84.305469,33.645867 -84.304605,33.646276 -84.304079,33.646442 -84.303852,33.646526 -84.303693,33.646505 -84.303242,33.646326 -84.302758,33.64612 -84.300193,33.64512 -84.299546,33.644961 -84.299161,33.644768 -84.298755,33.645071 -84.29837,33.645401 -84.297671,33.646152 -84.296622,33.647108 -84.3018,33.647158 -84.302126,33.647162 -84.305383,33.647193 -84.308258,33.647222 -84.31052,33.647213 -84.312547,33.647204 -84.313255,33.647204 -84.313503,33.647203 -84.315676,33.647208 -84.316389,33.64721 -84.317849,33.647213 -84.317864,33.647208 -84.318339,33.647212 -84.318413,33.647212 -84.32033,33.647207 -84.323306,33.647199 -84.323638,33.647241 -84.323583,33.647445 -84.323373,33.64781 -84.323085,33.648353 -84.322934,33.648568 -84.322826,33.648682 -84.322159,33.649223 -84.321626,33.649795 -84.321284,33.65013 -84.321161,33.650244 -84.321034,33.650335 -84.320481,33.650734 -84.320271,33.650905 -84.32014,33.651058 -84.319803,33.651571 -84.31975,33.651651 -84.319588,33.651848 -84.319437,33.652148 -84.319397,33.652229 -84.319183,33.652655 -84.318764,33.653235 -84.318428,33.653823 -84.318129,33.654347 -84.317868,33.654861 -84.317683,33.65523 -84.317348,33.655862 -84.31527,33.655928 -84.31235,33.655933 -84.312045,33.655945 -84.311848,33.655966 -84.31169,33.655995 -84.311511,33.656034 -84.310833,33.656467 -84.310092,33.657047 -84.309581,33.657355 -84.309048,33.65757 -84.308445,33.657756 -84.308061,33.657876 -84.307597,33.658043 -84.307178,33.658119 -84.306862,33.658169 -84.306631,33.658193 -84.306435,33.658224 -84.306238,33.658269 -84.306084,33.658309 -84.305912,33.658362 -84.305739,33.658451 -84.305453,33.658629 -84.304776,33.659084 -84.304525,33.65922 -84.304148,33.65947 -84.304115,33.659499 -84.304045,33.659548 -84.30389,33.659639 -84.303288,33.659925 -84.302461,33.660274 -84.301954,33.66049 -84.302147,33.660512 -84.302514,33.660581 -84.302792,33.660658 -84.302931,33.660688 -84.303204,33.660809 -84.303221,33.660821 -84.304155,33.661288 -84.304848,33.661665 -84.305668,33.662089 -84.306033,33.662395 -84.306196,33.662612 -84.306356,33.662921 -84.30642,33.663189 -84.306778,33.665884 -84.306841,33.666979 -84.306868,33.667334 -84.307176,33.668675 -84.307633,33.669504 -84.30794,33.670263 -84.308518,33.671648 -84.308596,33.671825 -84.308681,33.67213 -84.308731,33.672335 -84.308756,33.672614 -84.308785,33.672851 -84.308771,33.673097 -84.308643,33.67366 -84.30859,33.673851 -84.308397,33.674535 -84.308299,33.67488 -84.30794,33.675953 -84.307816,33.676393 -84.307606,33.676956 -84.30751,33.677377 -84.307482,33.677594 -84.307447,33.678006 -84.307465,33.67825 -84.30748,33.678363 -84.307543,33.67857 -84.307637,33.678824 -84.307689,33.67896 -84.30795,33.679612 -84.308275,33.679417 -84.308609,33.67928 -84.308675,33.679239 -84.309149,33.679119 -84.309593,33.679025 -84.310002,33.679008 -84.310159,33.679011 -84.31036,33.679121 -84.310666,33.67932 -84.310902,33.67948 -84.31114,33.679541 -84.311972,33.679726 -84.312133,33.679776 -84.313511,33.680062 -84.314663,33.680325 -84.314853,33.680365 -84.315687,33.680529 -84.316184,33.680635 -84.317015,33.680798 -84.317044,33.6808 -84.317806,33.680969 -84.320636,33.681597 -84.321041,33.681699 -84.321233,33.681923 -84.321424,33.683003 -84.32107,33.684068 -84.321478,33.685398 -84.321541,33.685568 -84.321562,33.685977 -84.321571,33.686766 -84.321537,33.687315 -84.32152,33.688935 -84.314694,33.688833 -84.313136,33.68887 -84.312467,33.688863 -84.312302,33.688843 -84.312196,33.688826 -84.311988,33.68878 -84.311784,33.68872 -84.311588,33.688646 -84.3114,33.688558 -84.311221,33.688458 -84.311035,33.688317 -84.310887,33.68814 -84.310756,33.688273 -84.310081,33.688705 -84.309962,33.688748 -84.309459,33.688891 -84.309355,33.688914 -84.309142,33.688935 -84.308444,33.688942 -84.308039,33.688969 -84.307826,33.688999 -84.307618,33.689045 -84.307415,33.689105 -84.307218,33.689179 -84.30703,33.689267 -84.306851,33.689367 -84.306683,33.68948 -84.306527,33.689605 -84.306384,33.689739 -84.306241,33.689901 -84.305848,33.690629 -84.30544,33.691359 -84.305279,33.691694 -84.305136,33.692034 -84.305009,33.692383 -84.304718,33.693447 -84.304667,33.6937 -84.304631,33.693808 -84.304542,33.693972 -84.304397,33.694213 -84.304212,33.694491 -84.30382,33.694894 -84.303288,33.695442 -84.303136,33.695569 -84.303,33.69571 -84.302884,33.695861 -84.302833,33.695941 -84.302788,33.696022 -84.302155,33.697369 -84.301886,33.697954 -84.301646,33.698449 -84.30127,33.699275 -84.300911,33.699846 -84.300783,33.699971 -84.300641,33.700245 -84.300549,33.700474 -84.300533,33.70068 -84.300547,33.700855 -84.3006,33.700975 -84.300652,33.701119 -84.300814,33.701405 -84.300886,33.70163 -84.300895,33.701766 -84.30088,33.702099 -84.300807,33.702559 -84.300741,33.70302 -84.30066,33.703527 -84.300602,33.703834 -84.300525,33.704045 -84.300365,33.704389 -84.300079,33.70498 -84.299907,33.70534 -84.299591,33.706007 -84.299429,33.706285 -84.29979,33.706502 -84.300246,33.706934 -84.300927,33.707799 -84.301275,33.70815 -84.301588,33.708449 -84.302043,33.708894 -84.302366,33.709219 -84.303059,33.709865 -84.303448,33.710261 -84.303722,33.710663 -84.303971,33.711199 -84.304361,33.712195 -84.30447,33.712643 -84.304672,33.713463 -84.304795,33.713941 -84.304916,33.714274 -84.305141,33.714647 -84.305496,33.715054 -84.305634,33.715279 -84.30227,33.715226 -84.302023,33.715223 -84.29941,33.715189 -84.299121,33.715177 -84.298799,33.715152 -84.298479,33.715114 -84.298161,33.715063 -84.297845,33.714999 -84.297759,33.715186 -84.297501,33.715502 -84.297431,33.715536 -84.297328,33.715541 -84.297141,33.715512 -84.296995,33.715516 -84.296925,33.715565 -84.296922,33.715657 -84.296885,33.715757 -84.296753,33.715847 -84.296658,33.715881 -84.296572,33.715907 -84.296526,33.715985 -84.296565,33.716108 -84.296452,33.716177 -84.296341,33.716174 -84.296246,33.716179 -84.296124,33.716248 -84.296054,33.716304 -84.295983,33.716395 -84.295827,33.716456 -84.295741,33.716462 -84.295622,33.716431 -84.295512,33.716385 -84.295427,33.716355 -84.295256,33.716365 -84.295186,33.716407 -84.295166,33.716506 -84.295222,33.716622 -84.295295,33.716742 -84.295412,33.71683 -84.295419,33.716902 -84.295417,33.716966 -84.295381,33.717001 -84.295286,33.717035 -84.29493,33.717185 -84.294817,33.717254 -84.294728,33.717359 -84.294608,33.717643 -84.294559,33.717813 -84.294462,33.717926 -84.29433,33.718023 -84.294207,33.718135 -84.294187,33.718227 -84.294234,33.718364 -84.294325,33.718467 -84.294382,33.718561 -84.294392,33.718783 -84.29451,33.719104 -84.294263,33.719146 -84.293848,33.719337 -84.293787,33.719357 -84.293827,33.719488 -84.29385,33.719602 -84.293878,33.719698 -84.293919,33.719782 -84.293981,33.719868 -84.294124,33.720046 -84.295235,33.721141 -84.295552,33.721496 -84.294681,33.722224 -84.294485,33.72249 -84.29432,33.722738 -84.294094,33.723106 -84.294021,33.723259 -84.29373,33.723774 -84.293466,33.724236 -84.293412,33.72435 -84.293287,33.724579 -84.293157,33.724832 -84.293025,33.725066 -84.292457,33.726101 -84.292385,33.726235 -84.292242,33.726476 -84.292075,33.726708 -84.291933,33.726868 -84.291642,33.727128 -84.291555,33.727193 -84.291515,33.727231 -84.29132,33.727371 -84.291197,33.727452 -84.291095,33.727514 -84.290973,33.727573 -84.290884,33.727607 -84.290671,33.727648 -84.290564,33.727658 -84.290454,33.727663 -84.290068,33.727638 -84.289684,33.727621 -84.289559,33.727634 -84.289469,33.727658 -84.289285,33.727723 -84.289192,33.727772 -84.288986,33.727922 -84.28865,33.728258 -84.288586,33.728336 -84.288273,33.728625 -84.287949,33.728923 -84.287925,33.728947 -84.287786,33.729049 -84.287711,33.729087 -84.287527,33.729142 -84.28746,33.729148 -84.287315,33.72915 -84.286711,33.729129 -84.285699,33.729086 -84.285368,33.729073 -84.284949,33.729068 -84.284802,33.729075 -84.284667,33.729075 -84.284356,33.729094 -84.283478,33.729208 -84.281343,33.729528 -84.281736,33.730032 -84.282255,33.730654 -84.283225,33.731834 -84.280327,33.731828 -84.279493,33.731789 -84.279071,33.731775 -84.277837,33.731769 -84.277027,33.731776 -84.276273,33.731747 -84.274954,33.731735 -84.273681,33.731707 -84.272444,33.731675 -84.272187,33.731674 -84.270959,33.731688 -84.269624,33.731705 -84.268346,33.731698 -84.267086,33.731665 -84.267074,33.731832 -84.267027,33.732117 -84.266961,33.732237 -84.266974,33.732334 -84.267032,33.732438 -84.267116,33.732677 -84.267144,33.733261 -84.267048,33.733387 -84.267058,33.733535 -84.267129,33.733723 -84.267184,33.734183 -84.267255,33.734351 -84.267338,33.734411 -84.26749,33.734465 -84.26764,33.734558 -84.267869,33.734852 -84.268055,33.735286 -84.268295,33.735692 -84.269159,33.737251 -84.269334,33.737544 -84.269317,33.737848 -84.269405,33.737978 -84.269468,33.738098 -84.269471,33.738116 -84.269475,33.738238 -84.26828,33.738203 -84.267931,33.738197 -84.266826,33.738177 -84.26668,33.738174 -84.265004,33.738147 -84.263437,33.738104 -84.261778,33.73811 -84.261404,33.738101 -84.260423,33.738088 -84.259058,33.738058 -84.258087,33.738053 -84.256662,33.738021 -84.255428,33.738002 -84.254103,33.73799 -84.251991,33.737934 -84.252014,33.738155 -84.252079,33.738342 -84.252144,33.738504 -84.252241,33.73865 -84.252348,33.738779 -84.252522,33.739045 -84.253122,33.740351 -84.253506,33.74118 -84.253622,33.741335 -84.253769,33.74149 -84.253917,33.741612 -84.254175,33.741769 -84.254404,33.741876 -84.255287,33.742124 -84.256367,33.742511 -84.256756,33.74268 -84.257382,33.743032 -84.258236,33.743533 -84.258425,33.743656 -84.259724,33.744462 -84.259138,33.744827 -84.257962,33.74551 -84.25712,33.745914 -84.256814,33.745984 -84.256714,33.745964 -84.256393,33.745856 -84.255952,33.746049 -84.255243,33.74638 -84.255018,33.746459 -84.254835,33.746506 -84.254703,33.746528 -84.254622,33.74651 -84.254439,33.74719 -84.254413,33.747367 -84.254463,33.747706 -84.254244,33.748331 -84.254073,33.74883 -84.254149,33.749601 -84.25261,33.749579 -84.251902,33.749563 -84.250516,33.749566 -84.250143,33.749516 -84.24971,33.750098 -84.249612,33.750324 -84.249548,33.750745 -84.249534,33.751159 -84.249542,33.751886 -84.249566,33.752072 -84.249619,33.752302 -84.249774,33.752846 -84.249931,33.753306 -84.250264,33.754285 -84.250518,33.7549 -84.250727,33.755318 -84.251437,33.756543 -84.251654,33.757029 -84.251615,33.758237 -84.251612,33.758338 -84.251607,33.759403 -84.251597,33.7604 -84.251576,33.761363 -84.251569,33.762225 -84.25149,33.7647 -84.251465,33.764843 -84.251422,33.764927 -84.251335,33.765002 -84.251409,33.76531 -84.251426,33.765826 -84.251369,33.766563 -84.251326,33.767371 -84.251371,33.768055 -84.251517,33.768488 -84.251579,33.768641 -84.251467,33.768806 -84.251217,33.769177 -84.251058,33.769451 -84.250732,33.769984 -84.250457,33.770446 -84.250229,33.770851 -84.249905,33.771378 -84.249497,33.772056 -84.249312,33.77208 -84.249246,33.772178 -84.249037,33.772555 -84.248723,33.773036 -84.248413,33.773454 -84.248164,33.773774 -84.247889,33.774089 -84.247258,33.774728 -84.247013,33.77493 -84.246396,33.775402 -84.245984,33.775668 -84.245746,33.775824 -84.244984,33.776245 -84.24425,33.776627 -84.243992,33.776739 -84.243715,33.776869 -84.243136,33.777116 -84.241869,33.777739 -84.241258,33.778033 -84.241369,33.778109 -84.242877,33.779164 -84.243517,33.779713 -84.244107,33.780262 -84.244385,33.78055 -84.244789,33.781094 -84.244981,33.781422 -84.245199,33.781991 -84.245595,33.783142 -84.245775,33.783182 -84.246087,33.78324 -84.246481,33.783265 -84.247108,33.783279 -84.247224,33.783275 -84.248206,33.783234 -84.248538,33.783201 -84.248365,33.783943 -84.248197,33.784454 -84.247975,33.785371 -84.247829,33.785824 -84.247742,33.786025 -84.247412,33.786516 -84.246955,33.787267 -84.246273,33.786937 -84.245795,33.78669 -84.245924,33.78709 -84.246003,33.787402 -84.246145,33.78803 -84.246327,33.788961 -84.246361,33.789461 -84.246363,33.79018 -84.24633,33.790461 -84.246258,33.792259 -84.246241,33.793434 -84.246233,33.793916 -84.246214,33.795137 -84.246213,33.795574 -84.246259,33.795842 -84.246323,33.795986 -84.246404,33.796132 -84.246594,33.796381 -84.247139,33.79698 -84.247384,33.797414 -84.247403,33.797596 -84.247438,33.797702 -84.247448,33.797884 -84.247442,33.798551 -84.24742,33.801102 -84.247407,33.801521 -84.247421,33.802442 -84.247424,33.802521 -84.247485,33.802473 -84.247537,33.802472 -84.248155,33.802338 -84.248357,33.80228 -84.248513,33.802371 -84.24949,33.802368 -84.249532,33.801809 -84.24964,33.800011 -84.249425,33.798502 -84.249255,33.797501 -84.249086,33.796745 -84.248863,33.795819 -84.251172,33.795839 -84.251365,33.796664 -84.252868,33.796314 -84.25302,33.796633 -84.254157,33.796382 -84.254383,33.796846 -84.254451,33.796941 -84.254613,33.797249 -84.25504,33.797841 -84.255672,33.79865 -84.257582,33.797163 -84.257758,33.797053 -84.25735,33.796766 -84.257814,33.796197 -84.259166,33.796635 -84.260084,33.795899 -84.260855,33.795799 -84.260778,33.795696 -84.260779,33.795636 -84.260891,33.795318 -84.261043,33.794992 -84.261102,33.794722 -84.261167,33.794605 -84.261305,33.79438 -84.261452,33.794215 -84.26163,33.794049 -84.262057,33.793598 -84.262139,33.793542 -84.263089,33.793624 -84.263632,33.793609 -84.263922,33.793602 -84.263518,33.79428 -84.263495,33.794285 -84.262919,33.795042 -84.262331,33.795695 -84.261646,33.796302 -84.261327,33.796561 -84.260287,33.797426 -84.259767,33.797854 -84.258615,33.798732 -84.257672,33.799438 -84.257247,33.79975 -84.256831,33.800096 -84.256479,33.800378 -84.256135,33.800655 -84.255314,33.801296 -84.254672,33.801746 -84.254332,33.801933 -84.253583,33.802317 -84.253042,33.802513 -84.252521,33.802679 -84.251939,33.802826 -84.251552,33.802911 -84.250747,33.80307 -84.250286,33.803166 -84.250054,33.803215 -84.250202,33.804605 -84.25036,33.806006 -84.250454,33.806841 -84.250454,33.80688 -84.250654,33.808555 -84.250801,33.809585 -84.250907,33.810517 -84.25096,33.811476 -84.250965,33.812392 -84.250934,33.812709 -84.250851,33.812924 -84.250666,33.813903 -84.250539,33.81439 -84.25034,33.814918 -84.25008,33.815436 -84.249792,33.815903 -84.249423,33.816351 -84.249005,33.816764 -84.248683,33.817019 -84.248206,33.817364 -84.247619,33.817735 -84.247607,33.817745 -84.247292,33.8179 -84.246871,33.818111 -84.246668,33.818267 -84.247429,33.817896 -84.250691,33.816278 -84.25084,33.816205 -84.25086,33.816424 -84.250919,33.816944 -84.250973,33.817274 -84.251043,33.817695 -84.251122,33.818063 -84.251189,33.818283 -84.251356,33.8187 -84.251556,33.819197 -84.251745,33.819629 -84.251853,33.819898 -84.251961,33.820195 -84.252162,33.821004 -84.252285,33.821891 -84.252366,33.822282 -84.252383,33.822367 -84.252485,33.823299 -84.252493,33.823392 -84.252492,33.824017 -84.252516,33.824271 -84.252525,33.824393 -84.2525,33.82532 -84.252453,33.82604 -84.252381,33.827159 -84.252376,33.827328 -84.252135,33.829791 -84.252084,33.830111 -84.251934,33.830691 -84.251687,33.831463 -84.251554,33.831721 -84.251262,33.832391 -84.250831,33.833202 -84.249762,33.834953 -84.249195,33.835903 -84.248934,33.836464 -84.248657,33.837193 -84.248355,33.838091 -84.248155,33.83884 -84.248107,33.839018 -84.248346,33.838912 -84.24833,33.838978 -84.248092,33.839085 -84.247959,33.839704 -84.247697,33.841137 -84.247673,33.841667 -84.247494,33.843151 -84.24737,33.843841 -84.247004,33.846435 -84.247274,33.846411 -84.247612,33.846391 -84.24816,33.846403 -84.248524,33.846397 -84.249814,33.846426 -84.250678,33.846438 -84.251746,33.846462 -84.253457,33.846477 -84.253519,33.846625 -84.253644,33.846774 -84.25393,33.846951 -84.25412,33.847048 -84.254332,33.847171 -84.255058,33.847671 -84.255686,33.848103 -84.255785,33.848165 -84.255959,33.848277 -84.25686,33.848862 -84.257991,33.849408 -84.26031,33.850434 -84.260999,33.850753 -84.261278,33.850895 -84.261476,33.851043 -84.261673,33.851225 -84.26179,33.851363 -84.261925,33.851585 -84.262057,33.851884 -84.262742,33.85424 -84.262781,33.854335 -84.262774,33.854361 -84.262826,33.854489 -84.262912,33.85466 -84.263027,33.854865 -84.263152,33.855062 -84.263437,33.855364 -84.263696,33.855488 -84.263895,33.855586 -84.264146,33.855684 -84.264357,33.85574 -84.264659,33.855789 -84.265102,33.855814 -84.265673,33.855725 -84.26607,33.855641 -84.26698,33.855391 -84.267347,33.855323 -84.268277,33.855073 -84.268808,33.854933 -84.269134,33.854864 -84.26954,33.854848 -84.270291,33.854797 -84.271395,33.854813 -84.273198,33.854802 -84.273796,33.854807 -84.274231,33.854816 -84.274574,33.854858 -84.275148,33.854963 -84.275864,33.855202 -84.276764,33.855439 -84.277136,33.855531 -84.278196,33.855847 -84.278588,33.85594 -84.278881,33.855981 -84.279224,33.855997 -84.27951,33.855952 -84.279795,33.855891 -84.280072,33.855779 -84.280298,33.855674 -84.280516,33.855535 -84.280724,33.855362 -84.280881,33.85518 -84.281293,33.854648 -84.281731,33.855537 -84.281919,33.855508 -84.282414,33.855416 -84.282607,33.855387 -84.284715,33.85542 -84.285219,33.855428 -84.286273,33.855417 -84.287459,33.855392 -84.288509,33.855429 -84.288507,33.855691 -84.288518,33.855883 -84.288528,33.855928 -84.28857,33.855992 -84.28885,33.856251 -84.289407,33.85677 -84.28997,33.856541 -84.291214,33.856037 -84.291508,33.855923 -84.291696,33.855835 -84.291879,33.855739 -84.292055,33.855634 -84.292223,33.855522 -84.292384,33.855401 -84.292459,33.855336 -84.292538,33.855275 -84.292622,33.855217 -84.292709,33.855164 -84.2928,33.855116 -84.292894,33.855072 -84.29302,33.855021 -84.293234,33.854814 -84.293563,33.854449 -84.293958,33.854046 -84.294154,33.853891 -84.294859,33.854424 -84.295885,33.855197 -84.296073,33.855342 -84.296262,33.855485 -84.296862,33.855011 -84.299358,33.852953 -84.30009,33.852388 -84.301456,33.851333 -84.302046,33.850866 -84.303003,33.85 -84.303378,33.849566 -84.303682,33.849177 -84.303809,33.848994 -84.305016,33.84685 -84.306352,33.84456 -84.306839,33.843717 -84.307136,33.843269 -84.307358,33.842946 -84.30765,33.842624 -84.307982,33.842328 -84.308438,33.841951 -84.308993,33.84161 -84.309403,33.841391 -84.309894,33.841167 -84.310343,33.841 -84.310842,33.840867 -84.311248,33.840775 -84.311704,33.840701 -84.312873,33.840596 -84.313176,33.840573 -84.313379,33.840991 -84.313662,33.841511 -84.313736,33.841663 -84.314006,33.842223 -84.314552,33.843218 -84.314641,33.843396 -84.3148,33.843822 -84.314862,33.843968 -84.314968,33.844298 -84.315058,33.844582 -84.315149,33.845107 -84.315222,33.845615 -84.315319,33.846262 -84.315421,33.847361 -84.315495,33.848147 -84.315494,33.848208 -84.315477,33.850164 -84.315468,33.850232 -84.315404,33.850493 -84.31534,33.850763 -84.315117,33.851306 -84.31472,33.852179 -84.314686,33.852253 -84.314371,33.853061 -84.314258,33.853361 -84.314019,33.853809 -84.313864,33.854016 -84.313404,33.8544 -84.313023,33.85472 -84.312925,33.854811 -84.312763,33.855012 -84.312503,33.855494 -84.312383,33.855779 -84.312313,33.855984 -84.312002,33.856811 -84.311957,33.857041 -84.311944,33.857147 -84.311907,33.857472 -84.311889,33.858044 -84.31187,33.858257 -84.311847,33.858414 -84.311792,33.858641 -84.311707,33.858801 -84.311598,33.858991 -84.311263,33.8594 -84.310684,33.860037 -84.310463,33.860285 -84.310204,33.860589 -84.310007,33.860869 -84.309885,33.861094 -84.309774,33.86136 -84.309698,33.861646 -84.309535,33.862367 -84.309436,33.862902 -84.309437,33.863547 -84.309449,33.864287 -84.309458,33.864591 -84.309451,33.865356 -84.30945,33.866593 -84.309447,33.86788 -84.309435,33.869152 -84.309438,33.871092 -84.309432,33.872119 -84.30943,33.875481 -84.309437,33.876509 -84.309434,33.876798 -84.310582,33.876789 -84.31182,33.87683 -84.313903,33.876777 -84.313904,33.876643 -84.314546,33.876644 -84.314542,33.876502 -84.315166,33.876514 -84.315159,33.87677 -84.315856,33.877033 -84.316524,33.877377 -84.317182,33.877721 -84.317273,33.877773 -84.317473,33.877771 -84.317596,33.877772 -84.317742,33.877615 -84.317824,33.877655 -84.318108,33.877747 -84.318315,33.877815 -84.318456,33.877662 -84.31846,33.877652 -84.319329,33.877656 -84.319346,33.878191 -84.319359,33.879134 -84.319478,33.879157 -84.31974,33.87918 -84.320044,33.879178 -84.320207,33.879173 -84.321132,33.8789 -84.32121,33.878847 -84.321691,33.878724 -84.321721,33.878724 -84.321985,33.878644 -84.322233,33.878572 -84.322477,33.878793 -84.322611,33.878648 -84.322898,33.878379 -84.323294,33.878046 -84.323647,33.877775 -84.324514,33.877235 -84.325551,33.87663 -84.327058,33.875724 -84.327943,33.87522 -84.329084,33.874558 -84.329714,33.874169 -84.330232,33.873808 -84.330476,33.874181 -84.330547,33.874359 -84.330631,33.874665 -84.330713,33.87502 -84.330788,33.875594 -84.330777,33.875788 -84.330718,33.876214 -84.330687,33.87639 -84.330618,33.876714 -84.33057,33.876882 -84.330506,33.877051 -84.330388,33.877274 -84.330209,33.877581 -84.329911,33.878169 -84.329883,33.878274 -84.329868,33.878464 -84.329866,33.878804 -84.32988,33.879186 -84.329953,33.88003 -84.330021,33.880387 -84.330895,33.880317 -84.331678,33.880281 -84.332927,33.880416 -84.333221,33.880506 -84.333683,33.880636 -84.334176,33.880845 -84.334454,33.880907 -84.334682,33.880934 -84.33487,33.880888 -84.335135,33.880795 -84.335694,33.880546 -84.336496,33.880358 -84.337297,33.880206 -84.337782,33.88016 -84.338526,33.880204 -84.33948,33.880309 -84.340248,33.880425 -84.342187,33.880735 -84.344581,33.881133 -84.34545,33.881283 -84.345703,33.881305 -84.34607,33.881371 -84.346746,33.881542 -84.347485,33.881782 -84.348028,33.882058 -84.348089,33.88209</coordinates></LinearRing></outerBoundaryIs></Polygon>
  </Placemark>
</Folder>
</Document></kml>
